[{"id":"1","province_id":"1","code":"001","name":"Ba \u0110\u00ecnh","name_en":"Ba Dinh","full_name":"Qu\u1eadn Ba \u0110\u00ecnh","full_name_en":"Ba Dinh District","unit_name":"Qu\u1eadn","unit_name_en":"District"},{"id":"2","province_id":"1","code":"002","name":"Ho\u00e0n Ki\u1ebfm","name_en":"Hoan Kiem","full_name":"Qu\u1eadn Ho\u00e0n Ki\u1ebfm","full_name_en":"Hoan Kiem District","unit_name":"Qu\u1eadn","unit_name_en":"District"},{"id":"3","province_id":"1","code":"003","name":"T\u00e2y H\u1ed3","name_en":"Tay Ho","full_name":"Qu\u1eadn T\u00e2y H\u1ed3","full_name_en":"Tay Ho District","unit_name":"Qu\u1eadn","unit_name_en":"District"},{"id":"4","province_id":"1","code":"004","name":"Long Bi\u00ean","name_en":"Long Bien","full_name":"Qu\u1eadn Long Bi\u00ean","full_name_en":"Long Bien District","unit_name":"Qu\u1eadn","unit_name_en":"District"},{"id":"5","province_id":"1","code":"005","name":"C\u1ea7u Gi\u1ea5y","name_en":"Cau Giay","full_name":"Qu\u1eadn C\u1ea7u Gi\u1ea5y","full_name_en":"Cau Giay District","unit_name":"Qu\u1eadn","unit_name_en":"District"},{"id":"6","province_id":"1","code":"006","name":"\u0110\u1ed1ng \u0110a","name_en":"Dong Da","full_name":"Qu\u1eadn \u0110\u1ed1ng \u0110a","full_name_en":"Dong Da District","unit_name":"Qu\u1eadn","unit_name_en":"District"},{"id":"7","province_id":"1","code":"007","name":"Hai B\u00e0 Tr\u01b0ng","name_en":"Hai Ba Trung","full_name":"Qu\u1eadn Hai B\u00e0 Tr\u01b0ng","full_name_en":"Hai Ba Trung District","unit_name":"Qu\u1eadn","unit_name_en":"District"},{"id":"8","province_id":"1","code":"008","name":"Ho\u00e0ng Mai","name_en":"Hoang Mai","full_name":"Qu\u1eadn Ho\u00e0ng Mai","full_name_en":"Hoang Mai District","unit_name":"Qu\u1eadn","unit_name_en":"District"},{"id":"9","province_id":"1","code":"009","name":"Thanh Xu\u00e2n","name_en":"Thanh Xuan","full_name":"Qu\u1eadn Thanh Xu\u00e2n","full_name_en":"Thanh Xuan District","unit_name":"Qu\u1eadn","unit_name_en":"District"},{"id":"10","province_id":"1","code":"016","name":"S\u00f3c S\u01a1n","name_en":"Soc Son","full_name":"Huy\u1ec7n S\u00f3c S\u01a1n","full_name_en":"Soc Son District","unit_name":"Huy\u1ec7n","unit_name_en":"District"},{"id":"11","province_id":"1","code":"017","name":"\u0110\u00f4ng Anh","name_en":"Dong Anh","full_name":"Huy\u1ec7n \u0110\u00f4ng Anh","full_name_en":"Dong Anh District","unit_name":"Huy\u1ec7n","unit_name_en":"District"},{"id":"12","province_id":"1","code":"018","name":"Gia L\u00e2m","name_en":"Gia Lam","full_name":"Huy\u1ec7n Gia L\u00e2m","full_name_en":"Gia Lam District","unit_name":"Huy\u1ec7n","unit_name_en":"District"},{"id":"13","province_id":"1","code":"019","name":"Nam T\u1eeb Li\u00eam","name_en":"Nam Tu Liem","full_name":"Qu\u1eadn Nam T\u1eeb Li\u00eam","full_name_en":"Nam Tu Liem District","unit_name":"Qu\u1eadn","unit_name_en":"District"},{"id":"14","province_id":"1","code":"020","name":"Thanh Tr\u00ec","name_en":"Thanh Tri","full_name":"Huy\u1ec7n Thanh Tr\u00ec","full_name_en":"Thanh Tri District","unit_name":"Huy\u1ec7n","unit_name_en":"District"},{"id":"15","province_id":"1","code":"021","name":"B\u1eafc T\u1eeb Li\u00eam","name_en":"Bac Tu Liem","full_name":"Qu\u1eadn B\u1eafc T\u1eeb Li\u00eam","full_name_en":"Bac Tu Liem District","unit_name":"Qu\u1eadn","unit_name_en":"District"},{"id":"16","province_id":"1","code":"250","name":"M\u00ea Linh","name_en":"Me Linh","full_name":"Huy\u1ec7n M\u00ea Linh","full_name_en":"Me Linh District","unit_name":"Huy\u1ec7n","unit_name_en":"District"},{"id":"17","province_id":"1","code":"268","name":"H\u00e0 \u0110\u00f4ng","name_en":"Ha Dong","full_name":"Qu\u1eadn H\u00e0 \u0110\u00f4ng","full_name_en":"Ha Dong District","unit_name":"Qu\u1eadn","unit_name_en":"District"},{"id":"18","province_id":"1","code":"269","name":"S\u01a1n T\u00e2y","name_en":"Son Tay","full_name":"Th\u1ecb x\u00e3 S\u01a1n T\u00e2y","full_name_en":"Son Tay Town","unit_name":"Th\u1ecb x\u00e3","unit_name_en":"Town"},{"id":"19","province_id":"1","code":"271","name":"Ba V\u00ec","name_en":"Ba Vi","full_name":"Huy\u1ec7n Ba V\u00ec","full_name_en":"Ba Vi District","unit_name":"Huy\u1ec7n","unit_name_en":"District"},{"id":"20","province_id":"1","code":"272","name":"Ph\u00fac Th\u1ecd","name_en":"Phuc Tho","full_name":"Huy\u1ec7n Ph\u00fac Th\u1ecd","full_name_en":"Phuc Tho District","unit_name":"Huy\u1ec7n","unit_name_en":"District"},{"id":"21","province_id":"1","code":"273","name":"\u0110an Ph\u01b0\u1ee3ng","name_en":"Dan Phuong","full_name":"Huy\u1ec7n \u0110an Ph\u01b0\u1ee3ng","full_name_en":"Dan Phuong District","unit_name":"Huy\u1ec7n","unit_name_en":"District"},{"id":"22","province_id":"1","code":"274","name":"Ho\u00e0i \u0110\u1ee9c","name_en":"Hoai Duc","full_name":"Huy\u1ec7n Ho\u00e0i \u0110\u1ee9c","full_name_en":"Hoai Duc District","unit_name":"Huy\u1ec7n","unit_name_en":"District"},{"id":"23","province_id":"1","code":"275","name":"Qu\u1ed1c Oai","name_en":"Quoc Oai","full_name":"Huy\u1ec7n Qu\u1ed1c Oai","full_name_en":"Quoc Oai District","unit_name":"Huy\u1ec7n","unit_name_en":"District"},{"id":"24","province_id":"1","code":"276","name":"Th\u1ea1ch Th\u1ea5t","name_en":"Thach That","full_name":"Huy\u1ec7n Th\u1ea1ch Th\u1ea5t","full_name_en":"Thach That District","unit_name":"Huy\u1ec7n","unit_name_en":"District"},{"id":"25","province_id":"1","code":"277","name":"Ch\u01b0\u01a1ng M\u1ef9","name_en":"Chuong My","full_name":"Huy\u1ec7n Ch\u01b0\u01a1ng M\u1ef9","full_name_en":"Chuong My District","unit_name":"Huy\u1ec7n","unit_name_en":"District"},{"id":"26","province_id":"1","code":"278","name":"Thanh Oai","name_en":"Thanh Oai","full_name":"Huy\u1ec7n Thanh Oai","full_name_en":"Thanh Oai District","unit_name":"Huy\u1ec7n","unit_name_en":"District"},{"id":"27","province_id":"1","code":"279","name":"Th\u01b0\u1eddng T\u00edn","name_en":"Thuong Tin","full_name":"Huy\u1ec7n Th\u01b0\u1eddng T\u00edn","full_name_en":"Thuong Tin District","unit_name":"Huy\u1ec7n","unit_name_en":"District"},{"id":"28","province_id":"1","code":"280","name":"Ph\u00fa Xuy\u00ean","name_en":"Phu Xuyen","full_name":"Huy\u1ec7n Ph\u00fa Xuy\u00ean","full_name_en":"Phu Xuyen District","unit_name":"Huy\u1ec7n","unit_name_en":"District"},{"id":"29","province_id":"1","code":"281","name":"\u1ee8ng H\u00f2a","name_en":"Ung Hoa","full_name":"Huy\u1ec7n \u1ee8ng H\u00f2a","full_name_en":"Ung Hoa District","unit_name":"Huy\u1ec7n","unit_name_en":"District"},{"id":"30","province_id":"1","code":"282","name":"M\u1ef9 \u0110\u1ee9c","name_en":"My Duc","full_name":"Huy\u1ec7n M\u1ef9 \u0110\u1ee9c","full_name_en":"My Duc District","unit_name":"Huy\u1ec7n","unit_name_en":"District"},{"id":"31","province_id":"2","code":"024","name":"H\u00e0 Giang","name_en":"Ha Giang","full_name":"Th\u00e0nh ph\u1ed1 H\u00e0 Giang","full_name_en":"Ha Giang City","unit_name":"Th\u00e0nh ph\u1ed1","unit_name_en":"City"},{"id":"32","province_id":"2","code":"026","name":"\u0110\u1ed3ng V\u0103n","name_en":"Dong Van","full_name":"Huy\u1ec7n \u0110\u1ed3ng V\u0103n","full_name_en":"Dong Van District","unit_name":"Huy\u1ec7n","unit_name_en":"District"},{"id":"33","province_id":"2","code":"027","name":"M\u00e8o V\u1ea1c","name_en":"Meo Vac","full_name":"Huy\u1ec7n M\u00e8o V\u1ea1c","full_name_en":"Meo Vac District","unit_name":"Huy\u1ec7n","unit_name_en":"District"},{"id":"34","province_id":"2","code":"028","name":"Y\u00ean Minh","name_en":"Yen Minh","full_name":"Huy\u1ec7n Y\u00ean Minh","full_name_en":"Yen Minh District","unit_name":"Huy\u1ec7n","unit_name_en":"District"},{"id":"35","province_id":"2","code":"029","name":"Qu\u1ea3n B\u1ea1","name_en":"Quan Ba","full_name":"Huy\u1ec7n Qu\u1ea3n B\u1ea1","full_name_en":"Quan Ba District","unit_name":"Huy\u1ec7n","unit_name_en":"District"},{"id":"36","province_id":"2","code":"030","name":"V\u1ecb Xuy\u00ean","name_en":"Vi Xuyen","full_name":"Huy\u1ec7n V\u1ecb Xuy\u00ean","full_name_en":"Vi Xuyen District","unit_name":"Huy\u1ec7n","unit_name_en":"District"},{"id":"37","province_id":"2","code":"031","name":"B\u1eafc M\u00ea","name_en":"Bac Me","full_name":"Huy\u1ec7n B\u1eafc M\u00ea","full_name_en":"Bac Me District","unit_name":"Huy\u1ec7n","unit_name_en":"District"},{"id":"38","province_id":"2","code":"032","name":"Ho\u00e0ng Su Ph\u00ec","name_en":"Hoang Su Phi","full_name":"Huy\u1ec7n Ho\u00e0ng Su Ph\u00ec","full_name_en":"Hoang Su Phi District","unit_name":"Huy\u1ec7n","unit_name_en":"District"},{"id":"39","province_id":"2","code":"033","name":"X\u00edn M\u1ea7n","name_en":"Xin Man","full_name":"Huy\u1ec7n X\u00edn M\u1ea7n","full_name_en":"Xin Man District","unit_name":"Huy\u1ec7n","unit_name_en":"District"},{"id":"40","province_id":"2","code":"034","name":"B\u1eafc Quang","name_en":"Bac Quang","full_name":"Huy\u1ec7n B\u1eafc Quang","full_name_en":"Bac Quang District","unit_name":"Huy\u1ec7n","unit_name_en":"District"},{"id":"41","province_id":"2","code":"035","name":"Quang B\u00ecnh","name_en":"Quang Binh","full_name":"Huy\u1ec7n Quang B\u00ecnh","full_name_en":"Quang Binh District","unit_name":"Huy\u1ec7n","unit_name_en":"District"},{"id":"42","province_id":"3","code":"040","name":"Cao B\u1eb1ng","name_en":"Cao Bang","full_name":"Th\u00e0nh ph\u1ed1 Cao B\u1eb1ng","full_name_en":"Cao Bang City","unit_name":"Th\u00e0nh ph\u1ed1","unit_name_en":"City"},{"id":"43","province_id":"3","code":"042","name":"B\u1ea3o L\u00e2m","name_en":"Bao Lam","full_name":"Huy\u1ec7n B\u1ea3o L\u00e2m","full_name_en":"Bao Lam District","unit_name":"Huy\u1ec7n","unit_name_en":"District"},{"id":"44","province_id":"3","code":"043","name":"B\u1ea3o L\u1ea1c","name_en":"Bao Lac","full_name":"Huy\u1ec7n B\u1ea3o L\u1ea1c","full_name_en":"Bao Lac District","unit_name":"Huy\u1ec7n","unit_name_en":"District"},{"id":"45","province_id":"3","code":"045","name":"H\u00e0 Qu\u1ea3ng","name_en":"Ha Quang","full_name":"Huy\u1ec7n H\u00e0 Qu\u1ea3ng","full_name_en":"Ha Quang District","unit_name":"Huy\u1ec7n","unit_name_en":"District"},{"id":"46","province_id":"3","code":"047","name":"Tr\u00f9ng Kh\u00e1nh","name_en":"Trung Khanh","full_name":"Huy\u1ec7n Tr\u00f9ng Kh\u00e1nh","full_name_en":"Trung Khanh District","unit_name":"Huy\u1ec7n","unit_name_en":"District"},{"id":"47","province_id":"3","code":"048","name":"H\u1ea1 Lang","name_en":"Ha Lang","full_name":"Huy\u1ec7n H\u1ea1 Lang","full_name_en":"Ha Lang District","unit_name":"Huy\u1ec7n","unit_name_en":"District"},{"id":"48","province_id":"3","code":"049","name":"Qu\u1ea3ng H\u00f2a","name_en":"Quang Hoa","full_name":"Huy\u1ec7n Qu\u1ea3ng H\u00f2a","full_name_en":"Quang Hoa District","unit_name":"Huy\u1ec7n","unit_name_en":"District"},{"id":"49","province_id":"3","code":"051","name":"Ho\u00e0 An","name_en":"Hoa An","full_name":"Huy\u1ec7n Ho\u00e0 An","full_name_en":"Hoa An District","unit_name":"Huy\u1ec7n","unit_name_en":"District"},{"id":"50","province_id":"3","code":"052","name":"Nguy\u00ean B\u00ecnh","name_en":"Nguyen Binh","full_name":"Huy\u1ec7n Nguy\u00ean B\u00ecnh","full_name_en":"Nguyen Binh District","unit_name":"Huy\u1ec7n","unit_name_en":"District"},{"id":"51","province_id":"3","code":"053","name":"Th\u1ea1ch An","name_en":"Thach An","full_name":"Huy\u1ec7n Th\u1ea1ch An","full_name_en":"Thach An District","unit_name":"Huy\u1ec7n","unit_name_en":"District"},{"id":"52","province_id":"4","code":"058","name":"B\u1eafc K\u1ea1n","name_en":"Bac Kan","full_name":"Th\u00e0nh ph\u1ed1 B\u1eafc K\u1ea1n","full_name_en":"Bac Kan City","unit_name":"Th\u00e0nh ph\u1ed1","unit_name_en":"City"},{"id":"53","province_id":"4","code":"060","name":"P\u00e1c N\u1eb7m","name_en":"Pac Nam","full_name":"Huy\u1ec7n P\u00e1c N\u1eb7m","full_name_en":"Pac Nam District","unit_name":"Huy\u1ec7n","unit_name_en":"District"},{"id":"54","province_id":"4","code":"061","name":"Ba B\u1ec3","name_en":"Ba Be","full_name":"Huy\u1ec7n Ba B\u1ec3","full_name_en":"Ba Be District","unit_name":"Huy\u1ec7n","unit_name_en":"District"},{"id":"55","province_id":"4","code":"062","name":"Ng\u00e2n S\u01a1n","name_en":"Ngan Son","full_name":"Huy\u1ec7n Ng\u00e2n S\u01a1n","full_name_en":"Ngan Son District","unit_name":"Huy\u1ec7n","unit_name_en":"District"},{"id":"56","province_id":"4","code":"063","name":"B\u1ea1ch Th\u00f4ng","name_en":"Bach Thong","full_name":"Huy\u1ec7n B\u1ea1ch Th\u00f4ng","full_name_en":"Bach Thong District","unit_name":"Huy\u1ec7n","unit_name_en":"District"},{"id":"57","province_id":"4","code":"064","name":"Ch\u1ee3 \u0110\u1ed3n","name_en":"Cho Don","full_name":"Huy\u1ec7n Ch\u1ee3 \u0110\u1ed3n","full_name_en":"Cho Don District","unit_name":"Huy\u1ec7n","unit_name_en":"District"},{"id":"58","province_id":"4","code":"065","name":"Ch\u1ee3 M\u1edbi","name_en":"Cho Moi","full_name":"Huy\u1ec7n Ch\u1ee3 M\u1edbi","full_name_en":"Cho Moi District","unit_name":"Huy\u1ec7n","unit_name_en":"District"},{"id":"59","province_id":"4","code":"066","name":"Na R\u00ec","name_en":"Na Ri","full_name":"Huy\u1ec7n Na R\u00ec","full_name_en":"Na Ri District","unit_name":"Huy\u1ec7n","unit_name_en":"District"},{"id":"60","province_id":"5","code":"070","name":"Tuy\u00ean Quang","name_en":"Tuyen Quang","full_name":"Th\u00e0nh ph\u1ed1 Tuy\u00ean Quang","full_name_en":"Tuyen Quang City","unit_name":"Th\u00e0nh ph\u1ed1","unit_name_en":"City"},{"id":"61","province_id":"5","code":"071","name":"L\u00e2m B\u00ecnh","name_en":"Lam Binh","full_name":"Huy\u1ec7n L\u00e2m B\u00ecnh","full_name_en":"Lam Binh District","unit_name":"Huy\u1ec7n","unit_name_en":"District"},{"id":"62","province_id":"5","code":"072","name":"Na Hang","name_en":"Na Hang","full_name":"Huy\u1ec7n Na Hang","full_name_en":"Na Hang District","unit_name":"Huy\u1ec7n","unit_name_en":"District"},{"id":"63","province_id":"5","code":"073","name":"Chi\u00eam H\u00f3a","name_en":"Chiem Hoa","full_name":"Huy\u1ec7n Chi\u00eam H\u00f3a","full_name_en":"Chiem Hoa District","unit_name":"Huy\u1ec7n","unit_name_en":"District"},{"id":"64","province_id":"5","code":"074","name":"H\u00e0m Y\u00ean","name_en":"Ham Yen","full_name":"Huy\u1ec7n H\u00e0m Y\u00ean","full_name_en":"Ham Yen District","unit_name":"Huy\u1ec7n","unit_name_en":"District"},{"id":"65","province_id":"5","code":"075","name":"Y\u00ean S\u01a1n","name_en":"Yen Son","full_name":"Huy\u1ec7n Y\u00ean S\u01a1n","full_name_en":"Yen Son District","unit_name":"Huy\u1ec7n","unit_name_en":"District"},{"id":"66","province_id":"5","code":"076","name":"S\u01a1n D\u01b0\u01a1ng","name_en":"Son Duong","full_name":"Huy\u1ec7n S\u01a1n D\u01b0\u01a1ng","full_name_en":"Son Duong District","unit_name":"Huy\u1ec7n","unit_name_en":"District"},{"id":"67","province_id":"6","code":"080","name":"L\u00e0o Cai","name_en":"Lao Cai","full_name":"Th\u00e0nh ph\u1ed1 L\u00e0o Cai","full_name_en":"Lao Cai City","unit_name":"Th\u00e0nh ph\u1ed1","unit_name_en":"City"},{"id":"68","province_id":"6","code":"082","name":"B\u00e1t X\u00e1t","name_en":"Bat Xat","full_name":"Huy\u1ec7n B\u00e1t X\u00e1t","full_name_en":"Bat Xat District","unit_name":"Huy\u1ec7n","unit_name_en":"District"},{"id":"69","province_id":"6","code":"083","name":"M\u01b0\u1eddng Kh\u01b0\u01a1ng","name_en":"Muong Khuong","full_name":"Huy\u1ec7n M\u01b0\u1eddng Kh\u01b0\u01a1ng","full_name_en":"Muong Khuong District","unit_name":"Huy\u1ec7n","unit_name_en":"District"},{"id":"70","province_id":"6","code":"084","name":"Si Ma Cai","name_en":"Si Ma Cai","full_name":"Huy\u1ec7n Si Ma Cai","full_name_en":"Si Ma Cai District","unit_name":"Huy\u1ec7n","unit_name_en":"District"},{"id":"71","province_id":"6","code":"085","name":"B\u1eafc H\u00e0","name_en":"Bac Ha","full_name":"Huy\u1ec7n B\u1eafc H\u00e0","full_name_en":"Bac Ha District","unit_name":"Huy\u1ec7n","unit_name_en":"District"},{"id":"72","province_id":"6","code":"086","name":"B\u1ea3o Th\u1eafng","name_en":"Bao Thang","full_name":"Huy\u1ec7n B\u1ea3o Th\u1eafng","full_name_en":"Bao Thang District","unit_name":"Huy\u1ec7n","unit_name_en":"District"},{"id":"73","province_id":"6","code":"087","name":"B\u1ea3o Y\u00ean","name_en":"Bao Yen","full_name":"Huy\u1ec7n B\u1ea3o Y\u00ean","full_name_en":"Bao Yen District","unit_name":"Huy\u1ec7n","unit_name_en":"District"},{"id":"74","province_id":"6","code":"088","name":"Sa Pa","name_en":"Sa Pa","full_name":"Th\u1ecb x\u00e3 Sa Pa","full_name_en":"Sa Pa Town","unit_name":"Th\u1ecb x\u00e3","unit_name_en":"Town"},{"id":"75","province_id":"6","code":"089","name":"V\u0103n B\u00e0n","name_en":"Van Ban","full_name":"Huy\u1ec7n V\u0103n B\u00e0n","full_name_en":"Van Ban District","unit_name":"Huy\u1ec7n","unit_name_en":"District"},{"id":"76","province_id":"7","code":"094","name":"\u0110i\u1ec7n Bi\u00ean Ph\u1ee7","name_en":"Dien Bien Phu","full_name":"Th\u00e0nh ph\u1ed1 \u0110i\u1ec7n Bi\u00ean Ph\u1ee7","full_name_en":"Dien Bien Phu City","unit_name":"Th\u00e0nh ph\u1ed1","unit_name_en":"City"},{"id":"77","province_id":"7","code":"095","name":"M\u01b0\u1eddng Lay","name_en":"Muong Lay","full_name":"Th\u1ecb x\u00e3 M\u01b0\u1eddng Lay","full_name_en":"Muong Lay Town","unit_name":"Th\u1ecb x\u00e3","unit_name_en":"Town"},{"id":"78","province_id":"7","code":"096","name":"M\u01b0\u1eddng Nh\u00e9","name_en":"Muong Nhe","full_name":"Huy\u1ec7n M\u01b0\u1eddng Nh\u00e9","full_name_en":"Muong Nhe District","unit_name":"Huy\u1ec7n","unit_name_en":"District"},{"id":"79","province_id":"7","code":"097","name":"M\u01b0\u1eddng Ch\u00e0","name_en":"Muong Cha","full_name":"Huy\u1ec7n M\u01b0\u1eddng Ch\u00e0","full_name_en":"Muong Cha District","unit_name":"Huy\u1ec7n","unit_name_en":"District"},{"id":"80","province_id":"7","code":"098","name":"T\u1ee7a Ch\u00f9a","name_en":"Tua Chua","full_name":"Huy\u1ec7n T\u1ee7a Ch\u00f9a","full_name_en":"Tua Chua District","unit_name":"Huy\u1ec7n","unit_name_en":"District"},{"id":"81","province_id":"7","code":"099","name":"Tu\u1ea7n Gi\u00e1o","name_en":"Tuan Giao","full_name":"Huy\u1ec7n Tu\u1ea7n Gi\u00e1o","full_name_en":"Tuan Giao District","unit_name":"Huy\u1ec7n","unit_name_en":"District"},{"id":"82","province_id":"7","code":"100","name":"\u0110i\u1ec7n Bi\u00ean","name_en":"Dien Bien","full_name":"Huy\u1ec7n \u0110i\u1ec7n Bi\u00ean","full_name_en":"Dien Bien District","unit_name":"Huy\u1ec7n","unit_name_en":"District"},{"id":"83","province_id":"7","code":"101","name":"\u0110i\u1ec7n Bi\u00ean \u0110\u00f4ng","name_en":"Dien Bien Dong","full_name":"Huy\u1ec7n \u0110i\u1ec7n Bi\u00ean \u0110\u00f4ng","full_name_en":"Dien Bien Dong District","unit_name":"Huy\u1ec7n","unit_name_en":"District"},{"id":"84","province_id":"7","code":"102","name":"M\u01b0\u1eddng \u1ea2ng","name_en":"Muong Ang","full_name":"Huy\u1ec7n M\u01b0\u1eddng \u1ea2ng","full_name_en":"Muong Ang District","unit_name":"Huy\u1ec7n","unit_name_en":"District"},{"id":"85","province_id":"7","code":"103","name":"N\u1eadm P\u1ed3","name_en":"Nam Po","full_name":"Huy\u1ec7n N\u1eadm P\u1ed3","full_name_en":"Nam Po District","unit_name":"Huy\u1ec7n","unit_name_en":"District"},{"id":"86","province_id":"8","code":"105","name":"Lai Ch\u00e2u","name_en":"Lai Chau","full_name":"Th\u00e0nh ph\u1ed1 Lai Ch\u00e2u","full_name_en":"Lai Chau City","unit_name":"Th\u00e0nh ph\u1ed1","unit_name_en":"City"},{"id":"87","province_id":"8","code":"106","name":"Tam \u0110\u01b0\u1eddng","name_en":"Tam Duong","full_name":"Huy\u1ec7n Tam \u0110\u01b0\u1eddng","full_name_en":"Tam Duong District","unit_name":"Huy\u1ec7n","unit_name_en":"District"},{"id":"88","province_id":"8","code":"107","name":"M\u01b0\u1eddng T\u00e8","name_en":"Muong Te","full_name":"Huy\u1ec7n M\u01b0\u1eddng T\u00e8","full_name_en":"Muong Te District","unit_name":"Huy\u1ec7n","unit_name_en":"District"},{"id":"89","province_id":"8","code":"108","name":"S\u00ecn H\u1ed3","name_en":"Sin Ho","full_name":"Huy\u1ec7n S\u00ecn H\u1ed3","full_name_en":"Sin Ho District","unit_name":"Huy\u1ec7n","unit_name_en":"District"},{"id":"90","province_id":"8","code":"109","name":"Phong Th\u1ed5","name_en":"Phong Tho","full_name":"Huy\u1ec7n Phong Th\u1ed5","full_name_en":"Phong Tho District","unit_name":"Huy\u1ec7n","unit_name_en":"District"},{"id":"91","province_id":"8","code":"110","name":"Than Uy\u00ean","name_en":"Than Uyen","full_name":"Huy\u1ec7n Than Uy\u00ean","full_name_en":"Than Uyen District","unit_name":"Huy\u1ec7n","unit_name_en":"District"},{"id":"92","province_id":"8","code":"111","name":"T\u00e2n Uy\u00ean","name_en":"Tan Uyen","full_name":"Huy\u1ec7n T\u00e2n Uy\u00ean","full_name_en":"Tan Uyen District","unit_name":"Huy\u1ec7n","unit_name_en":"District"},{"id":"93","province_id":"8","code":"112","name":"N\u1eadm Nh\u00f9n","name_en":"Nam Nhun","full_name":"Huy\u1ec7n N\u1eadm Nh\u00f9n","full_name_en":"Nam Nhun District","unit_name":"Huy\u1ec7n","unit_name_en":"District"},{"id":"94","province_id":"9","code":"116","name":"S\u01a1n La","name_en":"Son La","full_name":"Th\u00e0nh ph\u1ed1 S\u01a1n La","full_name_en":"Son La City","unit_name":"Th\u00e0nh ph\u1ed1","unit_name_en":"City"},{"id":"95","province_id":"9","code":"118","name":"Qu\u1ef3nh Nhai","name_en":"Quynh Nhai","full_name":"Huy\u1ec7n Qu\u1ef3nh Nhai","full_name_en":"Quynh Nhai District","unit_name":"Huy\u1ec7n","unit_name_en":"District"},{"id":"96","province_id":"9","code":"119","name":"Thu\u1eadn Ch\u00e2u","name_en":"Thuan Chau","full_name":"Huy\u1ec7n Thu\u1eadn Ch\u00e2u","full_name_en":"Thuan Chau District","unit_name":"Huy\u1ec7n","unit_name_en":"District"},{"id":"97","province_id":"9","code":"120","name":"M\u01b0\u1eddng La","name_en":"Muong La","full_name":"Huy\u1ec7n M\u01b0\u1eddng La","full_name_en":"Muong La District","unit_name":"Huy\u1ec7n","unit_name_en":"District"},{"id":"98","province_id":"9","code":"121","name":"B\u1eafc Y\u00ean","name_en":"Bac Yen","full_name":"Huy\u1ec7n B\u1eafc Y\u00ean","full_name_en":"Bac Yen District","unit_name":"Huy\u1ec7n","unit_name_en":"District"},{"id":"99","province_id":"9","code":"122","name":"Ph\u00f9 Y\u00ean","name_en":"Phu Yen","full_name":"Huy\u1ec7n Ph\u00f9 Y\u00ean","full_name_en":"Phu Yen District","unit_name":"Huy\u1ec7n","unit_name_en":"District"},{"id":"100","province_id":"9","code":"123","name":"M\u1ed9c Ch\u00e2u","name_en":"Moc Chau","full_name":"Th\u1ecb x\u00e3 M\u1ed9c Ch\u00e2u","full_name_en":"Moc Chau Town","unit_name":"Th\u1ecb x\u00e3","unit_name_en":"Town"},{"id":"101","province_id":"9","code":"124","name":"Y\u00ean Ch\u00e2u","name_en":"Yen Chau","full_name":"Huy\u1ec7n Y\u00ean Ch\u00e2u","full_name_en":"Yen Chau District","unit_name":"Huy\u1ec7n","unit_name_en":"District"},{"id":"102","province_id":"9","code":"125","name":"Mai S\u01a1n","name_en":"Mai Son","full_name":"Huy\u1ec7n Mai S\u01a1n","full_name_en":"Mai Son District","unit_name":"Huy\u1ec7n","unit_name_en":"District"},{"id":"103","province_id":"9","code":"126","name":"S\u00f4ng M\u00e3","name_en":"Song Ma","full_name":"Huy\u1ec7n S\u00f4ng M\u00e3","full_name_en":"Song Ma District","unit_name":"Huy\u1ec7n","unit_name_en":"District"},{"id":"104","province_id":"9","code":"127","name":"S\u1ed1p C\u1ed9p","name_en":"Sop Cop","full_name":"Huy\u1ec7n S\u1ed1p C\u1ed9p","full_name_en":"Sop Cop District","unit_name":"Huy\u1ec7n","unit_name_en":"District"},{"id":"105","province_id":"9","code":"128","name":"V\u00e2n H\u1ed3","name_en":"Van Ho","full_name":"Huy\u1ec7n V\u00e2n H\u1ed3","full_name_en":"Van Ho District","unit_name":"Huy\u1ec7n","unit_name_en":"District"},{"id":"106","province_id":"10","code":"132","name":"Y\u00ean B\u00e1i","name_en":"Yen Bai","full_name":"Th\u00e0nh ph\u1ed1 Y\u00ean B\u00e1i","full_name_en":"Yen Bai City","unit_name":"Th\u00e0nh ph\u1ed1","unit_name_en":"City"},{"id":"107","province_id":"10","code":"133","name":"Ngh\u0129a L\u1ed9","name_en":"Nghia Lo","full_name":"Th\u1ecb x\u00e3 Ngh\u0129a L\u1ed9","full_name_en":"Nghia Lo Town","unit_name":"Th\u1ecb x\u00e3","unit_name_en":"Town"},{"id":"108","province_id":"10","code":"135","name":"L\u1ee5c Y\u00ean","name_en":"Luc Yen","full_name":"Huy\u1ec7n L\u1ee5c Y\u00ean","full_name_en":"Luc Yen District","unit_name":"Huy\u1ec7n","unit_name_en":"District"},{"id":"109","province_id":"10","code":"136","name":"V\u0103n Y\u00ean","name_en":"Van Yen","full_name":"Huy\u1ec7n V\u0103n Y\u00ean","full_name_en":"Van Yen District","unit_name":"Huy\u1ec7n","unit_name_en":"District"},{"id":"110","province_id":"10","code":"137","name":"M\u00f9 C\u0103ng Ch\u1ea3i","name_en":"Mu Cang Chai","full_name":"Huy\u1ec7n M\u00f9 C\u0103ng Ch\u1ea3i","full_name_en":"Mu Cang Chai District","unit_name":"Huy\u1ec7n","unit_name_en":"District"},{"id":"111","province_id":"10","code":"138","name":"Tr\u1ea5n Y\u00ean","name_en":"Tran Yen","full_name":"Huy\u1ec7n Tr\u1ea5n Y\u00ean","full_name_en":"Tran Yen District","unit_name":"Huy\u1ec7n","unit_name_en":"District"},{"id":"112","province_id":"10","code":"139","name":"Tr\u1ea1m T\u1ea5u","name_en":"Tram Tau","full_name":"Huy\u1ec7n Tr\u1ea1m T\u1ea5u","full_name_en":"Tram Tau District","unit_name":"Huy\u1ec7n","unit_name_en":"District"},{"id":"113","province_id":"10","code":"140","name":"V\u0103n Ch\u1ea5n","name_en":"Van Chan","full_name":"Huy\u1ec7n V\u0103n Ch\u1ea5n","full_name_en":"Van Chan District","unit_name":"Huy\u1ec7n","unit_name_en":"District"},{"id":"114","province_id":"10","code":"141","name":"Y\u00ean B\u00ecnh","name_en":"Yen Binh","full_name":"Huy\u1ec7n Y\u00ean B\u00ecnh","full_name_en":"Yen Binh District","unit_name":"Huy\u1ec7n","unit_name_en":"District"},{"id":"115","province_id":"11","code":"148","name":"H\u00f2a B\u00ecnh","name_en":"Hoa Binh","full_name":"Th\u00e0nh ph\u1ed1 H\u00f2a B\u00ecnh","full_name_en":"Hoa Binh City","unit_name":"Th\u00e0nh ph\u1ed1","unit_name_en":"City"},{"id":"116","province_id":"11","code":"150","name":"\u0110\u00e0 B\u1eafc","name_en":"Da Bac","full_name":"Huy\u1ec7n \u0110\u00e0 B\u1eafc","full_name_en":"Da Bac District","unit_name":"Huy\u1ec7n","unit_name_en":"District"},{"id":"117","province_id":"11","code":"152","name":"L\u01b0\u01a1ng S\u01a1n","name_en":"Luong Son","full_name":"Huy\u1ec7n L\u01b0\u01a1ng S\u01a1n","full_name_en":"Luong Son District","unit_name":"Huy\u1ec7n","unit_name_en":"District"},{"id":"118","province_id":"11","code":"153","name":"Kim B\u00f4i","name_en":"Kim Boi","full_name":"Huy\u1ec7n Kim B\u00f4i","full_name_en":"Kim Boi District","unit_name":"Huy\u1ec7n","unit_name_en":"District"},{"id":"119","province_id":"11","code":"154","name":"Cao Phong","name_en":"Cao Phong","full_name":"Huy\u1ec7n Cao Phong","full_name_en":"Cao Phong District","unit_name":"Huy\u1ec7n","unit_name_en":"District"},{"id":"120","province_id":"11","code":"155","name":"T\u00e2n L\u1ea1c","name_en":"Tan Lac","full_name":"Huy\u1ec7n T\u00e2n L\u1ea1c","full_name_en":"Tan Lac District","unit_name":"Huy\u1ec7n","unit_name_en":"District"},{"id":"121","province_id":"11","code":"156","name":"Mai Ch\u00e2u","name_en":"Mai Chau","full_name":"Huy\u1ec7n Mai Ch\u00e2u","full_name_en":"Mai Chau District","unit_name":"Huy\u1ec7n","unit_name_en":"District"},{"id":"122","province_id":"11","code":"157","name":"L\u1ea1c S\u01a1n","name_en":"Lac Son","full_name":"Huy\u1ec7n L\u1ea1c S\u01a1n","full_name_en":"Lac Son District","unit_name":"Huy\u1ec7n","unit_name_en":"District"},{"id":"123","province_id":"11","code":"158","name":"Y\u00ean Th\u1ee7y","name_en":"Yen Thuy","full_name":"Huy\u1ec7n Y\u00ean Th\u1ee7y","full_name_en":"Yen Thuy District","unit_name":"Huy\u1ec7n","unit_name_en":"District"},{"id":"124","province_id":"11","code":"159","name":"L\u1ea1c Th\u1ee7y","name_en":"Lac Thuy","full_name":"Huy\u1ec7n L\u1ea1c Th\u1ee7y","full_name_en":"Lac Thuy District","unit_name":"Huy\u1ec7n","unit_name_en":"District"},{"id":"125","province_id":"12","code":"164","name":"Th\u00e1i Nguy\u00ean","name_en":"Thai Nguyen","full_name":"Th\u00e0nh ph\u1ed1 Th\u00e1i Nguy\u00ean","full_name_en":"Thai Nguyen City","unit_name":"Th\u00e0nh ph\u1ed1","unit_name_en":"City"},{"id":"126","province_id":"12","code":"165","name":"S\u00f4ng C\u00f4ng","name_en":"Song Cong","full_name":"Th\u00e0nh ph\u1ed1 S\u00f4ng C\u00f4ng","full_name_en":"Song Cong City","unit_name":"Th\u00e0nh ph\u1ed1","unit_name_en":"City"},{"id":"127","province_id":"12","code":"167","name":"\u0110\u1ecbnh H\u00f3a","name_en":"Dinh Hoa","full_name":"Huy\u1ec7n \u0110\u1ecbnh H\u00f3a","full_name_en":"Dinh Hoa District","unit_name":"Huy\u1ec7n","unit_name_en":"District"},{"id":"128","province_id":"12","code":"168","name":"Ph\u00fa L\u01b0\u01a1ng","name_en":"Phu Luong","full_name":"Huy\u1ec7n Ph\u00fa L\u01b0\u01a1ng","full_name_en":"Phu Luong District","unit_name":"Huy\u1ec7n","unit_name_en":"District"},{"id":"129","province_id":"12","code":"169","name":"\u0110\u1ed3ng H\u1ef7","name_en":"Dong Hy","full_name":"Huy\u1ec7n \u0110\u1ed3ng H\u1ef7","full_name_en":"Dong Hy District","unit_name":"Huy\u1ec7n","unit_name_en":"District"},{"id":"130","province_id":"12","code":"170","name":"V\u00f5 Nhai","name_en":"Vo Nhai","full_name":"Huy\u1ec7n V\u00f5 Nhai","full_name_en":"Vo Nhai District","unit_name":"Huy\u1ec7n","unit_name_en":"District"},{"id":"131","province_id":"12","code":"171","name":"\u0110\u1ea1i T\u1eeb","name_en":"Dai Tu","full_name":"Huy\u1ec7n \u0110\u1ea1i T\u1eeb","full_name_en":"Dai Tu District","unit_name":"Huy\u1ec7n","unit_name_en":"District"},{"id":"132","province_id":"12","code":"172","name":"Ph\u1ed5 Y\u00ean","name_en":"Pho Yen","full_name":"Th\u00e0nh ph\u1ed1 Ph\u1ed5 Y\u00ean","full_name_en":"Pho Yen City","unit_name":"Th\u00e0nh ph\u1ed1","unit_name_en":"City"},{"id":"133","province_id":"12","code":"173","name":"Ph\u00fa B\u00ecnh","name_en":"Phu Binh","full_name":"Huy\u1ec7n Ph\u00fa B\u00ecnh","full_name_en":"Phu Binh District","unit_name":"Huy\u1ec7n","unit_name_en":"District"},{"id":"134","province_id":"13","code":"178","name":"L\u1ea1ng S\u01a1n","name_en":"Lang Son","full_name":"Th\u00e0nh ph\u1ed1 L\u1ea1ng S\u01a1n","full_name_en":"Lang Son City","unit_name":"Th\u00e0nh ph\u1ed1","unit_name_en":"City"},{"id":"135","province_id":"13","code":"180","name":"Tr\u00e0ng \u0110\u1ecbnh","name_en":"Trang Dinh","full_name":"Huy\u1ec7n Tr\u00e0ng \u0110\u1ecbnh","full_name_en":"Trang Dinh District","unit_name":"Huy\u1ec7n","unit_name_en":"District"},{"id":"136","province_id":"13","code":"181","name":"B\u00ecnh Gia","name_en":"Binh Gia","full_name":"Huy\u1ec7n B\u00ecnh Gia","full_name_en":"Binh Gia District","unit_name":"Huy\u1ec7n","unit_name_en":"District"},{"id":"137","province_id":"13","code":"182","name":"V\u0103n L\u00e3ng","name_en":"Van Lang","full_name":"Huy\u1ec7n V\u0103n L\u00e3ng","full_name_en":"Van Lang District","unit_name":"Huy\u1ec7n","unit_name_en":"District"},{"id":"138","province_id":"13","code":"183","name":"Cao L\u1ed9c","name_en":"Cao Loc","full_name":"Huy\u1ec7n Cao L\u1ed9c","full_name_en":"Cao Loc District","unit_name":"Huy\u1ec7n","unit_name_en":"District"},{"id":"139","province_id":"13","code":"184","name":"V\u0103n Quan","name_en":"Van Quan","full_name":"Huy\u1ec7n V\u0103n Quan","full_name_en":"Van Quan District","unit_name":"Huy\u1ec7n","unit_name_en":"District"},{"id":"140","province_id":"13","code":"185","name":"B\u1eafc S\u01a1n","name_en":"Bac Son","full_name":"Huy\u1ec7n B\u1eafc S\u01a1n","full_name_en":"Bac Son District","unit_name":"Huy\u1ec7n","unit_name_en":"District"},{"id":"141","province_id":"13","code":"186","name":"H\u1eefu L\u0169ng","name_en":"Huu Lung","full_name":"Huy\u1ec7n H\u1eefu L\u0169ng","full_name_en":"Huu Lung District","unit_name":"Huy\u1ec7n","unit_name_en":"District"},{"id":"142","province_id":"13","code":"187","name":"Chi L\u0103ng","name_en":"Chi Lang","full_name":"Huy\u1ec7n Chi L\u0103ng","full_name_en":"Chi Lang District","unit_name":"Huy\u1ec7n","unit_name_en":"District"},{"id":"143","province_id":"13","code":"188","name":"L\u1ed9c B\u00ecnh","name_en":"Loc Binh","full_name":"Huy\u1ec7n L\u1ed9c B\u00ecnh","full_name_en":"Loc Binh District","unit_name":"Huy\u1ec7n","unit_name_en":"District"},{"id":"144","province_id":"13","code":"189","name":"\u0110\u00ecnh L\u1eadp","name_en":"Dinh Lap","full_name":"Huy\u1ec7n \u0110\u00ecnh L\u1eadp","full_name_en":"Dinh Lap District","unit_name":"Huy\u1ec7n","unit_name_en":"District"},{"id":"145","province_id":"14","code":"193","name":"H\u1ea1 Long","name_en":"Ha Long","full_name":"Th\u00e0nh ph\u1ed1 H\u1ea1 Long","full_name_en":"Ha Long City","unit_name":"Th\u00e0nh ph\u1ed1","unit_name_en":"City"},{"id":"146","province_id":"14","code":"194","name":"M\u00f3ng C\u00e1i","name_en":"Mong Cai","full_name":"Th\u00e0nh ph\u1ed1 M\u00f3ng C\u00e1i","full_name_en":"Mong Cai City","unit_name":"Th\u00e0nh ph\u1ed1","unit_name_en":"City"},{"id":"147","province_id":"14","code":"195","name":"C\u1ea9m Ph\u1ea3","name_en":"Cam Pha","full_name":"Th\u00e0nh ph\u1ed1 C\u1ea9m Ph\u1ea3","full_name_en":"Cam Pha City","unit_name":"Th\u00e0nh ph\u1ed1","unit_name_en":"City"},{"id":"148","province_id":"14","code":"196","name":"U\u00f4ng B\u00ed","name_en":"Uong Bi","full_name":"Th\u00e0nh ph\u1ed1 U\u00f4ng B\u00ed","full_name_en":"Uong Bi City","unit_name":"Th\u00e0nh ph\u1ed1","unit_name_en":"City"},{"id":"149","province_id":"14","code":"198","name":"B\u00ecnh Li\u00eau","name_en":"Binh Lieu","full_name":"Huy\u1ec7n B\u00ecnh Li\u00eau","full_name_en":"Binh Lieu District","unit_name":"Huy\u1ec7n","unit_name_en":"District"},{"id":"150","province_id":"14","code":"199","name":"Ti\u00ean Y\u00ean","name_en":"Tien Yen","full_name":"Huy\u1ec7n Ti\u00ean Y\u00ean","full_name_en":"Tien Yen District","unit_name":"Huy\u1ec7n","unit_name_en":"District"},{"id":"151","province_id":"14","code":"200","name":"\u0110\u1ea7m H\u00e0","name_en":"Dam Ha","full_name":"Huy\u1ec7n \u0110\u1ea7m H\u00e0","full_name_en":"Dam Ha District","unit_name":"Huy\u1ec7n","unit_name_en":"District"},{"id":"152","province_id":"14","code":"201","name":"H\u1ea3i H\u00e0","name_en":"Hai Ha","full_name":"Huy\u1ec7n H\u1ea3i H\u00e0","full_name_en":"Hai Ha District","unit_name":"Huy\u1ec7n","unit_name_en":"District"},{"id":"153","province_id":"14","code":"202","name":"Ba Ch\u1ebd","name_en":"Ba Che","full_name":"Huy\u1ec7n Ba Ch\u1ebd","full_name_en":"Ba Che District","unit_name":"Huy\u1ec7n","unit_name_en":"District"},{"id":"154","province_id":"14","code":"203","name":"V\u00e2n \u0110\u1ed3n","name_en":"Van Don","full_name":"Huy\u1ec7n V\u00e2n \u0110\u1ed3n","full_name_en":"Van Don District","unit_name":"Huy\u1ec7n","unit_name_en":"District"},{"id":"155","province_id":"14","code":"205","name":"\u0110\u00f4ng Tri\u1ec1u","name_en":"Dong Trieu","full_name":"Th\u00e0nh ph\u1ed1 \u0110\u00f4ng Tri\u1ec1u","full_name_en":"Dong Trieu City","unit_name":"Th\u00e0nh ph\u1ed1","unit_name_en":"City"},{"id":"156","province_id":"14","code":"206","name":"Qu\u1ea3ng Y\u00ean","name_en":"Quang Yen","full_name":"Th\u1ecb x\u00e3 Qu\u1ea3ng Y\u00ean","full_name_en":"Quang Yen Town","unit_name":"Th\u1ecb x\u00e3","unit_name_en":"Town"},{"id":"157","province_id":"14","code":"207","name":"C\u00f4 T\u00f4","name_en":"Co To","full_name":"Huy\u1ec7n C\u00f4 T\u00f4","full_name_en":"Co To District","unit_name":"Huy\u1ec7n","unit_name_en":"District"},{"id":"158","province_id":"15","code":"213","name":"B\u1eafc Giang","name_en":"Bac Giang","full_name":"Th\u00e0nh ph\u1ed1 B\u1eafc Giang","full_name_en":"Bac Giang City","unit_name":"Th\u00e0nh ph\u1ed1","unit_name_en":"City"},{"id":"159","province_id":"15","code":"215","name":"Y\u00ean Th\u1ebf","name_en":"Yen The","full_name":"Huy\u1ec7n Y\u00ean Th\u1ebf","full_name_en":"Yen The District","unit_name":"Huy\u1ec7n","unit_name_en":"District"},{"id":"160","province_id":"15","code":"216","name":"T\u00e2n Y\u00ean","name_en":"Tan Yen","full_name":"Huy\u1ec7n T\u00e2n Y\u00ean","full_name_en":"Tan Yen District","unit_name":"Huy\u1ec7n","unit_name_en":"District"},{"id":"161","province_id":"15","code":"217","name":"L\u1ea1ng Giang","name_en":"Lang Giang","full_name":"Huy\u1ec7n L\u1ea1ng Giang","full_name_en":"Lang Giang District","unit_name":"Huy\u1ec7n","unit_name_en":"District"},{"id":"162","province_id":"15","code":"218","name":"L\u1ee5c Nam","name_en":"Luc Nam","full_name":"Huy\u1ec7n L\u1ee5c Nam","full_name_en":"Luc Nam District","unit_name":"Huy\u1ec7n","unit_name_en":"District"},{"id":"163","province_id":"15","code":"219","name":"L\u1ee5c Ng\u1ea1n","name_en":"Luc Ngan","full_name":"Huy\u1ec7n L\u1ee5c Ng\u1ea1n","full_name_en":"Luc Ngan District","unit_name":"Huy\u1ec7n","unit_name_en":"District"},{"id":"164","province_id":"15","code":"220","name":"S\u01a1n \u0110\u1ed9ng","name_en":"Son Dong","full_name":"Huy\u1ec7n S\u01a1n \u0110\u1ed9ng","full_name_en":"Son Dong District","unit_name":"Huy\u1ec7n","unit_name_en":"District"},{"id":"165","province_id":"15","code":"222","name":"Vi\u1ec7t Y\u00ean","name_en":"Viet Yen","full_name":"Th\u1ecb x\u00e3 Vi\u1ec7t Y\u00ean","full_name_en":"Viet Yen Town","unit_name":"Th\u1ecb x\u00e3","unit_name_en":"Town"},{"id":"166","province_id":"15","code":"223","name":"Hi\u1ec7p H\u00f2a","name_en":"Hiep Hoa","full_name":"Huy\u1ec7n Hi\u1ec7p H\u00f2a","full_name_en":"Hiep Hoa District","unit_name":"Huy\u1ec7n","unit_name_en":"District"},{"id":"167","province_id":"15","code":"224","name":"Ch\u0169","name_en":"Chu","full_name":"Th\u1ecb x\u00e3 Ch\u0169","full_name_en":"Chu Town","unit_name":"Th\u1ecb x\u00e3","unit_name_en":"Town"},{"id":"168","province_id":"16","code":"227","name":"Vi\u1ec7t Tr\u00ec","name_en":"Viet Tri","full_name":"Th\u00e0nh ph\u1ed1 Vi\u1ec7t Tr\u00ec","full_name_en":"Viet Tri City","unit_name":"Th\u00e0nh ph\u1ed1","unit_name_en":"City"},{"id":"169","province_id":"16","code":"228","name":"Ph\u00fa Th\u1ecd","name_en":"Phu Tho","full_name":"Th\u1ecb x\u00e3 Ph\u00fa Th\u1ecd","full_name_en":"Phu Tho Town","unit_name":"Th\u1ecb x\u00e3","unit_name_en":"Town"},{"id":"170","province_id":"16","code":"230","name":"\u0110oan H\u00f9ng","name_en":"Doan Hung","full_name":"Huy\u1ec7n \u0110oan H\u00f9ng","full_name_en":"Doan Hung District","unit_name":"Huy\u1ec7n","unit_name_en":"District"},{"id":"171","province_id":"16","code":"231","name":"H\u1ea1 Ho\u00e0","name_en":"Ha Hoa","full_name":"Huy\u1ec7n H\u1ea1 Ho\u00e0","full_name_en":"Ha Hoa District","unit_name":"Huy\u1ec7n","unit_name_en":"District"},{"id":"172","province_id":"16","code":"232","name":"Thanh Ba","name_en":"Thanh Ba","full_name":"Huy\u1ec7n Thanh Ba","full_name_en":"Thanh Ba District","unit_name":"Huy\u1ec7n","unit_name_en":"District"},{"id":"173","province_id":"16","code":"233","name":"Ph\u00f9 Ninh","name_en":"Phu Ninh","full_name":"Huy\u1ec7n Ph\u00f9 Ninh","full_name_en":"Phu Ninh District","unit_name":"Huy\u1ec7n","unit_name_en":"District"},{"id":"174","province_id":"16","code":"234","name":"Y\u00ean L\u1eadp","name_en":"Yen Lap","full_name":"Huy\u1ec7n Y\u00ean L\u1eadp","full_name_en":"Yen Lap District","unit_name":"Huy\u1ec7n","unit_name_en":"District"},{"id":"175","province_id":"16","code":"235","name":"C\u1ea9m Kh\u00ea","name_en":"Cam Khe","full_name":"Huy\u1ec7n C\u1ea9m Kh\u00ea","full_name_en":"Cam Khe District","unit_name":"Huy\u1ec7n","unit_name_en":"District"},{"id":"176","province_id":"16","code":"236","name":"Tam N\u00f4ng","name_en":"Tam Nong","full_name":"Huy\u1ec7n Tam N\u00f4ng","full_name_en":"Tam Nong District","unit_name":"Huy\u1ec7n","unit_name_en":"District"},{"id":"177","province_id":"16","code":"237","name":"L\u00e2m Thao","name_en":"Lam Thao","full_name":"Huy\u1ec7n L\u00e2m Thao","full_name_en":"Lam Thao District","unit_name":"Huy\u1ec7n","unit_name_en":"District"},{"id":"178","province_id":"16","code":"238","name":"Thanh S\u01a1n","name_en":"Thanh Son","full_name":"Huy\u1ec7n Thanh S\u01a1n","full_name_en":"Thanh Son District","unit_name":"Huy\u1ec7n","unit_name_en":"District"},{"id":"179","province_id":"16","code":"239","name":"Thanh Thu\u1ef7","name_en":"Thanh Thuy","full_name":"Huy\u1ec7n Thanh Thu\u1ef7","full_name_en":"Thanh Thuy District","unit_name":"Huy\u1ec7n","unit_name_en":"District"},{"id":"180","province_id":"16","code":"240","name":"T\u00e2n S\u01a1n","name_en":"Tan Son","full_name":"Huy\u1ec7n T\u00e2n S\u01a1n","full_name_en":"Tan Son District","unit_name":"Huy\u1ec7n","unit_name_en":"District"},{"id":"181","province_id":"17","code":"243","name":"V\u0129nh Y\u00ean","name_en":"Vinh Yen","full_name":"Th\u00e0nh ph\u1ed1 V\u0129nh Y\u00ean","full_name_en":"Vinh Yen City","unit_name":"Th\u00e0nh ph\u1ed1","unit_name_en":"City"},{"id":"182","province_id":"17","code":"244","name":"Ph\u00fac Y\u00ean","name_en":"Phuc Yen","full_name":"Th\u00e0nh ph\u1ed1 Ph\u00fac Y\u00ean","full_name_en":"Phuc Yen City","unit_name":"Th\u00e0nh ph\u1ed1","unit_name_en":"City"},{"id":"183","province_id":"17","code":"246","name":"L\u1eadp Th\u1ea1ch","name_en":"Lap Thach","full_name":"Huy\u1ec7n L\u1eadp Th\u1ea1ch","full_name_en":"Lap Thach District","unit_name":"Huy\u1ec7n","unit_name_en":"District"},{"id":"184","province_id":"17","code":"247","name":"Tam D\u01b0\u01a1ng","name_en":"Tam Duong","full_name":"Huy\u1ec7n Tam D\u01b0\u01a1ng","full_name_en":"Tam Duong District","unit_name":"Huy\u1ec7n","unit_name_en":"District"},{"id":"185","province_id":"17","code":"248","name":"Tam \u0110\u1ea3o","name_en":"Tam Dao","full_name":"Huy\u1ec7n Tam \u0110\u1ea3o","full_name_en":"Tam Dao District","unit_name":"Huy\u1ec7n","unit_name_en":"District"},{"id":"186","province_id":"17","code":"249","name":"B\u00ecnh Xuy\u00ean","name_en":"Binh Xuyen","full_name":"Huy\u1ec7n B\u00ecnh Xuy\u00ean","full_name_en":"Binh Xuyen District","unit_name":"Huy\u1ec7n","unit_name_en":"District"},{"id":"187","province_id":"17","code":"251","name":"Y\u00ean L\u1ea1c","name_en":"Yen Lac","full_name":"Huy\u1ec7n Y\u00ean L\u1ea1c","full_name_en":"Yen Lac District","unit_name":"Huy\u1ec7n","unit_name_en":"District"},{"id":"188","province_id":"17","code":"252","name":"V\u0129nh T\u01b0\u1eddng","name_en":"Vinh Tuong","full_name":"Huy\u1ec7n V\u0129nh T\u01b0\u1eddng","full_name_en":"Vinh Tuong District","unit_name":"Huy\u1ec7n","unit_name_en":"District"},{"id":"189","province_id":"17","code":"253","name":"S\u00f4ng L\u00f4","name_en":"Song Lo","full_name":"Huy\u1ec7n S\u00f4ng L\u00f4","full_name_en":"Song Lo District","unit_name":"Huy\u1ec7n","unit_name_en":"District"},{"id":"190","province_id":"18","code":"256","name":"B\u1eafc Ninh","name_en":"Bac Ninh","full_name":"Th\u00e0nh ph\u1ed1 B\u1eafc Ninh","full_name_en":"Bac Ninh City","unit_name":"Th\u00e0nh ph\u1ed1","unit_name_en":"City"},{"id":"191","province_id":"18","code":"258","name":"Y\u00ean Phong","name_en":"Yen Phong","full_name":"Huy\u1ec7n Y\u00ean Phong","full_name_en":"Yen Phong District","unit_name":"Huy\u1ec7n","unit_name_en":"District"},{"id":"192","province_id":"18","code":"259","name":"Qu\u1ebf V\u00f5","name_en":"Que Vo","full_name":"Th\u1ecb x\u00e3 Qu\u1ebf V\u00f5","full_name_en":"Que Vo Town","unit_name":"Th\u1ecb x\u00e3","unit_name_en":"Town"},{"id":"193","province_id":"18","code":"260","name":"Ti\u00ean Du","name_en":"Tien Du","full_name":"Huy\u1ec7n Ti\u00ean Du","full_name_en":"Tien Du District","unit_name":"Huy\u1ec7n","unit_name_en":"District"},{"id":"194","province_id":"18","code":"261","name":"T\u1eeb S\u01a1n","name_en":"Tu Son","full_name":"Th\u00e0nh ph\u1ed1 T\u1eeb S\u01a1n","full_name_en":"Tu Son City","unit_name":"Th\u00e0nh ph\u1ed1","unit_name_en":"City"},{"id":"195","province_id":"18","code":"262","name":"Thu\u1eadn Th\u00e0nh","name_en":"Thuan Thanh","full_name":"Th\u1ecb x\u00e3 Thu\u1eadn Th\u00e0nh","full_name_en":"Thuan Thanh Town","unit_name":"Th\u1ecb x\u00e3","unit_name_en":"Town"},{"id":"196","province_id":"18","code":"263","name":"Gia B\u00ecnh","name_en":"Gia Binh","full_name":"Huy\u1ec7n Gia B\u00ecnh","full_name_en":"Gia Binh District","unit_name":"Huy\u1ec7n","unit_name_en":"District"},{"id":"197","province_id":"18","code":"264","name":"L\u01b0\u01a1ng T\u00e0i","name_en":"Luong Tai","full_name":"Huy\u1ec7n L\u01b0\u01a1ng T\u00e0i","full_name_en":"Luong Tai District","unit_name":"Huy\u1ec7n","unit_name_en":"District"},{"id":"198","province_id":"19","code":"288","name":"H\u1ea3i D\u01b0\u01a1ng","name_en":"Hai Duong","full_name":"Th\u00e0nh ph\u1ed1 H\u1ea3i D\u01b0\u01a1ng","full_name_en":"Hai Duong City","unit_name":"Th\u00e0nh ph\u1ed1","unit_name_en":"City"},{"id":"199","province_id":"19","code":"290","name":"Ch\u00ed Linh","name_en":"Chi Linh","full_name":"Th\u00e0nh ph\u1ed1 Ch\u00ed Linh","full_name_en":"Chi Linh City","unit_name":"Th\u00e0nh ph\u1ed1","unit_name_en":"City"},{"id":"200","province_id":"19","code":"291","name":"Nam S\u00e1ch","name_en":"Nam Sach","full_name":"Huy\u1ec7n Nam S\u00e1ch","full_name_en":"Nam Sach District","unit_name":"Huy\u1ec7n","unit_name_en":"District"},{"id":"201","province_id":"19","code":"292","name":"Kinh M\u00f4n","name_en":"Kinh Mon","full_name":"Th\u1ecb x\u00e3 Kinh M\u00f4n","full_name_en":"Kinh Mon Town","unit_name":"Th\u1ecb x\u00e3","unit_name_en":"Town"},{"id":"202","province_id":"19","code":"293","name":"Kim Th\u00e0nh","name_en":"Kim Thanh","full_name":"Huy\u1ec7n Kim Th\u00e0nh","full_name_en":"Kim Thanh District","unit_name":"Huy\u1ec7n","unit_name_en":"District"},{"id":"203","province_id":"19","code":"294","name":"Thanh H\u00e0","name_en":"Thanh Ha","full_name":"Huy\u1ec7n Thanh H\u00e0","full_name_en":"Thanh Ha District","unit_name":"Huy\u1ec7n","unit_name_en":"District"},{"id":"204","province_id":"19","code":"295","name":"C\u1ea9m Gi\u00e0ng","name_en":"Cam Giang","full_name":"Huy\u1ec7n C\u1ea9m Gi\u00e0ng","full_name_en":"Cam Giang District","unit_name":"Huy\u1ec7n","unit_name_en":"District"},{"id":"205","province_id":"19","code":"296","name":"B\u00ecnh Giang","name_en":"Binh Giang","full_name":"Huy\u1ec7n B\u00ecnh Giang","full_name_en":"Binh Giang District","unit_name":"Huy\u1ec7n","unit_name_en":"District"},{"id":"206","province_id":"19","code":"297","name":"Gia L\u1ed9c","name_en":"Gia Loc","full_name":"Huy\u1ec7n Gia L\u1ed9c","full_name_en":"Gia Loc District","unit_name":"Huy\u1ec7n","unit_name_en":"District"},{"id":"207","province_id":"19","code":"298","name":"T\u1ee9 K\u1ef3","name_en":"Tu Ky","full_name":"Huy\u1ec7n T\u1ee9 K\u1ef3","full_name_en":"Tu Ky District","unit_name":"Huy\u1ec7n","unit_name_en":"District"},{"id":"208","province_id":"19","code":"299","name":"Ninh Giang","name_en":"Ninh Giang","full_name":"Huy\u1ec7n Ninh Giang","full_name_en":"Ninh Giang District","unit_name":"Huy\u1ec7n","unit_name_en":"District"},{"id":"209","province_id":"19","code":"300","name":"Thanh Mi\u1ec7n","name_en":"Thanh Mien","full_name":"Huy\u1ec7n Thanh Mi\u1ec7n","full_name_en":"Thanh Mien District","unit_name":"Huy\u1ec7n","unit_name_en":"District"},{"id":"210","province_id":"20","code":"303","name":"H\u1ed3ng B\u00e0ng","name_en":"Hong Bang","full_name":"Qu\u1eadn H\u1ed3ng B\u00e0ng","full_name_en":"Hong Bang District","unit_name":"Qu\u1eadn","unit_name_en":"District"},{"id":"211","province_id":"20","code":"304","name":"Ng\u00f4 Quy\u1ec1n","name_en":"Ngo Quyen","full_name":"Qu\u1eadn Ng\u00f4 Quy\u1ec1n","full_name_en":"Ngo Quyen District","unit_name":"Qu\u1eadn","unit_name_en":"District"},{"id":"212","province_id":"20","code":"305","name":"L\u00ea Ch\u00e2n","name_en":"Le Chan","full_name":"Qu\u1eadn L\u00ea Ch\u00e2n","full_name_en":"Le Chan District","unit_name":"Qu\u1eadn","unit_name_en":"District"},{"id":"213","province_id":"20","code":"306","name":"H\u1ea3i An","name_en":"Hai An","full_name":"Qu\u1eadn H\u1ea3i An","full_name_en":"Hai An District","unit_name":"Qu\u1eadn","unit_name_en":"District"},{"id":"214","province_id":"20","code":"307","name":"Ki\u1ebfn An","name_en":"Kien An","full_name":"Qu\u1eadn Ki\u1ebfn An","full_name_en":"Kien An District","unit_name":"Qu\u1eadn","unit_name_en":"District"},{"id":"215","province_id":"20","code":"308","name":"\u0110\u1ed3 S\u01a1n","name_en":"Do Son","full_name":"Qu\u1eadn \u0110\u1ed3 S\u01a1n","full_name_en":"Do Son District","unit_name":"Qu\u1eadn","unit_name_en":"District"},{"id":"216","province_id":"20","code":"309","name":"D\u01b0\u01a1ng Kinh","name_en":"Duong Kinh","full_name":"Qu\u1eadn D\u01b0\u01a1ng Kinh","full_name_en":"Duong Kinh District","unit_name":"Qu\u1eadn","unit_name_en":"District"},{"id":"217","province_id":"20","code":"311","name":"Thu\u1ef7 Nguy\u00ean","name_en":"Thuy Nguyen","full_name":"Th\u00e0nh ph\u1ed1 Thu\u1ef7 Nguy\u00ean","full_name_en":"Thuy Nguyen City","unit_name":"Th\u00e0nh ph\u1ed1","unit_name_en":"City"},{"id":"218","province_id":"20","code":"312","name":"An D\u01b0\u01a1ng","name_en":"An Duong","full_name":"Qu\u1eadn An D\u01b0\u01a1ng","full_name_en":"An Duong District","unit_name":"Qu\u1eadn","unit_name_en":"District"},{"id":"219","province_id":"20","code":"313","name":"An L\u00e3o","name_en":"An Lao","full_name":"Huy\u1ec7n An L\u00e3o","full_name_en":"An Lao District","unit_name":"Huy\u1ec7n","unit_name_en":"District"},{"id":"220","province_id":"20","code":"314","name":"Ki\u1ebfn Thu\u1ef5","name_en":"Kien Thuy","full_name":"Huy\u1ec7n Ki\u1ebfn Thu\u1ef5","full_name_en":"Kien Thuy District","unit_name":"Huy\u1ec7n","unit_name_en":"District"},{"id":"221","province_id":"20","code":"315","name":"Ti\u00ean L\u00e3ng","name_en":"Tien Lang","full_name":"Huy\u1ec7n Ti\u00ean L\u00e3ng","full_name_en":"Tien Lang District","unit_name":"Huy\u1ec7n","unit_name_en":"District"},{"id":"222","province_id":"20","code":"316","name":"V\u0129nh B\u1ea3o","name_en":"Vinh Bao","full_name":"Huy\u1ec7n V\u0129nh B\u1ea3o","full_name_en":"Vinh Bao District","unit_name":"Huy\u1ec7n","unit_name_en":"District"},{"id":"223","province_id":"20","code":"317","name":"C\u00e1t H\u1ea3i","name_en":"Cat Hai","full_name":"Huy\u1ec7n C\u00e1t H\u1ea3i","full_name_en":"Cat Hai District","unit_name":"Huy\u1ec7n","unit_name_en":"District"},{"id":"224","province_id":"20","code":"318","name":"B\u1ea1ch Long V\u0129","name_en":"Bach Long Vi","full_name":"Huy\u1ec7n B\u1ea1ch Long V\u0129","full_name_en":"Bach Long Vi District","unit_name":"Huy\u1ec7n","unit_name_en":"District"},{"id":"225","province_id":"21","code":"323","name":"H\u01b0ng Y\u00ean","name_en":"Hung Yen","full_name":"Th\u00e0nh ph\u1ed1 H\u01b0ng Y\u00ean","full_name_en":"Hung Yen City","unit_name":"Th\u00e0nh ph\u1ed1","unit_name_en":"City"},{"id":"226","province_id":"21","code":"325","name":"V\u0103n L\u00e2m","name_en":"Van Lam","full_name":"Huy\u1ec7n V\u0103n L\u00e2m","full_name_en":"Van Lam District","unit_name":"Huy\u1ec7n","unit_name_en":"District"},{"id":"227","province_id":"21","code":"326","name":"V\u0103n Giang","name_en":"Van Giang","full_name":"Huy\u1ec7n V\u0103n Giang","full_name_en":"Van Giang District","unit_name":"Huy\u1ec7n","unit_name_en":"District"},{"id":"228","province_id":"21","code":"327","name":"Y\u00ean M\u1ef9","name_en":"Yen My","full_name":"Huy\u1ec7n Y\u00ean M\u1ef9","full_name_en":"Yen My District","unit_name":"Huy\u1ec7n","unit_name_en":"District"},{"id":"229","province_id":"21","code":"328","name":"M\u1ef9 H\u00e0o","name_en":"My Hao","full_name":"Th\u1ecb x\u00e3 M\u1ef9 H\u00e0o","full_name_en":"My Hao Town","unit_name":"Th\u1ecb x\u00e3","unit_name_en":"Town"},{"id":"230","province_id":"21","code":"329","name":"\u00c2n Thi","name_en":"An Thi","full_name":"Huy\u1ec7n \u00c2n Thi","full_name_en":"An Thi District","unit_name":"Huy\u1ec7n","unit_name_en":"District"},{"id":"231","province_id":"21","code":"330","name":"Kho\u00e1i Ch\u00e2u","name_en":"Khoai Chau","full_name":"Huy\u1ec7n Kho\u00e1i Ch\u00e2u","full_name_en":"Khoai Chau District","unit_name":"Huy\u1ec7n","unit_name_en":"District"},{"id":"232","province_id":"21","code":"331","name":"Kim \u0110\u1ed9ng","name_en":"Kim Dong","full_name":"Huy\u1ec7n Kim \u0110\u1ed9ng","full_name_en":"Kim Dong District","unit_name":"Huy\u1ec7n","unit_name_en":"District"},{"id":"233","province_id":"21","code":"332","name":"Ti\u00ean L\u1eef","name_en":"Tien Lu","full_name":"Huy\u1ec7n Ti\u00ean L\u1eef","full_name_en":"Tien Lu District","unit_name":"Huy\u1ec7n","unit_name_en":"District"},{"id":"234","province_id":"21","code":"333","name":"Ph\u00f9 C\u1eeb","name_en":"Phu Cu","full_name":"Huy\u1ec7n Ph\u00f9 C\u1eeb","full_name_en":"Phu Cu District","unit_name":"Huy\u1ec7n","unit_name_en":"District"},{"id":"235","province_id":"22","code":"336","name":"Th\u00e1i B\u00ecnh","name_en":"Thai Binh","full_name":"Th\u00e0nh ph\u1ed1 Th\u00e1i B\u00ecnh","full_name_en":"Thai Binh City","unit_name":"Th\u00e0nh ph\u1ed1","unit_name_en":"City"},{"id":"236","province_id":"22","code":"338","name":"Qu\u1ef3nh Ph\u1ee5","name_en":"Quynh Phu","full_name":"Huy\u1ec7n Qu\u1ef3nh Ph\u1ee5","full_name_en":"Quynh Phu District","unit_name":"Huy\u1ec7n","unit_name_en":"District"},{"id":"237","province_id":"22","code":"339","name":"H\u01b0ng H\u00e0","name_en":"Hung Ha","full_name":"Huy\u1ec7n H\u01b0ng H\u00e0","full_name_en":"Hung Ha District","unit_name":"Huy\u1ec7n","unit_name_en":"District"},{"id":"238","province_id":"22","code":"340","name":"\u0110\u00f4ng H\u01b0ng","name_en":"Dong Hung","full_name":"Huy\u1ec7n \u0110\u00f4ng H\u01b0ng","full_name_en":"Dong Hung District","unit_name":"Huy\u1ec7n","unit_name_en":"District"},{"id":"239","province_id":"22","code":"341","name":"Th\u00e1i Th\u1ee5y","name_en":"Thai Thuy","full_name":"Huy\u1ec7n Th\u00e1i Th\u1ee5y","full_name_en":"Thai Thuy District","unit_name":"Huy\u1ec7n","unit_name_en":"District"},{"id":"240","province_id":"22","code":"342","name":"Ti\u1ec1n H\u1ea3i","name_en":"Tien Hai","full_name":"Huy\u1ec7n Ti\u1ec1n H\u1ea3i","full_name_en":"Tien Hai District","unit_name":"Huy\u1ec7n","unit_name_en":"District"},{"id":"241","province_id":"22","code":"343","name":"Ki\u1ebfn X\u01b0\u01a1ng","name_en":"Kien Xuong","full_name":"Huy\u1ec7n Ki\u1ebfn X\u01b0\u01a1ng","full_name_en":"Kien Xuong District","unit_name":"Huy\u1ec7n","unit_name_en":"District"},{"id":"242","province_id":"22","code":"344","name":"V\u0169 Th\u01b0","name_en":"Vu Thu","full_name":"Huy\u1ec7n V\u0169 Th\u01b0","full_name_en":"Vu Thu District","unit_name":"Huy\u1ec7n","unit_name_en":"District"},{"id":"243","province_id":"23","code":"347","name":"Ph\u1ee7 L\u00fd","name_en":"Phu Ly","full_name":"Th\u00e0nh ph\u1ed1 Ph\u1ee7 L\u00fd","full_name_en":"Phu Ly City","unit_name":"Th\u00e0nh ph\u1ed1","unit_name_en":"City"},{"id":"244","province_id":"23","code":"349","name":"Duy Ti\u00ean","name_en":"Duy Tien","full_name":"Th\u1ecb x\u00e3 Duy Ti\u00ean","full_name_en":"Duy Tien Town","unit_name":"Th\u1ecb x\u00e3","unit_name_en":"Town"},{"id":"245","province_id":"23","code":"350","name":"Kim B\u1ea3ng","name_en":"Kim Bang","full_name":"Th\u1ecb x\u00e3 Kim B\u1ea3ng","full_name_en":"Kim Bang Town","unit_name":"Th\u1ecb x\u00e3","unit_name_en":"Town"},{"id":"246","province_id":"23","code":"351","name":"Thanh Li\u00eam","name_en":"Thanh Liem","full_name":"Huy\u1ec7n Thanh Li\u00eam","full_name_en":"Thanh Liem District","unit_name":"Huy\u1ec7n","unit_name_en":"District"},{"id":"247","province_id":"23","code":"352","name":"B\u00ecnh L\u1ee5c","name_en":"Binh Luc","full_name":"Huy\u1ec7n B\u00ecnh L\u1ee5c","full_name_en":"Binh Luc District","unit_name":"Huy\u1ec7n","unit_name_en":"District"},{"id":"248","province_id":"23","code":"353","name":"L\u00fd Nh\u00e2n","name_en":"Ly Nhan","full_name":"Huy\u1ec7n L\u00fd Nh\u00e2n","full_name_en":"Ly Nhan District","unit_name":"Huy\u1ec7n","unit_name_en":"District"},{"id":"249","province_id":"24","code":"356","name":"Nam \u0110\u1ecbnh","name_en":"Nam Dinh","full_name":"Th\u00e0nh ph\u1ed1 Nam \u0110\u1ecbnh","full_name_en":"Nam Dinh City","unit_name":"Th\u00e0nh ph\u1ed1","unit_name_en":"City"},{"id":"250","province_id":"24","code":"359","name":"V\u1ee5 B\u1ea3n","name_en":"Vu Ban","full_name":"Huy\u1ec7n V\u1ee5 B\u1ea3n","full_name_en":"Vu Ban District","unit_name":"Huy\u1ec7n","unit_name_en":"District"},{"id":"251","province_id":"24","code":"360","name":"\u00dd Y\u00ean","name_en":"Y Yen","full_name":"Huy\u1ec7n \u00dd Y\u00ean","full_name_en":"Y Yen District","unit_name":"Huy\u1ec7n","unit_name_en":"District"},{"id":"252","province_id":"24","code":"361","name":"Ngh\u0129a H\u01b0ng","name_en":"Nghia Hung","full_name":"Huy\u1ec7n Ngh\u0129a H\u01b0ng","full_name_en":"Nghia Hung District","unit_name":"Huy\u1ec7n","unit_name_en":"District"},{"id":"253","province_id":"24","code":"362","name":"Nam Tr\u1ef1c","name_en":"Nam Truc","full_name":"Huy\u1ec7n Nam Tr\u1ef1c","full_name_en":"Nam Truc District","unit_name":"Huy\u1ec7n","unit_name_en":"District"},{"id":"254","province_id":"24","code":"363","name":"Tr\u1ef1c Ninh","name_en":"Truc Ninh","full_name":"Huy\u1ec7n Tr\u1ef1c Ninh","full_name_en":"Truc Ninh District","unit_name":"Huy\u1ec7n","unit_name_en":"District"},{"id":"255","province_id":"24","code":"364","name":"Xu\u00e2n Tr\u01b0\u1eddng","name_en":"Xuan Truong","full_name":"Huy\u1ec7n Xu\u00e2n Tr\u01b0\u1eddng","full_name_en":"Xuan Truong District","unit_name":"Huy\u1ec7n","unit_name_en":"District"},{"id":"256","province_id":"24","code":"365","name":"Giao Th\u1ee7y","name_en":"Giao Thuy","full_name":"Huy\u1ec7n Giao Th\u1ee7y","full_name_en":"Giao Thuy District","unit_name":"Huy\u1ec7n","unit_name_en":"District"},{"id":"257","province_id":"24","code":"366","name":"H\u1ea3i H\u1eadu","name_en":"Hai Hau","full_name":"Huy\u1ec7n H\u1ea3i H\u1eadu","full_name_en":"Hai Hau District","unit_name":"Huy\u1ec7n","unit_name_en":"District"},{"id":"258","province_id":"25","code":"370","name":"Tam \u0110i\u1ec7p","name_en":"Tam Diep","full_name":"Th\u00e0nh ph\u1ed1 Tam \u0110i\u1ec7p","full_name_en":"Tam Diep City","unit_name":"Th\u00e0nh ph\u1ed1","unit_name_en":"City"},{"id":"259","province_id":"25","code":"372","name":"Nho Quan","name_en":"Nho Quan","full_name":"Huy\u1ec7n Nho Quan","full_name_en":"Nho Quan District","unit_name":"Huy\u1ec7n","unit_name_en":"District"},{"id":"260","province_id":"25","code":"373","name":"Gia Vi\u1ec5n","name_en":"Gia Vien","full_name":"Huy\u1ec7n Gia Vi\u1ec5n","full_name_en":"Gia Vien District","unit_name":"Huy\u1ec7n","unit_name_en":"District"},{"id":"261","province_id":"25","code":"374","name":"Hoa L\u01b0","name_en":"Hoa Lu","full_name":"Th\u00e0nh ph\u1ed1 Hoa L\u01b0","full_name_en":"Hoa Lu City","unit_name":"Th\u00e0nh ph\u1ed1","unit_name_en":"City"},{"id":"262","province_id":"25","code":"375","name":"Y\u00ean Kh\u00e1nh","name_en":"Yen Khanh","full_name":"Huy\u1ec7n Y\u00ean Kh\u00e1nh","full_name_en":"Yen Khanh District","unit_name":"Huy\u1ec7n","unit_name_en":"District"},{"id":"263","province_id":"25","code":"376","name":"Kim S\u01a1n","name_en":"Kim Son","full_name":"Huy\u1ec7n Kim S\u01a1n","full_name_en":"Kim Son District","unit_name":"Huy\u1ec7n","unit_name_en":"District"},{"id":"264","province_id":"25","code":"377","name":"Y\u00ean M\u00f4","name_en":"Yen Mo","full_name":"Huy\u1ec7n Y\u00ean M\u00f4","full_name_en":"Yen Mo District","unit_name":"Huy\u1ec7n","unit_name_en":"District"},{"id":"265","province_id":"26","code":"380","name":"Thanh H\u00f3a","name_en":"Thanh Hoa","full_name":"Th\u00e0nh ph\u1ed1 Thanh H\u00f3a","full_name_en":"Thanh Hoa City","unit_name":"Th\u00e0nh ph\u1ed1","unit_name_en":"City"},{"id":"266","province_id":"26","code":"381","name":"B\u1ec9m S\u01a1n","name_en":"Bim Son","full_name":"Th\u1ecb x\u00e3 B\u1ec9m S\u01a1n","full_name_en":"Bim Son Town","unit_name":"Th\u1ecb x\u00e3","unit_name_en":"Town"},{"id":"267","province_id":"26","code":"382","name":"S\u1ea7m S\u01a1n","name_en":"Sam Son","full_name":"Th\u00e0nh ph\u1ed1 S\u1ea7m S\u01a1n","full_name_en":"Sam Son City","unit_name":"Th\u00e0nh ph\u1ed1","unit_name_en":"City"},{"id":"268","province_id":"26","code":"384","name":"M\u01b0\u1eddng L\u00e1t","name_en":"Muong Lat","full_name":"Huy\u1ec7n M\u01b0\u1eddng L\u00e1t","full_name_en":"Muong Lat District","unit_name":"Huy\u1ec7n","unit_name_en":"District"},{"id":"269","province_id":"26","code":"385","name":"Quan H\u00f3a","name_en":"Quan Hoa","full_name":"Huy\u1ec7n Quan H\u00f3a","full_name_en":"Quan Hoa District","unit_name":"Huy\u1ec7n","unit_name_en":"District"},{"id":"270","province_id":"26","code":"386","name":"B\u00e1 Th\u01b0\u1edbc","name_en":"Ba Thuoc","full_name":"Huy\u1ec7n B\u00e1 Th\u01b0\u1edbc","full_name_en":"Ba Thuoc District","unit_name":"Huy\u1ec7n","unit_name_en":"District"},{"id":"271","province_id":"26","code":"387","name":"Quan S\u01a1n","name_en":"Quan Son","full_name":"Huy\u1ec7n Quan S\u01a1n","full_name_en":"Quan Son District","unit_name":"Huy\u1ec7n","unit_name_en":"District"},{"id":"272","province_id":"26","code":"388","name":"Lang Ch\u00e1nh","name_en":"Lang Chanh","full_name":"Huy\u1ec7n Lang Ch\u00e1nh","full_name_en":"Lang Chanh District","unit_name":"Huy\u1ec7n","unit_name_en":"District"},{"id":"273","province_id":"26","code":"389","name":"Ng\u1ecdc L\u1eb7c","name_en":"Ngoc Lac","full_name":"Huy\u1ec7n Ng\u1ecdc L\u1eb7c","full_name_en":"Ngoc Lac District","unit_name":"Huy\u1ec7n","unit_name_en":"District"},{"id":"274","province_id":"26","code":"390","name":"C\u1ea9m Th\u1ee7y","name_en":"Cam Thuy","full_name":"Huy\u1ec7n C\u1ea9m Th\u1ee7y","full_name_en":"Cam Thuy District","unit_name":"Huy\u1ec7n","unit_name_en":"District"},{"id":"275","province_id":"26","code":"391","name":"Th\u1ea1ch Th\u00e0nh","name_en":"Thach Thanh","full_name":"Huy\u1ec7n Th\u1ea1ch Th\u00e0nh","full_name_en":"Thach Thanh District","unit_name":"Huy\u1ec7n","unit_name_en":"District"},{"id":"276","province_id":"26","code":"392","name":"H\u00e0 Trung","name_en":"Ha Trung","full_name":"Huy\u1ec7n H\u00e0 Trung","full_name_en":"Ha Trung District","unit_name":"Huy\u1ec7n","unit_name_en":"District"},{"id":"277","province_id":"26","code":"393","name":"V\u0129nh L\u1ed9c","name_en":"Vinh Loc","full_name":"Huy\u1ec7n V\u0129nh L\u1ed9c","full_name_en":"Vinh Loc District","unit_name":"Huy\u1ec7n","unit_name_en":"District"},{"id":"278","province_id":"26","code":"394","name":"Y\u00ean \u0110\u1ecbnh","name_en":"Yen Dinh","full_name":"Huy\u1ec7n Y\u00ean \u0110\u1ecbnh","full_name_en":"Yen Dinh District","unit_name":"Huy\u1ec7n","unit_name_en":"District"},{"id":"279","province_id":"26","code":"395","name":"Th\u1ecd Xu\u00e2n","name_en":"Tho Xuan","full_name":"Huy\u1ec7n Th\u1ecd Xu\u00e2n","full_name_en":"Tho Xuan District","unit_name":"Huy\u1ec7n","unit_name_en":"District"},{"id":"280","province_id":"26","code":"396","name":"Th\u01b0\u1eddng Xu\u00e2n","name_en":"Thuong Xuan","full_name":"Huy\u1ec7n Th\u01b0\u1eddng Xu\u00e2n","full_name_en":"Thuong Xuan District","unit_name":"Huy\u1ec7n","unit_name_en":"District"},{"id":"281","province_id":"26","code":"397","name":"Tri\u1ec7u S\u01a1n","name_en":"Trieu Son","full_name":"Huy\u1ec7n Tri\u1ec7u S\u01a1n","full_name_en":"Trieu Son District","unit_name":"Huy\u1ec7n","unit_name_en":"District"},{"id":"282","province_id":"26","code":"398","name":"Thi\u1ec7u H\u00f3a","name_en":"Thieu Hoa","full_name":"Huy\u1ec7n Thi\u1ec7u H\u00f3a","full_name_en":"Thieu Hoa District","unit_name":"Huy\u1ec7n","unit_name_en":"District"},{"id":"283","province_id":"26","code":"399","name":"Ho\u1eb1ng H\u00f3a","name_en":"Hoang Hoa","full_name":"Huy\u1ec7n Ho\u1eb1ng H\u00f3a","full_name_en":"Hoang Hoa District","unit_name":"Huy\u1ec7n","unit_name_en":"District"},{"id":"284","province_id":"26","code":"400","name":"H\u1eadu L\u1ed9c","name_en":"Hau Loc","full_name":"Huy\u1ec7n H\u1eadu L\u1ed9c","full_name_en":"Hau Loc District","unit_name":"Huy\u1ec7n","unit_name_en":"District"},{"id":"285","province_id":"26","code":"401","name":"Nga S\u01a1n","name_en":"Nga Son","full_name":"Huy\u1ec7n Nga S\u01a1n","full_name_en":"Nga Son District","unit_name":"Huy\u1ec7n","unit_name_en":"District"},{"id":"286","province_id":"26","code":"402","name":"Nh\u01b0 Xu\u00e2n","name_en":"Nhu Xuan","full_name":"Huy\u1ec7n Nh\u01b0 Xu\u00e2n","full_name_en":"Nhu Xuan District","unit_name":"Huy\u1ec7n","unit_name_en":"District"},{"id":"287","province_id":"26","code":"403","name":"Nh\u01b0 Thanh","name_en":"Nhu Thanh","full_name":"Huy\u1ec7n Nh\u01b0 Thanh","full_name_en":"Nhu Thanh District","unit_name":"Huy\u1ec7n","unit_name_en":"District"},{"id":"288","province_id":"26","code":"404","name":"N\u00f4ng C\u1ed1ng","name_en":"Nong Cong","full_name":"Huy\u1ec7n N\u00f4ng C\u1ed1ng","full_name_en":"Nong Cong District","unit_name":"Huy\u1ec7n","unit_name_en":"District"},{"id":"289","province_id":"26","code":"406","name":"Qu\u1ea3ng X\u01b0\u01a1ng","name_en":"Quang Xuong","full_name":"Huy\u1ec7n Qu\u1ea3ng X\u01b0\u01a1ng","full_name_en":"Quang Xuong District","unit_name":"Huy\u1ec7n","unit_name_en":"District"},{"id":"290","province_id":"26","code":"407","name":"Nghi S\u01a1n","name_en":"Nghi Son","full_name":"Th\u1ecb x\u00e3 Nghi S\u01a1n","full_name_en":"Nghi Son Town","unit_name":"Th\u1ecb x\u00e3","unit_name_en":"Town"},{"id":"291","province_id":"27","code":"412","name":"Vinh","name_en":"Vinh","full_name":"Th\u00e0nh ph\u1ed1 Vinh","full_name_en":"Vinh City","unit_name":"Th\u00e0nh ph\u1ed1","unit_name_en":"City"},{"id":"292","province_id":"27","code":"414","name":"Th\u00e1i Ho\u00e0","name_en":"Thai Hoa","full_name":"Th\u1ecb x\u00e3 Th\u00e1i Ho\u00e0","full_name_en":"Thai Hoa Town","unit_name":"Th\u1ecb x\u00e3","unit_name_en":"Town"},{"id":"293","province_id":"27","code":"415","name":"Qu\u1ebf Phong","name_en":"Que Phong","full_name":"Huy\u1ec7n Qu\u1ebf Phong","full_name_en":"Que Phong District","unit_name":"Huy\u1ec7n","unit_name_en":"District"},{"id":"294","province_id":"27","code":"416","name":"Qu\u1ef3 Ch\u00e2u","name_en":"Quy Chau","full_name":"Huy\u1ec7n Qu\u1ef3 Ch\u00e2u","full_name_en":"Quy Chau District","unit_name":"Huy\u1ec7n","unit_name_en":"District"},{"id":"295","province_id":"27","code":"417","name":"K\u1ef3 S\u01a1n","name_en":"Ky Son","full_name":"Huy\u1ec7n K\u1ef3 S\u01a1n","full_name_en":"Ky Son District","unit_name":"Huy\u1ec7n","unit_name_en":"District"},{"id":"296","province_id":"27","code":"418","name":"T\u01b0\u01a1ng D\u01b0\u01a1ng","name_en":"Tuong Duong","full_name":"Huy\u1ec7n T\u01b0\u01a1ng D\u01b0\u01a1ng","full_name_en":"Tuong Duong District","unit_name":"Huy\u1ec7n","unit_name_en":"District"},{"id":"297","province_id":"27","code":"419","name":"Ngh\u0129a \u0110\u00e0n","name_en":"Nghia Dan","full_name":"Huy\u1ec7n Ngh\u0129a \u0110\u00e0n","full_name_en":"Nghia Dan District","unit_name":"Huy\u1ec7n","unit_name_en":"District"},{"id":"298","province_id":"27","code":"420","name":"Qu\u1ef3 H\u1ee3p","name_en":"Quy Hop","full_name":"Huy\u1ec7n Qu\u1ef3 H\u1ee3p","full_name_en":"Quy Hop District","unit_name":"Huy\u1ec7n","unit_name_en":"District"},{"id":"299","province_id":"27","code":"421","name":"Qu\u1ef3nh L\u01b0u","name_en":"Quynh Luu","full_name":"Huy\u1ec7n Qu\u1ef3nh L\u01b0u","full_name_en":"Quynh Luu District","unit_name":"Huy\u1ec7n","unit_name_en":"District"},{"id":"300","province_id":"27","code":"422","name":"Con Cu\u00f4ng","name_en":"Con Cuong","full_name":"Huy\u1ec7n Con Cu\u00f4ng","full_name_en":"Con Cuong District","unit_name":"Huy\u1ec7n","unit_name_en":"District"},{"id":"301","province_id":"27","code":"423","name":"T\u00e2n K\u1ef3","name_en":"Tan Ky","full_name":"Huy\u1ec7n T\u00e2n K\u1ef3","full_name_en":"Tan Ky District","unit_name":"Huy\u1ec7n","unit_name_en":"District"},{"id":"302","province_id":"27","code":"424","name":"Anh S\u01a1n","name_en":"Anh Son","full_name":"Huy\u1ec7n Anh S\u01a1n","full_name_en":"Anh Son District","unit_name":"Huy\u1ec7n","unit_name_en":"District"},{"id":"303","province_id":"27","code":"425","name":"Di\u1ec5n Ch\u00e2u","name_en":"Dien Chau","full_name":"Huy\u1ec7n Di\u1ec5n Ch\u00e2u","full_name_en":"Dien Chau District","unit_name":"Huy\u1ec7n","unit_name_en":"District"},{"id":"304","province_id":"27","code":"426","name":"Y\u00ean Th\u00e0nh","name_en":"Yen Thanh","full_name":"Huy\u1ec7n Y\u00ean Th\u00e0nh","full_name_en":"Yen Thanh District","unit_name":"Huy\u1ec7n","unit_name_en":"District"},{"id":"305","province_id":"27","code":"427","name":"\u0110\u00f4 L\u01b0\u01a1ng","name_en":"Do Luong","full_name":"Huy\u1ec7n \u0110\u00f4 L\u01b0\u01a1ng","full_name_en":"Do Luong District","unit_name":"Huy\u1ec7n","unit_name_en":"District"},{"id":"306","province_id":"27","code":"428","name":"Thanh Ch\u01b0\u01a1ng","name_en":"Thanh Chuong","full_name":"Huy\u1ec7n Thanh Ch\u01b0\u01a1ng","full_name_en":"Thanh Chuong District","unit_name":"Huy\u1ec7n","unit_name_en":"District"},{"id":"307","province_id":"27","code":"429","name":"Nghi L\u1ed9c","name_en":"Nghi Loc","full_name":"Huy\u1ec7n Nghi L\u1ed9c","full_name_en":"Nghi Loc District","unit_name":"Huy\u1ec7n","unit_name_en":"District"},{"id":"308","province_id":"27","code":"430","name":"Nam \u0110\u00e0n","name_en":"Nam Dan","full_name":"Huy\u1ec7n Nam \u0110\u00e0n","full_name_en":"Nam Dan District","unit_name":"Huy\u1ec7n","unit_name_en":"District"},{"id":"309","province_id":"27","code":"431","name":"H\u01b0ng Nguy\u00ean","name_en":"Hung Nguyen","full_name":"Huy\u1ec7n H\u01b0ng Nguy\u00ean","full_name_en":"Hung Nguyen District","unit_name":"Huy\u1ec7n","unit_name_en":"District"},{"id":"310","province_id":"27","code":"432","name":"Ho\u00e0ng Mai","name_en":"Hoang Mai","full_name":"Th\u1ecb x\u00e3 Ho\u00e0ng Mai","full_name_en":"Hoang Mai Town","unit_name":"Th\u1ecb x\u00e3","unit_name_en":"Town"},{"id":"311","province_id":"28","code":"436","name":"H\u00e0 T\u0129nh","name_en":"Ha Tinh","full_name":"Th\u00e0nh ph\u1ed1 H\u00e0 T\u0129nh","full_name_en":"Ha Tinh City","unit_name":"Th\u00e0nh ph\u1ed1","unit_name_en":"City"},{"id":"312","province_id":"28","code":"437","name":"H\u1ed3ng L\u0129nh","name_en":"Hong Linh","full_name":"Th\u1ecb x\u00e3 H\u1ed3ng L\u0129nh","full_name_en":"Hong Linh Town","unit_name":"Th\u1ecb x\u00e3","unit_name_en":"Town"},{"id":"313","province_id":"28","code":"439","name":"H\u01b0\u01a1ng S\u01a1n","name_en":"Huong Son","full_name":"Huy\u1ec7n H\u01b0\u01a1ng S\u01a1n","full_name_en":"Huong Son District","unit_name":"Huy\u1ec7n","unit_name_en":"District"},{"id":"314","province_id":"28","code":"440","name":"\u0110\u1ee9c Th\u1ecd","name_en":"Duc Tho","full_name":"Huy\u1ec7n \u0110\u1ee9c Th\u1ecd","full_name_en":"Duc Tho District","unit_name":"Huy\u1ec7n","unit_name_en":"District"},{"id":"315","province_id":"28","code":"441","name":"V\u0169 Quang","name_en":"Vu Quang","full_name":"Huy\u1ec7n V\u0169 Quang","full_name_en":"Vu Quang District","unit_name":"Huy\u1ec7n","unit_name_en":"District"},{"id":"316","province_id":"28","code":"442","name":"Nghi Xu\u00e2n","name_en":"Nghi Xuan","full_name":"Huy\u1ec7n Nghi Xu\u00e2n","full_name_en":"Nghi Xuan District","unit_name":"Huy\u1ec7n","unit_name_en":"District"},{"id":"317","province_id":"28","code":"443","name":"Can L\u1ed9c","name_en":"Can Loc","full_name":"Huy\u1ec7n Can L\u1ed9c","full_name_en":"Can Loc District","unit_name":"Huy\u1ec7n","unit_name_en":"District"},{"id":"318","province_id":"28","code":"444","name":"H\u01b0\u01a1ng Kh\u00ea","name_en":"Huong Khe","full_name":"Huy\u1ec7n H\u01b0\u01a1ng Kh\u00ea","full_name_en":"Huong Khe District","unit_name":"Huy\u1ec7n","unit_name_en":"District"},{"id":"319","province_id":"28","code":"445","name":"Th\u1ea1ch H\u00e0","name_en":"Thach Ha","full_name":"Huy\u1ec7n Th\u1ea1ch H\u00e0","full_name_en":"Thach Ha District","unit_name":"Huy\u1ec7n","unit_name_en":"District"},{"id":"320","province_id":"28","code":"446","name":"C\u1ea9m Xuy\u00ean","name_en":"Cam Xuyen","full_name":"Huy\u1ec7n C\u1ea9m Xuy\u00ean","full_name_en":"Cam Xuyen District","unit_name":"Huy\u1ec7n","unit_name_en":"District"},{"id":"321","province_id":"28","code":"447","name":"K\u1ef3 Anh","name_en":"Ky Anh","full_name":"Huy\u1ec7n K\u1ef3 Anh","full_name_en":"Ky Anh District","unit_name":"Huy\u1ec7n","unit_name_en":"District"},{"id":"322","province_id":"28","code":"449","name":"K\u1ef3 Anh","name_en":"Ky Anh","full_name":"Th\u1ecb x\u00e3 K\u1ef3 Anh","full_name_en":"Ky Anh Town","unit_name":"Th\u1ecb x\u00e3","unit_name_en":"Town"},{"id":"323","province_id":"29","code":"450","name":"\u0110\u1ed3ng H\u1edbi","name_en":"Dong Hoi","full_name":"Th\u00e0nh ph\u1ed1 \u0110\u1ed3ng H\u1edbi","full_name_en":"Dong Hoi City","unit_name":"Th\u00e0nh ph\u1ed1","unit_name_en":"City"},{"id":"324","province_id":"29","code":"452","name":"Minh H\u00f3a","name_en":"Minh Hoa","full_name":"Huy\u1ec7n Minh H\u00f3a","full_name_en":"Minh Hoa District","unit_name":"Huy\u1ec7n","unit_name_en":"District"},{"id":"325","province_id":"29","code":"453","name":"Tuy\u00ean H\u00f3a","name_en":"Tuyen Hoa","full_name":"Huy\u1ec7n Tuy\u00ean H\u00f3a","full_name_en":"Tuyen Hoa District","unit_name":"Huy\u1ec7n","unit_name_en":"District"},{"id":"326","province_id":"29","code":"454","name":"Qu\u1ea3ng Tr\u1ea1ch","name_en":"Quang Trach","full_name":"Huy\u1ec7n Qu\u1ea3ng Tr\u1ea1ch","full_name_en":"Quang Trach District","unit_name":"Huy\u1ec7n","unit_name_en":"District"},{"id":"327","province_id":"29","code":"455","name":"B\u1ed1 Tr\u1ea1ch","name_en":"Bo Trach","full_name":"Huy\u1ec7n B\u1ed1 Tr\u1ea1ch","full_name_en":"Bo Trach District","unit_name":"Huy\u1ec7n","unit_name_en":"District"},{"id":"328","province_id":"29","code":"456","name":"Qu\u1ea3ng Ninh","name_en":"Quang Ninh","full_name":"Huy\u1ec7n Qu\u1ea3ng Ninh","full_name_en":"Quang Ninh District","unit_name":"Huy\u1ec7n","unit_name_en":"District"},{"id":"329","province_id":"29","code":"457","name":"L\u1ec7 Th\u1ee7y","name_en":"Le Thuy","full_name":"Huy\u1ec7n L\u1ec7 Th\u1ee7y","full_name_en":"Le Thuy District","unit_name":"Huy\u1ec7n","unit_name_en":"District"},{"id":"330","province_id":"29","code":"458","name":"Ba \u0110\u1ed3n","name_en":"Ba Don","full_name":"Th\u1ecb x\u00e3 Ba \u0110\u1ed3n","full_name_en":"Ba Don Town","unit_name":"Th\u1ecb x\u00e3","unit_name_en":"Town"},{"id":"331","province_id":"30","code":"461","name":"\u0110\u00f4ng H\u00e0","name_en":"Dong Ha","full_name":"Th\u00e0nh ph\u1ed1 \u0110\u00f4ng H\u00e0","full_name_en":"Dong Ha City","unit_name":"Th\u00e0nh ph\u1ed1","unit_name_en":"City"},{"id":"332","province_id":"30","code":"462","name":"Qu\u1ea3ng Tr\u1ecb","name_en":"Quang Tri","full_name":"Th\u1ecb x\u00e3 Qu\u1ea3ng Tr\u1ecb","full_name_en":"Quang Tri Town","unit_name":"Th\u1ecb x\u00e3","unit_name_en":"Town"},{"id":"333","province_id":"30","code":"464","name":"V\u0129nh Linh","name_en":"Vinh Linh","full_name":"Huy\u1ec7n V\u0129nh Linh","full_name_en":"Vinh Linh District","unit_name":"Huy\u1ec7n","unit_name_en":"District"},{"id":"334","province_id":"30","code":"465","name":"H\u01b0\u1edbng H\u00f3a","name_en":"Huong Hoa","full_name":"Huy\u1ec7n H\u01b0\u1edbng H\u00f3a","full_name_en":"Huong Hoa District","unit_name":"Huy\u1ec7n","unit_name_en":"District"},{"id":"335","province_id":"30","code":"466","name":"Gio Linh","name_en":"Gio Linh","full_name":"Huy\u1ec7n Gio Linh","full_name_en":"Gio Linh District","unit_name":"Huy\u1ec7n","unit_name_en":"District"},{"id":"336","province_id":"30","code":"467","name":"\u0110a Kr\u00f4ng","name_en":"Da Krong","full_name":"Huy\u1ec7n \u0110a Kr\u00f4ng","full_name_en":"Da Krong District","unit_name":"Huy\u1ec7n","unit_name_en":"District"},{"id":"337","province_id":"30","code":"468","name":"Cam L\u1ed9","name_en":"Cam Lo","full_name":"Huy\u1ec7n Cam L\u1ed9","full_name_en":"Cam Lo District","unit_name":"Huy\u1ec7n","unit_name_en":"District"},{"id":"338","province_id":"30","code":"469","name":"Tri\u1ec7u Phong","name_en":"Trieu Phong","full_name":"Huy\u1ec7n Tri\u1ec7u Phong","full_name_en":"Trieu Phong District","unit_name":"Huy\u1ec7n","unit_name_en":"District"},{"id":"339","province_id":"30","code":"470","name":"H\u1ea3i L\u0103ng","name_en":"Hai Lang","full_name":"Huy\u1ec7n H\u1ea3i L\u0103ng","full_name_en":"Hai Lang District","unit_name":"Huy\u1ec7n","unit_name_en":"District"},{"id":"340","province_id":"30","code":"471","name":"C\u1ed3n C\u1ecf","name_en":"Con Co","full_name":"Huy\u1ec7n C\u1ed3n C\u1ecf","full_name_en":"Con Co District","unit_name":"Huy\u1ec7n","unit_name_en":"District"},{"id":"341","province_id":"31","code":"474","name":"Thu\u1eadn H\u00f3a","name_en":"Thuan Hoa","full_name":"Qu\u1eadn Thu\u1eadn H\u00f3a","full_name_en":"Thuan Hoa District","unit_name":"Qu\u1eadn","unit_name_en":"District"},{"id":"342","province_id":"31","code":"475","name":"Ph\u00fa Xu\u00e2n","name_en":"Phu Xuan","full_name":"Qu\u1eadn Ph\u00fa Xu\u00e2n","full_name_en":"Phu Xuan District","unit_name":"Qu\u1eadn","unit_name_en":"District"},{"id":"343","province_id":"31","code":"476","name":"Phong \u0110i\u1ec1n","name_en":"Phong Dien","full_name":"Th\u1ecb x\u00e3 Phong \u0110i\u1ec1n","full_name_en":"Phong Dien Town","unit_name":"Th\u1ecb x\u00e3","unit_name_en":"Town"},{"id":"344","province_id":"31","code":"477","name":"Qu\u1ea3ng \u0110i\u1ec1n","name_en":"Quang Dien","full_name":"Huy\u1ec7n Qu\u1ea3ng \u0110i\u1ec1n","full_name_en":"Quang Dien District","unit_name":"Huy\u1ec7n","unit_name_en":"District"},{"id":"345","province_id":"31","code":"478","name":"Ph\u00fa Vang","name_en":"Phu Vang","full_name":"Huy\u1ec7n Ph\u00fa Vang","full_name_en":"Phu Vang District","unit_name":"Huy\u1ec7n","unit_name_en":"District"},{"id":"346","province_id":"31","code":"479","name":"H\u01b0\u01a1ng Th\u1ee7y","name_en":"Huong Thuy","full_name":"Th\u1ecb x\u00e3 H\u01b0\u01a1ng Th\u1ee7y","full_name_en":"Huong Thuy Town","unit_name":"Th\u1ecb x\u00e3","unit_name_en":"Town"},{"id":"347","province_id":"31","code":"480","name":"H\u01b0\u01a1ng Tr\u00e0","name_en":"Huong Tra","full_name":"Th\u1ecb x\u00e3 H\u01b0\u01a1ng Tr\u00e0","full_name_en":"Huong Tra Town","unit_name":"Th\u1ecb x\u00e3","unit_name_en":"Town"},{"id":"348","province_id":"31","code":"481","name":"A L\u01b0\u1edbi","name_en":"A Luoi","full_name":"Huy\u1ec7n A L\u01b0\u1edbi","full_name_en":"A Luoi District","unit_name":"Huy\u1ec7n","unit_name_en":"District"},{"id":"349","province_id":"31","code":"482","name":"Ph\u00fa L\u1ed9c","name_en":"Phu Loc","full_name":"Huy\u1ec7n Ph\u00fa L\u1ed9c","full_name_en":"Phu Loc District","unit_name":"Huy\u1ec7n","unit_name_en":"District"},{"id":"350","province_id":"32","code":"490","name":"Li\u00ean Chi\u1ec3u","name_en":"Lien Chieu","full_name":"Qu\u1eadn Li\u00ean Chi\u1ec3u","full_name_en":"Lien Chieu District","unit_name":"Qu\u1eadn","unit_name_en":"District"},{"id":"351","province_id":"32","code":"491","name":"Thanh Kh\u00ea","name_en":"Thanh Khe","full_name":"Qu\u1eadn Thanh Kh\u00ea","full_name_en":"Thanh Khe District","unit_name":"Qu\u1eadn","unit_name_en":"District"},{"id":"352","province_id":"32","code":"492","name":"H\u1ea3i Ch\u00e2u","name_en":"Hai Chau","full_name":"Qu\u1eadn H\u1ea3i Ch\u00e2u","full_name_en":"Hai Chau District","unit_name":"Qu\u1eadn","unit_name_en":"District"},{"id":"353","province_id":"32","code":"493","name":"S\u01a1n Tr\u00e0","name_en":"Son Tra","full_name":"Qu\u1eadn S\u01a1n Tr\u00e0","full_name_en":"Son Tra District","unit_name":"Qu\u1eadn","unit_name_en":"District"},{"id":"354","province_id":"32","code":"494","name":"Ng\u0169 H\u00e0nh S\u01a1n","name_en":"Ngu Hanh Son","full_name":"Qu\u1eadn Ng\u0169 H\u00e0nh S\u01a1n","full_name_en":"Ngu Hanh Son District","unit_name":"Qu\u1eadn","unit_name_en":"District"},{"id":"355","province_id":"32","code":"495","name":"C\u1ea9m L\u1ec7","name_en":"Cam Le","full_name":"Qu\u1eadn C\u1ea9m L\u1ec7","full_name_en":"Cam Le District","unit_name":"Qu\u1eadn","unit_name_en":"District"},{"id":"356","province_id":"32","code":"497","name":"H\u00f2a Vang","name_en":"Hoa Vang","full_name":"Huy\u1ec7n H\u00f2a Vang","full_name_en":"Hoa Vang District","unit_name":"Huy\u1ec7n","unit_name_en":"District"},{"id":"357","province_id":"32","code":"498","name":"Ho\u00e0ng Sa","name_en":"Hoang Sa","full_name":"Huy\u1ec7n Ho\u00e0ng Sa","full_name_en":"Hoang Sa District","unit_name":"Huy\u1ec7n","unit_name_en":"District"},{"id":"358","province_id":"33","code":"502","name":"Tam K\u1ef3","name_en":"Tam Ky","full_name":"Th\u00e0nh ph\u1ed1 Tam K\u1ef3","full_name_en":"Tam Ky City","unit_name":"Th\u00e0nh ph\u1ed1","unit_name_en":"City"},{"id":"359","province_id":"33","code":"503","name":"H\u1ed9i An","name_en":"Hoi An","full_name":"Th\u00e0nh ph\u1ed1 H\u1ed9i An","full_name_en":"Hoi An City","unit_name":"Th\u00e0nh ph\u1ed1","unit_name_en":"City"},{"id":"360","province_id":"33","code":"504","name":"T\u00e2y Giang","name_en":"Tay Giang","full_name":"Huy\u1ec7n T\u00e2y Giang","full_name_en":"Tay Giang District","unit_name":"Huy\u1ec7n","unit_name_en":"District"},{"id":"361","province_id":"33","code":"505","name":"\u0110\u00f4ng Giang","name_en":"Dong Giang","full_name":"Huy\u1ec7n \u0110\u00f4ng Giang","full_name_en":"Dong Giang District","unit_name":"Huy\u1ec7n","unit_name_en":"District"},{"id":"362","province_id":"33","code":"506","name":"\u0110\u1ea1i L\u1ed9c","name_en":"Dai Loc","full_name":"Huy\u1ec7n \u0110\u1ea1i L\u1ed9c","full_name_en":"Dai Loc District","unit_name":"Huy\u1ec7n","unit_name_en":"District"},{"id":"363","province_id":"33","code":"507","name":"\u0110i\u1ec7n B\u00e0n","name_en":"Dien Ban","full_name":"Th\u1ecb x\u00e3 \u0110i\u1ec7n B\u00e0n","full_name_en":"Dien Ban Town","unit_name":"Th\u1ecb x\u00e3","unit_name_en":"Town"},{"id":"364","province_id":"33","code":"508","name":"Duy Xuy\u00ean","name_en":"Duy Xuyen","full_name":"Huy\u1ec7n Duy Xuy\u00ean","full_name_en":"Duy Xuyen District","unit_name":"Huy\u1ec7n","unit_name_en":"District"},{"id":"365","province_id":"33","code":"509","name":"Qu\u1ebf S\u01a1n","name_en":"Que Son","full_name":"Huy\u1ec7n Qu\u1ebf S\u01a1n","full_name_en":"Que Son District","unit_name":"Huy\u1ec7n","unit_name_en":"District"},{"id":"366","province_id":"33","code":"510","name":"Nam Giang","name_en":"Nam Giang","full_name":"Huy\u1ec7n Nam Giang","full_name_en":"Nam Giang District","unit_name":"Huy\u1ec7n","unit_name_en":"District"},{"id":"367","province_id":"33","code":"511","name":"Ph\u01b0\u1edbc S\u01a1n","name_en":"Phuoc Son","full_name":"Huy\u1ec7n Ph\u01b0\u1edbc S\u01a1n","full_name_en":"Phuoc Son District","unit_name":"Huy\u1ec7n","unit_name_en":"District"},{"id":"368","province_id":"33","code":"512","name":"Hi\u1ec7p \u0110\u1ee9c","name_en":"Hiep Duc","full_name":"Huy\u1ec7n Hi\u1ec7p \u0110\u1ee9c","full_name_en":"Hiep Duc District","unit_name":"Huy\u1ec7n","unit_name_en":"District"},{"id":"369","province_id":"33","code":"513","name":"Th\u0103ng B\u00ecnh","name_en":"Thang Binh","full_name":"Huy\u1ec7n Th\u0103ng B\u00ecnh","full_name_en":"Thang Binh District","unit_name":"Huy\u1ec7n","unit_name_en":"District"},{"id":"370","province_id":"33","code":"514","name":"Ti\u00ean Ph\u01b0\u1edbc","name_en":"Tien Phuoc","full_name":"Huy\u1ec7n Ti\u00ean Ph\u01b0\u1edbc","full_name_en":"Tien Phuoc District","unit_name":"Huy\u1ec7n","unit_name_en":"District"},{"id":"371","province_id":"33","code":"515","name":"B\u1eafc Tr\u00e0 My","name_en":"Bac Tra My","full_name":"Huy\u1ec7n B\u1eafc Tr\u00e0 My","full_name_en":"Bac Tra My District","unit_name":"Huy\u1ec7n","unit_name_en":"District"},{"id":"372","province_id":"33","code":"516","name":"Nam Tr\u00e0 My","name_en":"Nam Tra My","full_name":"Huy\u1ec7n Nam Tr\u00e0 My","full_name_en":"Nam Tra My District","unit_name":"Huy\u1ec7n","unit_name_en":"District"},{"id":"373","province_id":"33","code":"517","name":"N\u00fai Th\u00e0nh","name_en":"Nui Thanh","full_name":"Huy\u1ec7n N\u00fai Th\u00e0nh","full_name_en":"Nui Thanh District","unit_name":"Huy\u1ec7n","unit_name_en":"District"},{"id":"374","province_id":"33","code":"518","name":"Ph\u00fa Ninh","name_en":"Phu Ninh","full_name":"Huy\u1ec7n Ph\u00fa Ninh","full_name_en":"Phu Ninh District","unit_name":"Huy\u1ec7n","unit_name_en":"District"},{"id":"375","province_id":"34","code":"522","name":"Qu\u1ea3ng Ng\u00e3i","name_en":"Quang Ngai","full_name":"Th\u00e0nh ph\u1ed1 Qu\u1ea3ng Ng\u00e3i","full_name_en":"Quang Ngai City","unit_name":"Th\u00e0nh ph\u1ed1","unit_name_en":"City"},{"id":"376","province_id":"34","code":"524","name":"B\u00ecnh S\u01a1n","name_en":"Binh Son","full_name":"Huy\u1ec7n B\u00ecnh S\u01a1n","full_name_en":"Binh Son District","unit_name":"Huy\u1ec7n","unit_name_en":"District"},{"id":"377","province_id":"34","code":"525","name":"Tr\u00e0 B\u1ed3ng","name_en":"Tra Bong","full_name":"Huy\u1ec7n Tr\u00e0 B\u1ed3ng","full_name_en":"Tra Bong District","unit_name":"Huy\u1ec7n","unit_name_en":"District"},{"id":"378","province_id":"34","code":"527","name":"S\u01a1n T\u1ecbnh","name_en":"Son Tinh","full_name":"Huy\u1ec7n S\u01a1n T\u1ecbnh","full_name_en":"Son Tinh District","unit_name":"Huy\u1ec7n","unit_name_en":"District"},{"id":"379","province_id":"34","code":"528","name":"T\u01b0 Ngh\u0129a","name_en":"Tu Nghia","full_name":"Huy\u1ec7n T\u01b0 Ngh\u0129a","full_name_en":"Tu Nghia District","unit_name":"Huy\u1ec7n","unit_name_en":"District"},{"id":"380","province_id":"34","code":"529","name":"S\u01a1n H\u00e0","name_en":"Son Ha","full_name":"Huy\u1ec7n S\u01a1n H\u00e0","full_name_en":"Son Ha District","unit_name":"Huy\u1ec7n","unit_name_en":"District"},{"id":"381","province_id":"34","code":"530","name":"S\u01a1n T\u00e2y","name_en":"Son Tay","full_name":"Huy\u1ec7n S\u01a1n T\u00e2y","full_name_en":"Son Tay District","unit_name":"Huy\u1ec7n","unit_name_en":"District"},{"id":"382","province_id":"34","code":"531","name":"Minh Long","name_en":"Minh Long","full_name":"Huy\u1ec7n Minh Long","full_name_en":"Minh Long District","unit_name":"Huy\u1ec7n","unit_name_en":"District"},{"id":"383","province_id":"34","code":"532","name":"Ngh\u0129a H\u00e0nh","name_en":"Nghia Hanh","full_name":"Huy\u1ec7n Ngh\u0129a H\u00e0nh","full_name_en":"Nghia Hanh District","unit_name":"Huy\u1ec7n","unit_name_en":"District"},{"id":"384","province_id":"34","code":"533","name":"M\u1ed9 \u0110\u1ee9c","name_en":"Mo Duc","full_name":"Huy\u1ec7n M\u1ed9 \u0110\u1ee9c","full_name_en":"Mo Duc District","unit_name":"Huy\u1ec7n","unit_name_en":"District"},{"id":"385","province_id":"34","code":"534","name":"\u0110\u1ee9c Ph\u1ed5","name_en":"Duc Pho","full_name":"Th\u1ecb x\u00e3 \u0110\u1ee9c Ph\u1ed5","full_name_en":"Duc Pho Town","unit_name":"Th\u1ecb x\u00e3","unit_name_en":"Town"},{"id":"386","province_id":"34","code":"535","name":"Ba T\u01a1","name_en":"Ba To","full_name":"Huy\u1ec7n Ba T\u01a1","full_name_en":"Ba To District","unit_name":"Huy\u1ec7n","unit_name_en":"District"},{"id":"387","province_id":"34","code":"536","name":"L\u00fd S\u01a1n","name_en":"Ly Son","full_name":"Huy\u1ec7n L\u00fd S\u01a1n","full_name_en":"Ly Son District","unit_name":"Huy\u1ec7n","unit_name_en":"District"},{"id":"388","province_id":"35","code":"540","name":"Quy Nh\u01a1n","name_en":"Quy Nhon","full_name":"Th\u00e0nh ph\u1ed1 Quy Nh\u01a1n","full_name_en":"Quy Nhon City","unit_name":"Th\u00e0nh ph\u1ed1","unit_name_en":"City"},{"id":"389","province_id":"35","code":"542","name":"An L\u00e3o","name_en":"An Lao","full_name":"Huy\u1ec7n An L\u00e3o","full_name_en":"An Lao District","unit_name":"Huy\u1ec7n","unit_name_en":"District"},{"id":"390","province_id":"35","code":"543","name":"Ho\u00e0i Nh\u01a1n","name_en":"Hoai Nhon","full_name":"Th\u1ecb x\u00e3 Ho\u00e0i Nh\u01a1n","full_name_en":"Hoai Nhon Town","unit_name":"Th\u1ecb x\u00e3","unit_name_en":"Town"},{"id":"391","province_id":"35","code":"544","name":"Ho\u00e0i \u00c2n","name_en":"Hoai An","full_name":"Huy\u1ec7n Ho\u00e0i \u00c2n","full_name_en":"Hoai An District","unit_name":"Huy\u1ec7n","unit_name_en":"District"},{"id":"392","province_id":"35","code":"545","name":"Ph\u00f9 M\u1ef9","name_en":"Phu My","full_name":"Huy\u1ec7n Ph\u00f9 M\u1ef9","full_name_en":"Phu My District","unit_name":"Huy\u1ec7n","unit_name_en":"District"},{"id":"393","province_id":"35","code":"546","name":"V\u0129nh Th\u1ea1nh","name_en":"Vinh Thanh","full_name":"Huy\u1ec7n V\u0129nh Th\u1ea1nh","full_name_en":"Vinh Thanh District","unit_name":"Huy\u1ec7n","unit_name_en":"District"},{"id":"394","province_id":"35","code":"547","name":"T\u00e2y S\u01a1n","name_en":"Tay Son","full_name":"Huy\u1ec7n T\u00e2y S\u01a1n","full_name_en":"Tay Son District","unit_name":"Huy\u1ec7n","unit_name_en":"District"},{"id":"395","province_id":"35","code":"548","name":"Ph\u00f9 C\u00e1t","name_en":"Phu Cat","full_name":"Huy\u1ec7n Ph\u00f9 C\u00e1t","full_name_en":"Phu Cat District","unit_name":"Huy\u1ec7n","unit_name_en":"District"},{"id":"396","province_id":"35","code":"549","name":"An Nh\u01a1n","name_en":"An Nhon","full_name":"Th\u1ecb x\u00e3 An Nh\u01a1n","full_name_en":"An Nhon Town","unit_name":"Th\u1ecb x\u00e3","unit_name_en":"Town"},{"id":"397","province_id":"35","code":"550","name":"Tuy Ph\u01b0\u1edbc","name_en":"Tuy Phuoc","full_name":"Huy\u1ec7n Tuy Ph\u01b0\u1edbc","full_name_en":"Tuy Phuoc District","unit_name":"Huy\u1ec7n","unit_name_en":"District"},{"id":"398","province_id":"35","code":"551","name":"V\u00e2n Canh","name_en":"Van Canh","full_name":"Huy\u1ec7n V\u00e2n Canh","full_name_en":"Van Canh District","unit_name":"Huy\u1ec7n","unit_name_en":"District"},{"id":"399","province_id":"36","code":"555","name":"Tuy Ho\u00e0","name_en":"Tuy Hoa","full_name":"Th\u00e0nh ph\u1ed1 Tuy Ho\u00e0","full_name_en":"Tuy Hoa City","unit_name":"Th\u00e0nh ph\u1ed1","unit_name_en":"City"},{"id":"400","province_id":"36","code":"557","name":"S\u00f4ng C\u1ea7u","name_en":"Song Cau","full_name":"Th\u1ecb x\u00e3 S\u00f4ng C\u1ea7u","full_name_en":"Song Cau Town","unit_name":"Th\u1ecb x\u00e3","unit_name_en":"Town"},{"id":"401","province_id":"36","code":"558","name":"\u0110\u1ed3ng Xu\u00e2n","name_en":"Dong Xuan","full_name":"Huy\u1ec7n \u0110\u1ed3ng Xu\u00e2n","full_name_en":"Dong Xuan District","unit_name":"Huy\u1ec7n","unit_name_en":"District"},{"id":"402","province_id":"36","code":"559","name":"Tuy An","name_en":"Tuy An","full_name":"Huy\u1ec7n Tuy An","full_name_en":"Tuy An District","unit_name":"Huy\u1ec7n","unit_name_en":"District"},{"id":"403","province_id":"36","code":"560","name":"S\u01a1n H\u00f2a","name_en":"Son Hoa","full_name":"Huy\u1ec7n S\u01a1n H\u00f2a","full_name_en":"Son Hoa District","unit_name":"Huy\u1ec7n","unit_name_en":"District"},{"id":"404","province_id":"36","code":"561","name":"S\u00f4ng Hinh","name_en":"Song Hinh","full_name":"Huy\u1ec7n S\u00f4ng Hinh","full_name_en":"Song Hinh District","unit_name":"Huy\u1ec7n","unit_name_en":"District"},{"id":"405","province_id":"36","code":"562","name":"T\u00e2y Ho\u00e0","name_en":"Tay Hoa","full_name":"Huy\u1ec7n T\u00e2y Ho\u00e0","full_name_en":"Tay Hoa District","unit_name":"Huy\u1ec7n","unit_name_en":"District"},{"id":"406","province_id":"36","code":"563","name":"Ph\u00fa Ho\u00e0","name_en":"Phu Hoa","full_name":"Huy\u1ec7n Ph\u00fa Ho\u00e0","full_name_en":"Phu Hoa District","unit_name":"Huy\u1ec7n","unit_name_en":"District"},{"id":"407","province_id":"36","code":"564","name":"\u0110\u00f4ng H\u00f2a","name_en":"Dong Hoa","full_name":"Th\u1ecb x\u00e3 \u0110\u00f4ng H\u00f2a","full_name_en":"Dong Hoa Town","unit_name":"Th\u1ecb x\u00e3","unit_name_en":"Town"},{"id":"408","province_id":"37","code":"568","name":"Nha Trang","name_en":"Nha Trang","full_name":"Th\u00e0nh ph\u1ed1 Nha Trang","full_name_en":"Nha Trang City","unit_name":"Th\u00e0nh ph\u1ed1","unit_name_en":"City"},{"id":"409","province_id":"37","code":"569","name":"Cam Ranh","name_en":"Cam Ranh","full_name":"Th\u00e0nh ph\u1ed1 Cam Ranh","full_name_en":"Cam Ranh City","unit_name":"Th\u00e0nh ph\u1ed1","unit_name_en":"City"},{"id":"410","province_id":"37","code":"570","name":"Cam L\u00e2m","name_en":"Cam Lam","full_name":"Huy\u1ec7n Cam L\u00e2m","full_name_en":"Cam Lam District","unit_name":"Huy\u1ec7n","unit_name_en":"District"},{"id":"411","province_id":"37","code":"571","name":"V\u1ea1n Ninh","name_en":"Van Ninh","full_name":"Huy\u1ec7n V\u1ea1n Ninh","full_name_en":"Van Ninh District","unit_name":"Huy\u1ec7n","unit_name_en":"District"},{"id":"412","province_id":"37","code":"572","name":"Ninh H\u00f2a","name_en":"Ninh Hoa","full_name":"Th\u1ecb x\u00e3 Ninh H\u00f2a","full_name_en":"Ninh Hoa Town","unit_name":"Th\u1ecb x\u00e3","unit_name_en":"Town"},{"id":"413","province_id":"37","code":"573","name":"Kh\u00e1nh V\u0129nh","name_en":"Khanh Vinh","full_name":"Huy\u1ec7n Kh\u00e1nh V\u0129nh","full_name_en":"Khanh Vinh District","unit_name":"Huy\u1ec7n","unit_name_en":"District"},{"id":"414","province_id":"37","code":"574","name":"Di\u00ean Kh\u00e1nh","name_en":"Dien Khanh","full_name":"Huy\u1ec7n Di\u00ean Kh\u00e1nh","full_name_en":"Dien Khanh District","unit_name":"Huy\u1ec7n","unit_name_en":"District"},{"id":"415","province_id":"37","code":"575","name":"Kh\u00e1nh S\u01a1n","name_en":"Khanh Son","full_name":"Huy\u1ec7n Kh\u00e1nh S\u01a1n","full_name_en":"Khanh Son District","unit_name":"Huy\u1ec7n","unit_name_en":"District"},{"id":"416","province_id":"37","code":"576","name":"Tr\u01b0\u1eddng Sa","name_en":"Truong Sa","full_name":"Huy\u1ec7n Tr\u01b0\u1eddng Sa","full_name_en":"Truong Sa District","unit_name":"Huy\u1ec7n","unit_name_en":"District"},{"id":"417","province_id":"38","code":"582","name":"Phan Rang-Th\u00e1p Ch\u00e0m","name_en":"Phan Rang-Thap Cham","full_name":"Th\u00e0nh ph\u1ed1 Phan Rang-Th\u00e1p Ch\u00e0m","full_name_en":"Phan Rang-Thap Cham City","unit_name":"Th\u00e0nh ph\u1ed1","unit_name_en":"City"},{"id":"418","province_id":"38","code":"584","name":"B\u00e1c \u00c1i","name_en":"Bac Ai","full_name":"Huy\u1ec7n B\u00e1c \u00c1i","full_name_en":"Bac Ai District","unit_name":"Huy\u1ec7n","unit_name_en":"District"},{"id":"419","province_id":"38","code":"585","name":"Ninh S\u01a1n","name_en":"Ninh Son","full_name":"Huy\u1ec7n Ninh S\u01a1n","full_name_en":"Ninh Son District","unit_name":"Huy\u1ec7n","unit_name_en":"District"},{"id":"420","province_id":"38","code":"586","name":"Ninh H\u1ea3i","name_en":"Ninh Hai","full_name":"Huy\u1ec7n Ninh H\u1ea3i","full_name_en":"Ninh Hai District","unit_name":"Huy\u1ec7n","unit_name_en":"District"},{"id":"421","province_id":"38","code":"587","name":"Ninh Ph\u01b0\u1edbc","name_en":"Ninh Phuoc","full_name":"Huy\u1ec7n Ninh Ph\u01b0\u1edbc","full_name_en":"Ninh Phuoc District","unit_name":"Huy\u1ec7n","unit_name_en":"District"},{"id":"422","province_id":"38","code":"588","name":"Thu\u1eadn B\u1eafc","name_en":"Thuan Bac","full_name":"Huy\u1ec7n Thu\u1eadn B\u1eafc","full_name_en":"Thuan Bac District","unit_name":"Huy\u1ec7n","unit_name_en":"District"},{"id":"423","province_id":"38","code":"589","name":"Thu\u1eadn Nam","name_en":"Thuan Nam","full_name":"Huy\u1ec7n Thu\u1eadn Nam","full_name_en":"Thuan Nam District","unit_name":"Huy\u1ec7n","unit_name_en":"District"},{"id":"424","province_id":"39","code":"593","name":"Phan Thi\u1ebft","name_en":"Phan Thiet","full_name":"Th\u00e0nh ph\u1ed1 Phan Thi\u1ebft","full_name_en":"Phan Thiet City","unit_name":"Th\u00e0nh ph\u1ed1","unit_name_en":"City"},{"id":"425","province_id":"39","code":"594","name":"La Gi","name_en":"La Gi","full_name":"Th\u1ecb x\u00e3 La Gi","full_name_en":"La Gi Town","unit_name":"Th\u1ecb x\u00e3","unit_name_en":"Town"},{"id":"426","province_id":"39","code":"595","name":"Tuy Phong","name_en":"Tuy Phong","full_name":"Huy\u1ec7n Tuy Phong","full_name_en":"Tuy Phong District","unit_name":"Huy\u1ec7n","unit_name_en":"District"},{"id":"427","province_id":"39","code":"596","name":"B\u1eafc B\u00ecnh","name_en":"Bac Binh","full_name":"Huy\u1ec7n B\u1eafc B\u00ecnh","full_name_en":"Bac Binh District","unit_name":"Huy\u1ec7n","unit_name_en":"District"},{"id":"428","province_id":"39","code":"597","name":"H\u00e0m Thu\u1eadn B\u1eafc","name_en":"Ham Thuan Bac","full_name":"Huy\u1ec7n H\u00e0m Thu\u1eadn B\u1eafc","full_name_en":"Ham Thuan Bac District","unit_name":"Huy\u1ec7n","unit_name_en":"District"},{"id":"429","province_id":"39","code":"598","name":"H\u00e0m Thu\u1eadn Nam","name_en":"Ham Thuan Nam","full_name":"Huy\u1ec7n H\u00e0m Thu\u1eadn Nam","full_name_en":"Ham Thuan Nam District","unit_name":"Huy\u1ec7n","unit_name_en":"District"},{"id":"430","province_id":"39","code":"599","name":"T\u00e1nh Linh","name_en":"Tanh Linh","full_name":"Huy\u1ec7n T\u00e1nh Linh","full_name_en":"Tanh Linh District","unit_name":"Huy\u1ec7n","unit_name_en":"District"},{"id":"431","province_id":"39","code":"600","name":"\u0110\u1ee9c Linh","name_en":"Duc Linh","full_name":"Huy\u1ec7n \u0110\u1ee9c Linh","full_name_en":"Duc Linh District","unit_name":"Huy\u1ec7n","unit_name_en":"District"},{"id":"432","province_id":"39","code":"601","name":"H\u00e0m T\u00e2n","name_en":"Ham Tan","full_name":"Huy\u1ec7n H\u00e0m T\u00e2n","full_name_en":"Ham Tan District","unit_name":"Huy\u1ec7n","unit_name_en":"District"},{"id":"433","province_id":"39","code":"602","name":"Ph\u00fa Qu\u00ed","name_en":"Phu Qui","full_name":"Huy\u1ec7n Ph\u00fa Qu\u00ed","full_name_en":"Phu Qui District","unit_name":"Huy\u1ec7n","unit_name_en":"District"},{"id":"434","province_id":"40","code":"608","name":"Kon Tum","name_en":"Kon Tum","full_name":"Th\u00e0nh ph\u1ed1 Kon Tum","full_name_en":"Kon Tum City","unit_name":"Th\u00e0nh ph\u1ed1","unit_name_en":"City"},{"id":"435","province_id":"40","code":"610","name":"\u0110\u1eafk Glei","name_en":"Dak Glei","full_name":"Huy\u1ec7n \u0110\u1eafk Glei","full_name_en":"Dak Glei District","unit_name":"Huy\u1ec7n","unit_name_en":"District"},{"id":"436","province_id":"40","code":"611","name":"Ng\u1ecdc H\u1ed3i","name_en":"Ngoc Hoi","full_name":"Huy\u1ec7n Ng\u1ecdc H\u1ed3i","full_name_en":"Ngoc Hoi District","unit_name":"Huy\u1ec7n","unit_name_en":"District"},{"id":"437","province_id":"40","code":"612","name":"\u0110\u1eafk T\u00f4","name_en":"Dak To","full_name":"Huy\u1ec7n \u0110\u1eafk T\u00f4","full_name_en":"Dak To District","unit_name":"Huy\u1ec7n","unit_name_en":"District"},{"id":"438","province_id":"40","code":"613","name":"Kon Pl\u00f4ng","name_en":"Kon Plong","full_name":"Huy\u1ec7n Kon Pl\u00f4ng","full_name_en":"Kon Plong District","unit_name":"Huy\u1ec7n","unit_name_en":"District"},{"id":"439","province_id":"40","code":"614","name":"Kon R\u1eaby","name_en":"Kon Ray","full_name":"Huy\u1ec7n Kon R\u1eaby","full_name_en":"Kon Ray District","unit_name":"Huy\u1ec7n","unit_name_en":"District"},{"id":"440","province_id":"40","code":"615","name":"\u0110\u1eafk H\u00e0","name_en":"Dak Ha","full_name":"Huy\u1ec7n \u0110\u1eafk H\u00e0","full_name_en":"Dak Ha District","unit_name":"Huy\u1ec7n","unit_name_en":"District"},{"id":"441","province_id":"40","code":"616","name":"Sa Th\u1ea7y","name_en":"Sa Thay","full_name":"Huy\u1ec7n Sa Th\u1ea7y","full_name_en":"Sa Thay District","unit_name":"Huy\u1ec7n","unit_name_en":"District"},{"id":"442","province_id":"40","code":"617","name":"Tu M\u01a1 R\u00f4ng","name_en":"Tu Mo Rong","full_name":"Huy\u1ec7n Tu M\u01a1 R\u00f4ng","full_name_en":"Tu Mo Rong District","unit_name":"Huy\u1ec7n","unit_name_en":"District"},{"id":"443","province_id":"40","code":"618","name":"Ia H' Drai","name_en":"Ia H' Drai","full_name":"Huy\u1ec7n Ia H' Drai","full_name_en":"Ia H' Drai District","unit_name":"Huy\u1ec7n","unit_name_en":"District"},{"id":"444","province_id":"41","code":"622","name":"Pleiku","name_en":"Pleiku","full_name":"Th\u00e0nh ph\u1ed1 Pleiku","full_name_en":"Pleiku City","unit_name":"Th\u00e0nh ph\u1ed1","unit_name_en":"City"},{"id":"445","province_id":"41","code":"623","name":"An Kh\u00ea","name_en":"An Khe","full_name":"Th\u1ecb x\u00e3 An Kh\u00ea","full_name_en":"An Khe Town","unit_name":"Th\u1ecb x\u00e3","unit_name_en":"Town"},{"id":"446","province_id":"41","code":"624","name":"Ayun Pa","name_en":"Ayun Pa","full_name":"Th\u1ecb x\u00e3 Ayun Pa","full_name_en":"Ayun Pa Town","unit_name":"Th\u1ecb x\u00e3","unit_name_en":"Town"},{"id":"447","province_id":"41","code":"625","name":"KBang","name_en":"KBang","full_name":"Huy\u1ec7n KBang","full_name_en":"KBang District","unit_name":"Huy\u1ec7n","unit_name_en":"District"},{"id":"448","province_id":"41","code":"626","name":"\u0110\u0103k \u0110oa","name_en":"Dak Doa","full_name":"Huy\u1ec7n \u0110\u0103k \u0110oa","full_name_en":"Dak Doa District","unit_name":"Huy\u1ec7n","unit_name_en":"District"},{"id":"449","province_id":"41","code":"627","name":"Ch\u01b0 P\u0103h","name_en":"Chu Pah","full_name":"Huy\u1ec7n Ch\u01b0 P\u0103h","full_name_en":"Chu Pah District","unit_name":"Huy\u1ec7n","unit_name_en":"District"},{"id":"450","province_id":"41","code":"628","name":"Ia Grai","name_en":"Ia Grai","full_name":"Huy\u1ec7n Ia Grai","full_name_en":"Ia Grai District","unit_name":"Huy\u1ec7n","unit_name_en":"District"},{"id":"451","province_id":"41","code":"629","name":"Mang Yang","name_en":"Mang Yang","full_name":"Huy\u1ec7n Mang Yang","full_name_en":"Mang Yang District","unit_name":"Huy\u1ec7n","unit_name_en":"District"},{"id":"452","province_id":"41","code":"630","name":"K\u00f4ng Chro","name_en":"Kong Chro","full_name":"Huy\u1ec7n K\u00f4ng Chro","full_name_en":"Kong Chro District","unit_name":"Huy\u1ec7n","unit_name_en":"District"},{"id":"453","province_id":"41","code":"631","name":"\u0110\u1ee9c C\u01a1","name_en":"Duc Co","full_name":"Huy\u1ec7n \u0110\u1ee9c C\u01a1","full_name_en":"Duc Co District","unit_name":"Huy\u1ec7n","unit_name_en":"District"},{"id":"454","province_id":"41","code":"632","name":"Ch\u01b0 Pr\u00f4ng","name_en":"Chu Prong","full_name":"Huy\u1ec7n Ch\u01b0 Pr\u00f4ng","full_name_en":"Chu Prong District","unit_name":"Huy\u1ec7n","unit_name_en":"District"},{"id":"455","province_id":"41","code":"633","name":"Ch\u01b0 S\u00ea","name_en":"Chu Se","full_name":"Huy\u1ec7n Ch\u01b0 S\u00ea","full_name_en":"Chu Se District","unit_name":"Huy\u1ec7n","unit_name_en":"District"},{"id":"456","province_id":"41","code":"634","name":"\u0110\u0103k P\u01a1","name_en":"Dak Po","full_name":"Huy\u1ec7n \u0110\u0103k P\u01a1","full_name_en":"Dak Po District","unit_name":"Huy\u1ec7n","unit_name_en":"District"},{"id":"457","province_id":"41","code":"635","name":"Ia Pa","name_en":"Ia Pa","full_name":"Huy\u1ec7n Ia Pa","full_name_en":"Ia Pa District","unit_name":"Huy\u1ec7n","unit_name_en":"District"},{"id":"458","province_id":"41","code":"637","name":"Kr\u00f4ng Pa","name_en":"Krong Pa","full_name":"Huy\u1ec7n Kr\u00f4ng Pa","full_name_en":"Krong Pa District","unit_name":"Huy\u1ec7n","unit_name_en":"District"},{"id":"459","province_id":"41","code":"638","name":"Ph\u00fa Thi\u1ec7n","name_en":"Phu Thien","full_name":"Huy\u1ec7n Ph\u00fa Thi\u1ec7n","full_name_en":"Phu Thien District","unit_name":"Huy\u1ec7n","unit_name_en":"District"},{"id":"460","province_id":"41","code":"639","name":"Ch\u01b0 P\u01b0h","name_en":"Chu Puh","full_name":"Huy\u1ec7n Ch\u01b0 P\u01b0h","full_name_en":"Chu Puh District","unit_name":"Huy\u1ec7n","unit_name_en":"District"},{"id":"461","province_id":"42","code":"643","name":"Bu\u00f4n Ma Thu\u1ed9t","name_en":"Buon Ma Thuot","full_name":"Th\u00e0nh ph\u1ed1 Bu\u00f4n Ma Thu\u1ed9t","full_name_en":"Buon Ma Thuot City","unit_name":"Th\u00e0nh ph\u1ed1","unit_name_en":"City"},{"id":"462","province_id":"42","code":"644","name":"Bu\u00f4n H\u1ed3","name_en":"Buon Ho","full_name":"Th\u1ecb x\u00e3 Bu\u00f4n H\u1ed3","full_name_en":"Buon Ho Town","unit_name":"Th\u1ecb x\u00e3","unit_name_en":"Town"},{"id":"463","province_id":"42","code":"645","name":"Ea H'leo","name_en":"Ea H'leo","full_name":"Huy\u1ec7n Ea H'leo","full_name_en":"Ea H'leo District","unit_name":"Huy\u1ec7n","unit_name_en":"District"},{"id":"464","province_id":"42","code":"646","name":"Ea S\u00fap","name_en":"Ea Sup","full_name":"Huy\u1ec7n Ea S\u00fap","full_name_en":"Ea Sup District","unit_name":"Huy\u1ec7n","unit_name_en":"District"},{"id":"465","province_id":"42","code":"647","name":"Bu\u00f4n \u0110\u00f4n","name_en":"Buon Don","full_name":"Huy\u1ec7n Bu\u00f4n \u0110\u00f4n","full_name_en":"Buon Don District","unit_name":"Huy\u1ec7n","unit_name_en":"District"},{"id":"466","province_id":"42","code":"648","name":"C\u01b0 M'gar","name_en":"Cu M'gar","full_name":"Huy\u1ec7n C\u01b0 M'gar","full_name_en":"Cu M'gar District","unit_name":"Huy\u1ec7n","unit_name_en":"District"},{"id":"467","province_id":"42","code":"649","name":"Kr\u00f4ng B\u00fak","name_en":"Krong Buk","full_name":"Huy\u1ec7n Kr\u00f4ng B\u00fak","full_name_en":"Krong Buk District","unit_name":"Huy\u1ec7n","unit_name_en":"District"},{"id":"468","province_id":"42","code":"650","name":"Kr\u00f4ng N\u0103ng","name_en":"Krong Nang","full_name":"Huy\u1ec7n Kr\u00f4ng N\u0103ng","full_name_en":"Krong Nang District","unit_name":"Huy\u1ec7n","unit_name_en":"District"},{"id":"469","province_id":"42","code":"651","name":"Ea Kar","name_en":"Ea Kar","full_name":"Huy\u1ec7n Ea Kar","full_name_en":"Ea Kar District","unit_name":"Huy\u1ec7n","unit_name_en":"District"},{"id":"470","province_id":"42","code":"652","name":"M'\u0110r\u1eafk","name_en":"M'Drak","full_name":"Huy\u1ec7n M'\u0110r\u1eafk","full_name_en":"M'Drak District","unit_name":"Huy\u1ec7n","unit_name_en":"District"},{"id":"471","province_id":"42","code":"653","name":"Kr\u00f4ng B\u00f4ng","name_en":"Krong Bong","full_name":"Huy\u1ec7n Kr\u00f4ng B\u00f4ng","full_name_en":"Krong Bong District","unit_name":"Huy\u1ec7n","unit_name_en":"District"},{"id":"472","province_id":"42","code":"654","name":"Kr\u00f4ng P\u1eafc","name_en":"Krong Pac","full_name":"Huy\u1ec7n Kr\u00f4ng P\u1eafc","full_name_en":"Krong Pac District","unit_name":"Huy\u1ec7n","unit_name_en":"District"},{"id":"473","province_id":"42","code":"655","name":"Kr\u00f4ng A Na","name_en":"Krong A Na","full_name":"Huy\u1ec7n Kr\u00f4ng A Na","full_name_en":"Krong A Na District","unit_name":"Huy\u1ec7n","unit_name_en":"District"},{"id":"474","province_id":"42","code":"656","name":"L\u1eafk","name_en":"Lak","full_name":"Huy\u1ec7n L\u1eafk","full_name_en":"Lak District","unit_name":"Huy\u1ec7n","unit_name_en":"District"},{"id":"475","province_id":"42","code":"657","name":"C\u01b0 Kuin","name_en":"Cu Kuin","full_name":"Huy\u1ec7n C\u01b0 Kuin","full_name_en":"Cu Kuin District","unit_name":"Huy\u1ec7n","unit_name_en":"District"},{"id":"476","province_id":"43","code":"660","name":"Gia Ngh\u0129a","name_en":"Gia Nghia","full_name":"Th\u00e0nh ph\u1ed1 Gia Ngh\u0129a","full_name_en":"Gia Nghia City","unit_name":"Th\u00e0nh ph\u1ed1","unit_name_en":"City"},{"id":"477","province_id":"43","code":"661","name":"\u0110\u0103k Glong","name_en":"Dak Glong","full_name":"Huy\u1ec7n \u0110\u0103k Glong","full_name_en":"Dak Glong District","unit_name":"Huy\u1ec7n","unit_name_en":"District"},{"id":"478","province_id":"43","code":"662","name":"C\u01b0 J\u00fat","name_en":"Cu Jut","full_name":"Huy\u1ec7n C\u01b0 J\u00fat","full_name_en":"Cu Jut District","unit_name":"Huy\u1ec7n","unit_name_en":"District"},{"id":"479","province_id":"43","code":"663","name":"\u0110\u1eafk Mil","name_en":"Dak Mil","full_name":"Huy\u1ec7n \u0110\u1eafk Mil","full_name_en":"Dak Mil District","unit_name":"Huy\u1ec7n","unit_name_en":"District"},{"id":"480","province_id":"43","code":"664","name":"Kr\u00f4ng N\u00f4","name_en":"Krong No","full_name":"Huy\u1ec7n Kr\u00f4ng N\u00f4","full_name_en":"Krong No District","unit_name":"Huy\u1ec7n","unit_name_en":"District"},{"id":"481","province_id":"43","code":"665","name":"\u0110\u1eafk Song","name_en":"Dak Song","full_name":"Huy\u1ec7n \u0110\u1eafk Song","full_name_en":"Dak Song District","unit_name":"Huy\u1ec7n","unit_name_en":"District"},{"id":"482","province_id":"43","code":"666","name":"\u0110\u1eafk R'L\u1ea5p","name_en":"Dak R'Lap","full_name":"Huy\u1ec7n \u0110\u1eafk R'L\u1ea5p","full_name_en":"Dak R'Lap District","unit_name":"Huy\u1ec7n","unit_name_en":"District"},{"id":"483","province_id":"43","code":"667","name":"Tuy \u0110\u1ee9c","name_en":"Tuy Duc","full_name":"Huy\u1ec7n Tuy \u0110\u1ee9c","full_name_en":"Tuy Duc District","unit_name":"Huy\u1ec7n","unit_name_en":"District"},{"id":"484","province_id":"44","code":"672","name":"\u0110\u00e0 L\u1ea1t","name_en":"Da Lat","full_name":"Th\u00e0nh ph\u1ed1 \u0110\u00e0 L\u1ea1t","full_name_en":"Da Lat City","unit_name":"Th\u00e0nh ph\u1ed1","unit_name_en":"City"},{"id":"485","province_id":"44","code":"673","name":"B\u1ea3o L\u1ed9c","name_en":"Bao Loc","full_name":"Th\u00e0nh ph\u1ed1 B\u1ea3o L\u1ed9c","full_name_en":"Bao Loc City","unit_name":"Th\u00e0nh ph\u1ed1","unit_name_en":"City"},{"id":"486","province_id":"44","code":"674","name":"\u0110am R\u00f4ng","name_en":"Dam Rong","full_name":"Huy\u1ec7n \u0110am R\u00f4ng","full_name_en":"Dam Rong District","unit_name":"Huy\u1ec7n","unit_name_en":"District"},{"id":"487","province_id":"44","code":"675","name":"L\u1ea1c D\u01b0\u01a1ng","name_en":"Lac Duong","full_name":"Huy\u1ec7n L\u1ea1c D\u01b0\u01a1ng","full_name_en":"Lac Duong District","unit_name":"Huy\u1ec7n","unit_name_en":"District"},{"id":"488","province_id":"44","code":"676","name":"L\u00e2m H\u00e0","name_en":"Lam Ha","full_name":"Huy\u1ec7n L\u00e2m H\u00e0","full_name_en":"Lam Ha District","unit_name":"Huy\u1ec7n","unit_name_en":"District"},{"id":"489","province_id":"44","code":"677","name":"\u0110\u01a1n D\u01b0\u01a1ng","name_en":"Don Duong","full_name":"Huy\u1ec7n \u0110\u01a1n D\u01b0\u01a1ng","full_name_en":"Don Duong District","unit_name":"Huy\u1ec7n","unit_name_en":"District"},{"id":"490","province_id":"44","code":"678","name":"\u0110\u1ee9c Tr\u1ecdng","name_en":"Duc Trong","full_name":"Huy\u1ec7n \u0110\u1ee9c Tr\u1ecdng","full_name_en":"Duc Trong District","unit_name":"Huy\u1ec7n","unit_name_en":"District"},{"id":"491","province_id":"44","code":"679","name":"Di Linh","name_en":"Di Linh","full_name":"Huy\u1ec7n Di Linh","full_name_en":"Di Linh District","unit_name":"Huy\u1ec7n","unit_name_en":"District"},{"id":"492","province_id":"44","code":"680","name":"B\u1ea3o L\u00e2m","name_en":"Bao Lam","full_name":"Huy\u1ec7n B\u1ea3o L\u00e2m","full_name_en":"Bao Lam District","unit_name":"Huy\u1ec7n","unit_name_en":"District"},{"id":"493","province_id":"44","code":"682","name":"\u0110\u1ea1 T\u1ebbh","name_en":"Da Teh","full_name":"Huy\u1ec7n \u0110\u1ea1 T\u1ebbh","full_name_en":"Da Teh District","unit_name":"Huy\u1ec7n","unit_name_en":"District"},{"id":"494","province_id":"45","code":"688","name":"Ph\u01b0\u1edbc Long","name_en":"Phuoc Long","full_name":"Th\u1ecb x\u00e3 Ph\u01b0\u1edbc Long","full_name_en":"Phuoc Long Town","unit_name":"Th\u1ecb x\u00e3","unit_name_en":"Town"},{"id":"495","province_id":"45","code":"689","name":"\u0110\u1ed3ng Xo\u00e0i","name_en":"Dong Xoai","full_name":"Th\u00e0nh ph\u1ed1 \u0110\u1ed3ng Xo\u00e0i","full_name_en":"Dong Xoai City","unit_name":"Th\u00e0nh ph\u1ed1","unit_name_en":"City"},{"id":"496","province_id":"45","code":"690","name":"B\u00ecnh Long","name_en":"Binh Long","full_name":"Th\u1ecb x\u00e3 B\u00ecnh Long","full_name_en":"Binh Long Town","unit_name":"Th\u1ecb x\u00e3","unit_name_en":"Town"},{"id":"497","province_id":"45","code":"691","name":"B\u00f9 Gia M\u1eadp","name_en":"Bu Gia Map","full_name":"Huy\u1ec7n B\u00f9 Gia M\u1eadp","full_name_en":"Bu Gia Map District","unit_name":"Huy\u1ec7n","unit_name_en":"District"},{"id":"498","province_id":"45","code":"692","name":"L\u1ed9c Ninh","name_en":"Loc Ninh","full_name":"Huy\u1ec7n L\u1ed9c Ninh","full_name_en":"Loc Ninh District","unit_name":"Huy\u1ec7n","unit_name_en":"District"},{"id":"499","province_id":"45","code":"693","name":"B\u00f9 \u0110\u1ed1p","name_en":"Bu Dop","full_name":"Huy\u1ec7n B\u00f9 \u0110\u1ed1p","full_name_en":"Bu Dop District","unit_name":"Huy\u1ec7n","unit_name_en":"District"},{"id":"500","province_id":"45","code":"694","name":"H\u1edbn Qu\u1ea3n","name_en":"Hon Quan","full_name":"Huy\u1ec7n H\u1edbn Qu\u1ea3n","full_name_en":"Hon Quan District","unit_name":"Huy\u1ec7n","unit_name_en":"District"},{"id":"501","province_id":"45","code":"695","name":"\u0110\u1ed3ng Ph\u00fa","name_en":"Dong Phu","full_name":"Huy\u1ec7n \u0110\u1ed3ng Ph\u00fa","full_name_en":"Dong Phu District","unit_name":"Huy\u1ec7n","unit_name_en":"District"},{"id":"502","province_id":"45","code":"696","name":"B\u00f9 \u0110\u0103ng","name_en":"Bu Dang","full_name":"Huy\u1ec7n B\u00f9 \u0110\u0103ng","full_name_en":"Bu Dang District","unit_name":"Huy\u1ec7n","unit_name_en":"District"},{"id":"503","province_id":"45","code":"697","name":"Ch\u01a1n Th\u00e0nh","name_en":"Chon Thanh","full_name":"Th\u1ecb x\u00e3 Ch\u01a1n Th\u00e0nh","full_name_en":"Chon Thanh Town","unit_name":"Th\u1ecb x\u00e3","unit_name_en":"Town"},{"id":"504","province_id":"45","code":"698","name":"Ph\u00fa Ri\u1ec1ng","name_en":"Phu Rieng","full_name":"Huy\u1ec7n Ph\u00fa Ri\u1ec1ng","full_name_en":"Phu Rieng District","unit_name":"Huy\u1ec7n","unit_name_en":"District"},{"id":"505","province_id":"46","code":"703","name":"T\u00e2y Ninh","name_en":"Tay Ninh","full_name":"Th\u00e0nh ph\u1ed1 T\u00e2y Ninh","full_name_en":"Tay Ninh City","unit_name":"Th\u00e0nh ph\u1ed1","unit_name_en":"City"},{"id":"506","province_id":"46","code":"705","name":"T\u00e2n Bi\u00ean","name_en":"Tan Bien","full_name":"Huy\u1ec7n T\u00e2n Bi\u00ean","full_name_en":"Tan Bien District","unit_name":"Huy\u1ec7n","unit_name_en":"District"},{"id":"507","province_id":"46","code":"706","name":"T\u00e2n Ch\u00e2u","name_en":"Tan Chau","full_name":"Huy\u1ec7n T\u00e2n Ch\u00e2u","full_name_en":"Tan Chau District","unit_name":"Huy\u1ec7n","unit_name_en":"District"},{"id":"508","province_id":"46","code":"707","name":"D\u01b0\u01a1ng Minh Ch\u00e2u","name_en":"Duong Minh Chau","full_name":"Huy\u1ec7n D\u01b0\u01a1ng Minh Ch\u00e2u","full_name_en":"Duong Minh Chau District","unit_name":"Huy\u1ec7n","unit_name_en":"District"},{"id":"509","province_id":"46","code":"708","name":"Ch\u00e2u Th\u00e0nh","name_en":"Chau Thanh","full_name":"Huy\u1ec7n Ch\u00e2u Th\u00e0nh","full_name_en":"Chau Thanh District","unit_name":"Huy\u1ec7n","unit_name_en":"District"},{"id":"510","province_id":"46","code":"709","name":"H\u00f2a Th\u00e0nh","name_en":"Hoa Thanh","full_name":"Th\u1ecb x\u00e3 H\u00f2a Th\u00e0nh","full_name_en":"Hoa Thanh Town","unit_name":"Th\u1ecb x\u00e3","unit_name_en":"Town"},{"id":"511","province_id":"46","code":"710","name":"G\u00f2 D\u1ea7u","name_en":"Go Dau","full_name":"Huy\u1ec7n G\u00f2 D\u1ea7u","full_name_en":"Go Dau District","unit_name":"Huy\u1ec7n","unit_name_en":"District"},{"id":"512","province_id":"46","code":"711","name":"B\u1ebfn C\u1ea7u","name_en":"Ben Cau","full_name":"Huy\u1ec7n B\u1ebfn C\u1ea7u","full_name_en":"Ben Cau District","unit_name":"Huy\u1ec7n","unit_name_en":"District"},{"id":"513","province_id":"46","code":"712","name":"Tr\u1ea3ng B\u00e0ng","name_en":"Trang Bang","full_name":"Th\u1ecb x\u00e3 Tr\u1ea3ng B\u00e0ng","full_name_en":"Trang Bang Town","unit_name":"Th\u1ecb x\u00e3","unit_name_en":"Town"},{"id":"514","province_id":"47","code":"718","name":"Th\u1ee7 D\u1ea7u M\u1ed9t","name_en":"Thu Dau Mot","full_name":"Th\u00e0nh ph\u1ed1 Th\u1ee7 D\u1ea7u M\u1ed9t","full_name_en":"Thu Dau Mot City","unit_name":"Th\u00e0nh ph\u1ed1","unit_name_en":"City"},{"id":"515","province_id":"47","code":"719","name":"B\u00e0u B\u00e0ng","name_en":"Bau Bang","full_name":"Huy\u1ec7n B\u00e0u B\u00e0ng","full_name_en":"Bau Bang District","unit_name":"Huy\u1ec7n","unit_name_en":"District"},{"id":"516","province_id":"47","code":"720","name":"D\u1ea7u Ti\u1ebfng","name_en":"Dau Tieng","full_name":"Huy\u1ec7n D\u1ea7u Ti\u1ebfng","full_name_en":"Dau Tieng District","unit_name":"Huy\u1ec7n","unit_name_en":"District"},{"id":"517","province_id":"47","code":"721","name":"B\u1ebfn C\u00e1t","name_en":"Ben Cat","full_name":"Th\u00e0nh ph\u1ed1 B\u1ebfn C\u00e1t","full_name_en":"Ben Cat City","unit_name":"Th\u00e0nh ph\u1ed1","unit_name_en":"City"},{"id":"518","province_id":"47","code":"722","name":"Ph\u00fa Gi\u00e1o","name_en":"Phu Giao","full_name":"Huy\u1ec7n Ph\u00fa Gi\u00e1o","full_name_en":"Phu Giao District","unit_name":"Huy\u1ec7n","unit_name_en":"District"},{"id":"519","province_id":"47","code":"723","name":"T\u00e2n Uy\u00ean","name_en":"Tan Uyen","full_name":"Th\u00e0nh ph\u1ed1 T\u00e2n Uy\u00ean","full_name_en":"Tan Uyen City","unit_name":"Th\u00e0nh ph\u1ed1","unit_name_en":"City"},{"id":"520","province_id":"47","code":"724","name":"D\u0129 An","name_en":"Di An","full_name":"Th\u00e0nh ph\u1ed1 D\u0129 An","full_name_en":"Di An City","unit_name":"Th\u00e0nh ph\u1ed1","unit_name_en":"City"},{"id":"521","province_id":"47","code":"725","name":"Thu\u1eadn An","name_en":"Thuan An","full_name":"Th\u00e0nh ph\u1ed1 Thu\u1eadn An","full_name_en":"Thuan An City","unit_name":"Th\u00e0nh ph\u1ed1","unit_name_en":"City"},{"id":"522","province_id":"47","code":"726","name":"B\u1eafc T\u00e2n Uy\u00ean","name_en":"Bac Tan Uyen","full_name":"Huy\u1ec7n B\u1eafc T\u00e2n Uy\u00ean","full_name_en":"Bac Tan Uyen District","unit_name":"Huy\u1ec7n","unit_name_en":"District"},{"id":"523","province_id":"48","code":"731","name":"Bi\u00ean H\u00f2a","name_en":"Bien Hoa","full_name":"Th\u00e0nh ph\u1ed1 Bi\u00ean H\u00f2a","full_name_en":"Bien Hoa City","unit_name":"Th\u00e0nh ph\u1ed1","unit_name_en":"City"},{"id":"524","province_id":"48","code":"732","name":"Long Kh\u00e1nh","name_en":"Long Khanh","full_name":"Th\u00e0nh ph\u1ed1 Long Kh\u00e1nh","full_name_en":"Long Khanh City","unit_name":"Th\u00e0nh ph\u1ed1","unit_name_en":"City"},{"id":"525","province_id":"48","code":"734","name":"T\u00e2n Ph\u00fa","name_en":"Tan Phu","full_name":"Huy\u1ec7n T\u00e2n Ph\u00fa","full_name_en":"Tan Phu District","unit_name":"Huy\u1ec7n","unit_name_en":"District"},{"id":"526","province_id":"48","code":"735","name":"V\u0129nh C\u1eedu","name_en":"Vinh Cuu","full_name":"Huy\u1ec7n V\u0129nh C\u1eedu","full_name_en":"Vinh Cuu District","unit_name":"Huy\u1ec7n","unit_name_en":"District"},{"id":"527","province_id":"48","code":"736","name":"\u0110\u1ecbnh Qu\u00e1n","name_en":"Dinh Quan","full_name":"Huy\u1ec7n \u0110\u1ecbnh Qu\u00e1n","full_name_en":"Dinh Quan District","unit_name":"Huy\u1ec7n","unit_name_en":"District"},{"id":"528","province_id":"48","code":"737","name":"Tr\u1ea3ng Bom","name_en":"Trang Bom","full_name":"Huy\u1ec7n Tr\u1ea3ng Bom","full_name_en":"Trang Bom District","unit_name":"Huy\u1ec7n","unit_name_en":"District"},{"id":"529","province_id":"48","code":"738","name":"Th\u1ed1ng Nh\u1ea5t","name_en":"Thong Nhat","full_name":"Huy\u1ec7n Th\u1ed1ng Nh\u1ea5t","full_name_en":"Thong Nhat District","unit_name":"Huy\u1ec7n","unit_name_en":"District"},{"id":"530","province_id":"48","code":"739","name":"C\u1ea9m M\u1ef9","name_en":"Cam My","full_name":"Huy\u1ec7n C\u1ea9m M\u1ef9","full_name_en":"Cam My District","unit_name":"Huy\u1ec7n","unit_name_en":"District"},{"id":"531","province_id":"48","code":"740","name":"Long Th\u00e0nh","name_en":"Long Thanh","full_name":"Huy\u1ec7n Long Th\u00e0nh","full_name_en":"Long Thanh District","unit_name":"Huy\u1ec7n","unit_name_en":"District"},{"id":"532","province_id":"48","code":"741","name":"Xu\u00e2n L\u1ed9c","name_en":"Xuan Loc","full_name":"Huy\u1ec7n Xu\u00e2n L\u1ed9c","full_name_en":"Xuan Loc District","unit_name":"Huy\u1ec7n","unit_name_en":"District"},{"id":"533","province_id":"48","code":"742","name":"Nh\u01a1n Tr\u1ea1ch","name_en":"Nhon Trach","full_name":"Huy\u1ec7n Nh\u01a1n Tr\u1ea1ch","full_name_en":"Nhon Trach District","unit_name":"Huy\u1ec7n","unit_name_en":"District"},{"id":"534","province_id":"49","code":"747","name":"V\u0169ng T\u00e0u","name_en":"Vung Tau","full_name":"Th\u00e0nh ph\u1ed1 V\u0169ng T\u00e0u","full_name_en":"Vung Tau City","unit_name":"Th\u00e0nh ph\u1ed1","unit_name_en":"City"},{"id":"535","province_id":"49","code":"748","name":"B\u00e0 R\u1ecba","name_en":"Ba Ria","full_name":"Th\u00e0nh ph\u1ed1 B\u00e0 R\u1ecba","full_name_en":"Ba Ria City","unit_name":"Th\u00e0nh ph\u1ed1","unit_name_en":"City"},{"id":"536","province_id":"49","code":"750","name":"Ch\u00e2u \u0110\u1ee9c","name_en":"Chau Duc","full_name":"Huy\u1ec7n Ch\u00e2u \u0110\u1ee9c","full_name_en":"Chau Duc District","unit_name":"Huy\u1ec7n","unit_name_en":"District"},{"id":"537","province_id":"49","code":"751","name":"Xuy\u00ean M\u1ed9c","name_en":"Xuyen Moc","full_name":"Huy\u1ec7n Xuy\u00ean M\u1ed9c","full_name_en":"Xuyen Moc District","unit_name":"Huy\u1ec7n","unit_name_en":"District"},{"id":"538","province_id":"49","code":"753","name":"Long \u0110\u1ea5t","name_en":"Long Dat","full_name":"Huy\u1ec7n Long \u0110\u1ea5t","full_name_en":"Long Dat District","unit_name":"Huy\u1ec7n","unit_name_en":"District"},{"id":"539","province_id":"49","code":"754","name":"Ph\u00fa M\u1ef9","name_en":"Phu My","full_name":"Th\u00e0nh ph\u1ed1 Ph\u00fa M\u1ef9","full_name_en":"Phu My City","unit_name":"Th\u00e0nh ph\u1ed1","unit_name_en":"City"},{"id":"540","province_id":"49","code":"755","name":"C\u00f4n \u0110\u1ea3o","name_en":"Con Dao","full_name":"Huy\u1ec7n C\u00f4n \u0110\u1ea3o","full_name_en":"Con Dao District","unit_name":"Huy\u1ec7n","unit_name_en":"District"},{"id":"541","province_id":"50","code":"760","name":"1","name_en":"1","full_name":"Qu\u1eadn 1","full_name_en":"District 1","unit_name":"Qu\u1eadn","unit_name_en":"District"},{"id":"542","province_id":"50","code":"761","name":"12","name_en":"12","full_name":"Qu\u1eadn 12","full_name_en":"District 12","unit_name":"Qu\u1eadn","unit_name_en":"District"},{"id":"543","province_id":"50","code":"764","name":"G\u00f2 V\u1ea5p","name_en":"Go Vap","full_name":"Qu\u1eadn G\u00f2 V\u1ea5p","full_name_en":"Go Vap District","unit_name":"Qu\u1eadn","unit_name_en":"District"},{"id":"544","province_id":"50","code":"765","name":"B\u00ecnh Th\u1ea1nh","name_en":"Binh Thanh","full_name":"Qu\u1eadn B\u00ecnh Th\u1ea1nh","full_name_en":"Binh Thanh District","unit_name":"Qu\u1eadn","unit_name_en":"District"},{"id":"545","province_id":"50","code":"766","name":"T\u00e2n B\u00ecnh","name_en":"Tan Binh","full_name":"Qu\u1eadn T\u00e2n B\u00ecnh","full_name_en":"Tan Binh District","unit_name":"Qu\u1eadn","unit_name_en":"District"},{"id":"546","province_id":"50","code":"767","name":"T\u00e2n Ph\u00fa","name_en":"Tan Phu","full_name":"Qu\u1eadn T\u00e2n Ph\u00fa","full_name_en":"Tan Phu District","unit_name":"Qu\u1eadn","unit_name_en":"District"},{"id":"547","province_id":"50","code":"768","name":"Ph\u00fa Nhu\u1eadn","name_en":"Phu Nhuan","full_name":"Qu\u1eadn Ph\u00fa Nhu\u1eadn","full_name_en":"Phu Nhuan District","unit_name":"Qu\u1eadn","unit_name_en":"District"},{"id":"548","province_id":"50","code":"769","name":"Th\u1ee7 \u0110\u1ee9c","name_en":"Thu Duc","full_name":"Th\u00e0nh ph\u1ed1 Th\u1ee7 \u0110\u1ee9c","full_name_en":"Thu Duc City","unit_name":"Th\u00e0nh ph\u1ed1","unit_name_en":"City"},{"id":"549","province_id":"50","code":"770","name":"3","name_en":"3","full_name":"Qu\u1eadn 3","full_name_en":"District 3","unit_name":"Qu\u1eadn","unit_name_en":"District"},{"id":"550","province_id":"50","code":"771","name":"10","name_en":"10","full_name":"Qu\u1eadn 10","full_name_en":"District 10","unit_name":"Qu\u1eadn","unit_name_en":"District"},{"id":"551","province_id":"50","code":"772","name":"11","name_en":"11","full_name":"Qu\u1eadn 11","full_name_en":"District 11","unit_name":"Qu\u1eadn","unit_name_en":"District"},{"id":"552","province_id":"50","code":"773","name":"4","name_en":"4","full_name":"Qu\u1eadn 4","full_name_en":"District 4","unit_name":"Qu\u1eadn","unit_name_en":"District"},{"id":"553","province_id":"50","code":"774","name":"5","name_en":"5","full_name":"Qu\u1eadn 5","full_name_en":"District 5","unit_name":"Qu\u1eadn","unit_name_en":"District"},{"id":"554","province_id":"50","code":"775","name":"6","name_en":"6","full_name":"Qu\u1eadn 6","full_name_en":"District 6","unit_name":"Qu\u1eadn","unit_name_en":"District"},{"id":"555","province_id":"50","code":"776","name":"8","name_en":"8","full_name":"Qu\u1eadn 8","full_name_en":"District 8","unit_name":"Qu\u1eadn","unit_name_en":"District"},{"id":"556","province_id":"50","code":"777","name":"B\u00ecnh T\u00e2n","name_en":"Binh Tan","full_name":"Qu\u1eadn B\u00ecnh T\u00e2n","full_name_en":"Binh Tan District","unit_name":"Qu\u1eadn","unit_name_en":"District"},{"id":"557","province_id":"50","code":"778","name":"7","name_en":"7","full_name":"Qu\u1eadn 7","full_name_en":"District 7","unit_name":"Qu\u1eadn","unit_name_en":"District"},{"id":"558","province_id":"50","code":"783","name":"C\u1ee7 Chi","name_en":"Cu Chi","full_name":"Huy\u1ec7n C\u1ee7 Chi","full_name_en":"Cu Chi District","unit_name":"Huy\u1ec7n","unit_name_en":"District"},{"id":"559","province_id":"50","code":"784","name":"H\u00f3c M\u00f4n","name_en":"Hoc Mon","full_name":"Huy\u1ec7n H\u00f3c M\u00f4n","full_name_en":"Hoc Mon District","unit_name":"Huy\u1ec7n","unit_name_en":"District"},{"id":"560","province_id":"50","code":"785","name":"B\u00ecnh Ch\u00e1nh","name_en":"Binh Chanh","full_name":"Huy\u1ec7n B\u00ecnh Ch\u00e1nh","full_name_en":"Binh Chanh District","unit_name":"Huy\u1ec7n","unit_name_en":"District"},{"id":"561","province_id":"50","code":"786","name":"Nh\u00e0 B\u00e8","name_en":"Nha Be","full_name":"Huy\u1ec7n Nh\u00e0 B\u00e8","full_name_en":"Nha Be District","unit_name":"Huy\u1ec7n","unit_name_en":"District"},{"id":"562","province_id":"50","code":"787","name":"C\u1ea7n Gi\u1edd","name_en":"Can Gio","full_name":"Huy\u1ec7n C\u1ea7n Gi\u1edd","full_name_en":"Can Gio District","unit_name":"Huy\u1ec7n","unit_name_en":"District"},{"id":"563","province_id":"51","code":"794","name":"T\u00e2n An","name_en":"Tan An","full_name":"Th\u00e0nh ph\u1ed1 T\u00e2n An","full_name_en":"Tan An City","unit_name":"Th\u00e0nh ph\u1ed1","unit_name_en":"City"},{"id":"564","province_id":"51","code":"795","name":"Ki\u1ebfn T\u01b0\u1eddng","name_en":"Kien Tuong","full_name":"Th\u1ecb x\u00e3 Ki\u1ebfn T\u01b0\u1eddng","full_name_en":"Kien Tuong Town","unit_name":"Th\u1ecb x\u00e3","unit_name_en":"Town"},{"id":"565","province_id":"51","code":"796","name":"T\u00e2n H\u01b0ng","name_en":"Tan Hung","full_name":"Huy\u1ec7n T\u00e2n H\u01b0ng","full_name_en":"Tan Hung District","unit_name":"Huy\u1ec7n","unit_name_en":"District"},{"id":"566","province_id":"51","code":"797","name":"V\u0129nh H\u01b0ng","name_en":"Vinh Hung","full_name":"Huy\u1ec7n V\u0129nh H\u01b0ng","full_name_en":"Vinh Hung District","unit_name":"Huy\u1ec7n","unit_name_en":"District"},{"id":"567","province_id":"51","code":"798","name":"M\u1ed9c H\u00f3a","name_en":"Moc Hoa","full_name":"Huy\u1ec7n M\u1ed9c H\u00f3a","full_name_en":"Moc Hoa District","unit_name":"Huy\u1ec7n","unit_name_en":"District"},{"id":"568","province_id":"51","code":"799","name":"T\u00e2n Th\u1ea1nh","name_en":"Tan Thanh","full_name":"Huy\u1ec7n T\u00e2n Th\u1ea1nh","full_name_en":"Tan Thanh District","unit_name":"Huy\u1ec7n","unit_name_en":"District"},{"id":"569","province_id":"51","code":"800","name":"Th\u1ea1nh H\u00f3a","name_en":"Thanh Hoa","full_name":"Huy\u1ec7n Th\u1ea1nh H\u00f3a","full_name_en":"Thanh Hoa District","unit_name":"Huy\u1ec7n","unit_name_en":"District"},{"id":"570","province_id":"51","code":"801","name":"\u0110\u1ee9c Hu\u1ec7","name_en":"Duc Hue","full_name":"Huy\u1ec7n \u0110\u1ee9c Hu\u1ec7","full_name_en":"Duc Hue District","unit_name":"Huy\u1ec7n","unit_name_en":"District"},{"id":"571","province_id":"51","code":"802","name":"\u0110\u1ee9c H\u00f2a","name_en":"Duc Hoa","full_name":"Huy\u1ec7n \u0110\u1ee9c H\u00f2a","full_name_en":"Duc Hoa District","unit_name":"Huy\u1ec7n","unit_name_en":"District"},{"id":"572","province_id":"51","code":"803","name":"B\u1ebfn L\u1ee9c","name_en":"Ben Luc","full_name":"Huy\u1ec7n B\u1ebfn L\u1ee9c","full_name_en":"Ben Luc District","unit_name":"Huy\u1ec7n","unit_name_en":"District"},{"id":"573","province_id":"51","code":"804","name":"Th\u1ee7 Th\u1eeba","name_en":"Thu Thua","full_name":"Huy\u1ec7n Th\u1ee7 Th\u1eeba","full_name_en":"Thu Thua District","unit_name":"Huy\u1ec7n","unit_name_en":"District"},{"id":"574","province_id":"51","code":"805","name":"T\u00e2n Tr\u1ee5","name_en":"Tan Tru","full_name":"Huy\u1ec7n T\u00e2n Tr\u1ee5","full_name_en":"Tan Tru District","unit_name":"Huy\u1ec7n","unit_name_en":"District"},{"id":"575","province_id":"51","code":"806","name":"C\u1ea7n \u0110\u01b0\u1edbc","name_en":"Can Duoc","full_name":"Huy\u1ec7n C\u1ea7n \u0110\u01b0\u1edbc","full_name_en":"Can Duoc District","unit_name":"Huy\u1ec7n","unit_name_en":"District"},{"id":"576","province_id":"51","code":"807","name":"C\u1ea7n Giu\u1ed9c","name_en":"Can Giuoc","full_name":"Huy\u1ec7n C\u1ea7n Giu\u1ed9c","full_name_en":"Can Giuoc District","unit_name":"Huy\u1ec7n","unit_name_en":"District"},{"id":"577","province_id":"51","code":"808","name":"Ch\u00e2u Th\u00e0nh","name_en":"Chau Thanh","full_name":"Huy\u1ec7n Ch\u00e2u Th\u00e0nh","full_name_en":"Chau Thanh District","unit_name":"Huy\u1ec7n","unit_name_en":"District"},{"id":"578","province_id":"52","code":"815","name":"M\u1ef9 Tho","name_en":"My Tho","full_name":"Th\u00e0nh ph\u1ed1 M\u1ef9 Tho","full_name_en":"My Tho City","unit_name":"Th\u00e0nh ph\u1ed1","unit_name_en":"City"},{"id":"579","province_id":"52","code":"816","name":"G\u00f2 C\u00f4ng","name_en":"Go Cong","full_name":"Th\u00e0nh ph\u1ed1 G\u00f2 C\u00f4ng","full_name_en":"Go Cong City","unit_name":"Th\u00e0nh ph\u1ed1","unit_name_en":"City"},{"id":"580","province_id":"52","code":"817","name":"Cai L\u1eady","name_en":"Cai Lay","full_name":"Th\u1ecb x\u00e3 Cai L\u1eady","full_name_en":"Cai Lay Town","unit_name":"Th\u1ecb x\u00e3","unit_name_en":"Town"},{"id":"581","province_id":"52","code":"818","name":"T\u00e2n Ph\u01b0\u1edbc","name_en":"Tan Phuoc","full_name":"Huy\u1ec7n T\u00e2n Ph\u01b0\u1edbc","full_name_en":"Tan Phuoc District","unit_name":"Huy\u1ec7n","unit_name_en":"District"},{"id":"582","province_id":"52","code":"819","name":"C\u00e1i B\u00e8","name_en":"Cai Be","full_name":"Huy\u1ec7n C\u00e1i B\u00e8","full_name_en":"Cai Be District","unit_name":"Huy\u1ec7n","unit_name_en":"District"},{"id":"583","province_id":"52","code":"820","name":"Cai L\u1eady","name_en":"Cai Lay","full_name":"Huy\u1ec7n Cai L\u1eady","full_name_en":"Cai Lay District","unit_name":"Huy\u1ec7n","unit_name_en":"District"},{"id":"584","province_id":"52","code":"821","name":"Ch\u00e2u Th\u00e0nh","name_en":"Chau Thanh","full_name":"Huy\u1ec7n Ch\u00e2u Th\u00e0nh","full_name_en":"Chau Thanh District","unit_name":"Huy\u1ec7n","unit_name_en":"District"},{"id":"585","province_id":"52","code":"822","name":"Ch\u1ee3 G\u1ea1o","name_en":"Cho Gao","full_name":"Huy\u1ec7n Ch\u1ee3 G\u1ea1o","full_name_en":"Cho Gao District","unit_name":"Huy\u1ec7n","unit_name_en":"District"},{"id":"586","province_id":"52","code":"823","name":"G\u00f2 C\u00f4ng T\u00e2y","name_en":"Go Cong Tay","full_name":"Huy\u1ec7n G\u00f2 C\u00f4ng T\u00e2y","full_name_en":"Go Cong Tay District","unit_name":"Huy\u1ec7n","unit_name_en":"District"},{"id":"587","province_id":"52","code":"824","name":"G\u00f2 C\u00f4ng \u0110\u00f4ng","name_en":"Go Cong Dong","full_name":"Huy\u1ec7n G\u00f2 C\u00f4ng \u0110\u00f4ng","full_name_en":"Go Cong Dong District","unit_name":"Huy\u1ec7n","unit_name_en":"District"},{"id":"588","province_id":"52","code":"825","name":"T\u00e2n Ph\u00fa \u0110\u00f4ng","name_en":"Tan Phu Dong","full_name":"Huy\u1ec7n T\u00e2n Ph\u00fa \u0110\u00f4ng","full_name_en":"Tan Phu Dong District","unit_name":"Huy\u1ec7n","unit_name_en":"District"},{"id":"589","province_id":"53","code":"829","name":"B\u1ebfn Tre","name_en":"Ben Tre","full_name":"Th\u00e0nh ph\u1ed1 B\u1ebfn Tre","full_name_en":"Ben Tre City","unit_name":"Th\u00e0nh ph\u1ed1","unit_name_en":"City"},{"id":"590","province_id":"53","code":"831","name":"Ch\u00e2u Th\u00e0nh","name_en":"Chau Thanh","full_name":"Huy\u1ec7n Ch\u00e2u Th\u00e0nh","full_name_en":"Chau Thanh District","unit_name":"Huy\u1ec7n","unit_name_en":"District"},{"id":"591","province_id":"53","code":"832","name":"Ch\u1ee3 L\u00e1ch","name_en":"Cho Lach","full_name":"Huy\u1ec7n Ch\u1ee3 L\u00e1ch","full_name_en":"Cho Lach District","unit_name":"Huy\u1ec7n","unit_name_en":"District"},{"id":"592","province_id":"53","code":"833","name":"M\u1ecf C\u00e0y Nam","name_en":"Mo Cay Nam","full_name":"Huy\u1ec7n M\u1ecf C\u00e0y Nam","full_name_en":"Mo Cay Nam District","unit_name":"Huy\u1ec7n","unit_name_en":"District"},{"id":"593","province_id":"53","code":"834","name":"Gi\u1ed3ng Tr\u00f4m","name_en":"Giong Trom","full_name":"Huy\u1ec7n Gi\u1ed3ng Tr\u00f4m","full_name_en":"Giong Trom District","unit_name":"Huy\u1ec7n","unit_name_en":"District"},{"id":"594","province_id":"53","code":"835","name":"B\u00ecnh \u0110\u1ea1i","name_en":"Binh Dai","full_name":"Huy\u1ec7n B\u00ecnh \u0110\u1ea1i","full_name_en":"Binh Dai District","unit_name":"Huy\u1ec7n","unit_name_en":"District"},{"id":"595","province_id":"53","code":"836","name":"Ba Tri","name_en":"Ba Tri","full_name":"Huy\u1ec7n Ba Tri","full_name_en":"Ba Tri District","unit_name":"Huy\u1ec7n","unit_name_en":"District"},{"id":"596","province_id":"53","code":"837","name":"Th\u1ea1nh Ph\u00fa","name_en":"Thanh Phu","full_name":"Huy\u1ec7n Th\u1ea1nh Ph\u00fa","full_name_en":"Thanh Phu District","unit_name":"Huy\u1ec7n","unit_name_en":"District"},{"id":"597","province_id":"53","code":"838","name":"M\u1ecf C\u00e0y B\u1eafc","name_en":"Mo Cay Bac","full_name":"Huy\u1ec7n M\u1ecf C\u00e0y B\u1eafc","full_name_en":"Mo Cay Bac District","unit_name":"Huy\u1ec7n","unit_name_en":"District"},{"id":"598","province_id":"54","code":"842","name":"Tr\u00e0 Vinh","name_en":"Tra Vinh","full_name":"Th\u00e0nh ph\u1ed1 Tr\u00e0 Vinh","full_name_en":"Tra Vinh City","unit_name":"Th\u00e0nh ph\u1ed1","unit_name_en":"City"},{"id":"599","province_id":"54","code":"844","name":"C\u00e0ng Long","name_en":"Cang Long","full_name":"Huy\u1ec7n C\u00e0ng Long","full_name_en":"Cang Long District","unit_name":"Huy\u1ec7n","unit_name_en":"District"},{"id":"600","province_id":"54","code":"845","name":"C\u1ea7u K\u00e8","name_en":"Cau Ke","full_name":"Huy\u1ec7n C\u1ea7u K\u00e8","full_name_en":"Cau Ke District","unit_name":"Huy\u1ec7n","unit_name_en":"District"},{"id":"601","province_id":"54","code":"846","name":"Ti\u1ec3u C\u1ea7n","name_en":"Tieu Can","full_name":"Huy\u1ec7n Ti\u1ec3u C\u1ea7n","full_name_en":"Tieu Can District","unit_name":"Huy\u1ec7n","unit_name_en":"District"},{"id":"602","province_id":"54","code":"847","name":"Ch\u00e2u Th\u00e0nh","name_en":"Chau Thanh","full_name":"Huy\u1ec7n Ch\u00e2u Th\u00e0nh","full_name_en":"Chau Thanh District","unit_name":"Huy\u1ec7n","unit_name_en":"District"},{"id":"603","province_id":"54","code":"848","name":"C\u1ea7u Ngang","name_en":"Cau Ngang","full_name":"Huy\u1ec7n C\u1ea7u Ngang","full_name_en":"Cau Ngang District","unit_name":"Huy\u1ec7n","unit_name_en":"District"},{"id":"604","province_id":"54","code":"849","name":"Tr\u00e0 C\u00fa","name_en":"Tra Cu","full_name":"Huy\u1ec7n Tr\u00e0 C\u00fa","full_name_en":"Tra Cu District","unit_name":"Huy\u1ec7n","unit_name_en":"District"},{"id":"605","province_id":"54","code":"850","name":"Duy\u00ean H\u1ea3i","name_en":"Duyen Hai","full_name":"Huy\u1ec7n Duy\u00ean H\u1ea3i","full_name_en":"Duyen Hai District","unit_name":"Huy\u1ec7n","unit_name_en":"District"},{"id":"606","province_id":"54","code":"851","name":"Duy\u00ean H\u1ea3i","name_en":"Duyen Hai","full_name":"Th\u1ecb x\u00e3 Duy\u00ean H\u1ea3i","full_name_en":"Duyen Hai Town","unit_name":"Th\u1ecb x\u00e3","unit_name_en":"Town"},{"id":"607","province_id":"55","code":"855","name":"V\u0129nh Long","name_en":"Vinh Long","full_name":"Th\u00e0nh ph\u1ed1 V\u0129nh Long","full_name_en":"Vinh Long City","unit_name":"Th\u00e0nh ph\u1ed1","unit_name_en":"City"},{"id":"608","province_id":"55","code":"857","name":"Long H\u1ed3","name_en":"Long Ho","full_name":"Huy\u1ec7n Long H\u1ed3","full_name_en":"Long Ho District","unit_name":"Huy\u1ec7n","unit_name_en":"District"},{"id":"609","province_id":"55","code":"858","name":"Mang Th\u00edt","name_en":"Mang Thit","full_name":"Huy\u1ec7n Mang Th\u00edt","full_name_en":"Mang Thit District","unit_name":"Huy\u1ec7n","unit_name_en":"District"},{"id":"610","province_id":"55","code":"859","name":"V\u0169ng Li\u00eam","name_en":"Vung Liem","full_name":"Huy\u1ec7n V\u0169ng Li\u00eam","full_name_en":"Vung Liem District","unit_name":"Huy\u1ec7n","unit_name_en":"District"},{"id":"611","province_id":"55","code":"860","name":"Tam B\u00ecnh","name_en":"Tam Binh","full_name":"Huy\u1ec7n Tam B\u00ecnh","full_name_en":"Tam Binh District","unit_name":"Huy\u1ec7n","unit_name_en":"District"},{"id":"612","province_id":"55","code":"861","name":"B\u00ecnh Minh","name_en":"Binh Minh","full_name":"Th\u1ecb x\u00e3 B\u00ecnh Minh","full_name_en":"Binh Minh Town","unit_name":"Th\u1ecb x\u00e3","unit_name_en":"Town"},{"id":"613","province_id":"55","code":"862","name":"Tr\u00e0 \u00d4n","name_en":"Tra On","full_name":"Huy\u1ec7n Tr\u00e0 \u00d4n","full_name_en":"Tra On District","unit_name":"Huy\u1ec7n","unit_name_en":"District"},{"id":"614","province_id":"55","code":"863","name":"B\u00ecnh T\u00e2n","name_en":"Binh Tan","full_name":"Huy\u1ec7n B\u00ecnh T\u00e2n","full_name_en":"Binh Tan District","unit_name":"Huy\u1ec7n","unit_name_en":"District"},{"id":"615","province_id":"56","code":"866","name":"Cao L\u00e3nh","name_en":"Cao Lanh","full_name":"Th\u00e0nh ph\u1ed1 Cao L\u00e3nh","full_name_en":"Cao Lanh City","unit_name":"Th\u00e0nh ph\u1ed1","unit_name_en":"City"},{"id":"616","province_id":"56","code":"867","name":"Sa \u0110\u00e9c","name_en":"Sa Dec","full_name":"Th\u00e0nh ph\u1ed1 Sa \u0110\u00e9c","full_name_en":"Sa Dec City","unit_name":"Th\u00e0nh ph\u1ed1","unit_name_en":"City"},{"id":"617","province_id":"56","code":"868","name":"H\u1ed3ng Ng\u1ef1","name_en":"Hong Ngu","full_name":"Th\u00e0nh ph\u1ed1 H\u1ed3ng Ng\u1ef1","full_name_en":"Hong Ngu City","unit_name":"Th\u00e0nh ph\u1ed1","unit_name_en":"City"},{"id":"618","province_id":"56","code":"869","name":"T\u00e2n H\u1ed3ng","name_en":"Tan Hong","full_name":"Huy\u1ec7n T\u00e2n H\u1ed3ng","full_name_en":"Tan Hong District","unit_name":"Huy\u1ec7n","unit_name_en":"District"},{"id":"619","province_id":"56","code":"870","name":"H\u1ed3ng Ng\u1ef1","name_en":"Hong Ngu","full_name":"Huy\u1ec7n H\u1ed3ng Ng\u1ef1","full_name_en":"Hong Ngu District","unit_name":"Huy\u1ec7n","unit_name_en":"District"},{"id":"620","province_id":"56","code":"871","name":"Tam N\u00f4ng","name_en":"Tam Nong","full_name":"Huy\u1ec7n Tam N\u00f4ng","full_name_en":"Tam Nong District","unit_name":"Huy\u1ec7n","unit_name_en":"District"},{"id":"621","province_id":"56","code":"872","name":"Th\u00e1p M\u01b0\u1eddi","name_en":"Thap Muoi","full_name":"Huy\u1ec7n Th\u00e1p M\u01b0\u1eddi","full_name_en":"Thap Muoi District","unit_name":"Huy\u1ec7n","unit_name_en":"District"},{"id":"622","province_id":"56","code":"873","name":"Cao L\u00e3nh","name_en":"Cao Lanh","full_name":"Huy\u1ec7n Cao L\u00e3nh","full_name_en":"Cao Lanh District","unit_name":"Huy\u1ec7n","unit_name_en":"District"},{"id":"623","province_id":"56","code":"874","name":"Thanh B\u00ecnh","name_en":"Thanh Binh","full_name":"Huy\u1ec7n Thanh B\u00ecnh","full_name_en":"Thanh Binh District","unit_name":"Huy\u1ec7n","unit_name_en":"District"},{"id":"624","province_id":"56","code":"875","name":"L\u1ea5p V\u00f2","name_en":"Lap Vo","full_name":"Huy\u1ec7n L\u1ea5p V\u00f2","full_name_en":"Lap Vo District","unit_name":"Huy\u1ec7n","unit_name_en":"District"},{"id":"625","province_id":"56","code":"876","name":"Lai Vung","name_en":"Lai Vung","full_name":"Huy\u1ec7n Lai Vung","full_name_en":"Lai Vung District","unit_name":"Huy\u1ec7n","unit_name_en":"District"},{"id":"626","province_id":"56","code":"877","name":"Ch\u00e2u Th\u00e0nh","name_en":"Chau Thanh","full_name":"Huy\u1ec7n Ch\u00e2u Th\u00e0nh","full_name_en":"Chau Thanh District","unit_name":"Huy\u1ec7n","unit_name_en":"District"},{"id":"627","province_id":"57","code":"883","name":"Long Xuy\u00ean","name_en":"Long Xuyen","full_name":"Th\u00e0nh ph\u1ed1 Long Xuy\u00ean","full_name_en":"Long Xuyen City","unit_name":"Th\u00e0nh ph\u1ed1","unit_name_en":"City"},{"id":"628","province_id":"57","code":"884","name":"Ch\u00e2u \u0110\u1ed1c","name_en":"Chau Doc","full_name":"Th\u00e0nh ph\u1ed1 Ch\u00e2u \u0110\u1ed1c","full_name_en":"Chau Doc City","unit_name":"Th\u00e0nh ph\u1ed1","unit_name_en":"City"},{"id":"629","province_id":"57","code":"886","name":"An Ph\u00fa","name_en":"An Phu","full_name":"Huy\u1ec7n An Ph\u00fa","full_name_en":"An Phu District","unit_name":"Huy\u1ec7n","unit_name_en":"District"},{"id":"630","province_id":"57","code":"887","name":"T\u00e2n Ch\u00e2u","name_en":"Tan Chau","full_name":"Th\u1ecb x\u00e3 T\u00e2n Ch\u00e2u","full_name_en":"Tan Chau Town","unit_name":"Th\u1ecb x\u00e3","unit_name_en":"Town"},{"id":"631","province_id":"57","code":"888","name":"Ph\u00fa T\u00e2n","name_en":"Phu Tan","full_name":"Huy\u1ec7n Ph\u00fa T\u00e2n","full_name_en":"Phu Tan District","unit_name":"Huy\u1ec7n","unit_name_en":"District"},{"id":"632","province_id":"57","code":"889","name":"Ch\u00e2u Ph\u00fa","name_en":"Chau Phu","full_name":"Huy\u1ec7n Ch\u00e2u Ph\u00fa","full_name_en":"Chau Phu District","unit_name":"Huy\u1ec7n","unit_name_en":"District"},{"id":"633","province_id":"57","code":"890","name":"T\u1ecbnh Bi\u00ean","name_en":"Tinh Bien","full_name":"Th\u1ecb x\u00e3 T\u1ecbnh Bi\u00ean","full_name_en":"Tinh Bien Town","unit_name":"Th\u1ecb x\u00e3","unit_name_en":"Town"},{"id":"634","province_id":"57","code":"891","name":"Tri T\u00f4n","name_en":"Tri Ton","full_name":"Huy\u1ec7n Tri T\u00f4n","full_name_en":"Tri Ton District","unit_name":"Huy\u1ec7n","unit_name_en":"District"},{"id":"635","province_id":"57","code":"892","name":"Ch\u00e2u Th\u00e0nh","name_en":"Chau Thanh","full_name":"Huy\u1ec7n Ch\u00e2u Th\u00e0nh","full_name_en":"Chau Thanh District","unit_name":"Huy\u1ec7n","unit_name_en":"District"},{"id":"636","province_id":"57","code":"893","name":"Ch\u1ee3 M\u1edbi","name_en":"Cho Moi","full_name":"Huy\u1ec7n Ch\u1ee3 M\u1edbi","full_name_en":"Cho Moi District","unit_name":"Huy\u1ec7n","unit_name_en":"District"},{"id":"637","province_id":"57","code":"894","name":"Tho\u1ea1i S\u01a1n","name_en":"Thoai Son","full_name":"Huy\u1ec7n Tho\u1ea1i S\u01a1n","full_name_en":"Thoai Son District","unit_name":"Huy\u1ec7n","unit_name_en":"District"},{"id":"638","province_id":"58","code":"899","name":"R\u1ea1ch Gi\u00e1","name_en":"Rach Gia","full_name":"Th\u00e0nh ph\u1ed1 R\u1ea1ch Gi\u00e1","full_name_en":"Rach Gia City","unit_name":"Th\u00e0nh ph\u1ed1","unit_name_en":"City"},{"id":"639","province_id":"58","code":"900","name":"H\u00e0 Ti\u00ean","name_en":"Ha Tien","full_name":"Th\u00e0nh ph\u1ed1 H\u00e0 Ti\u00ean","full_name_en":"Ha Tien City","unit_name":"Th\u00e0nh ph\u1ed1","unit_name_en":"City"},{"id":"640","province_id":"58","code":"902","name":"Ki\u00ean L\u01b0\u01a1ng","name_en":"Kien Luong","full_name":"Huy\u1ec7n Ki\u00ean L\u01b0\u01a1ng","full_name_en":"Kien Luong District","unit_name":"Huy\u1ec7n","unit_name_en":"District"},{"id":"641","province_id":"58","code":"903","name":"H\u00f2n \u0110\u1ea5t","name_en":"Hon Dat","full_name":"Huy\u1ec7n H\u00f2n \u0110\u1ea5t","full_name_en":"Hon Dat District","unit_name":"Huy\u1ec7n","unit_name_en":"District"},{"id":"642","province_id":"58","code":"904","name":"T\u00e2n Hi\u1ec7p","name_en":"Tan Hiep","full_name":"Huy\u1ec7n T\u00e2n Hi\u1ec7p","full_name_en":"Tan Hiep District","unit_name":"Huy\u1ec7n","unit_name_en":"District"},{"id":"643","province_id":"58","code":"905","name":"Ch\u00e2u Th\u00e0nh","name_en":"Chau Thanh","full_name":"Huy\u1ec7n Ch\u00e2u Th\u00e0nh","full_name_en":"Chau Thanh District","unit_name":"Huy\u1ec7n","unit_name_en":"District"},{"id":"644","province_id":"58","code":"906","name":"Gi\u1ed3ng Ri\u1ec1ng","name_en":"Giong Rieng","full_name":"Huy\u1ec7n Gi\u1ed3ng Ri\u1ec1ng","full_name_en":"Giong Rieng District","unit_name":"Huy\u1ec7n","unit_name_en":"District"},{"id":"645","province_id":"58","code":"907","name":"G\u00f2 Quao","name_en":"Go Quao","full_name":"Huy\u1ec7n G\u00f2 Quao","full_name_en":"Go Quao District","unit_name":"Huy\u1ec7n","unit_name_en":"District"},{"id":"646","province_id":"58","code":"908","name":"An Bi\u00ean","name_en":"An Bien","full_name":"Huy\u1ec7n An Bi\u00ean","full_name_en":"An Bien District","unit_name":"Huy\u1ec7n","unit_name_en":"District"},{"id":"647","province_id":"58","code":"909","name":"An Minh","name_en":"An Minh","full_name":"Huy\u1ec7n An Minh","full_name_en":"An Minh District","unit_name":"Huy\u1ec7n","unit_name_en":"District"},{"id":"648","province_id":"58","code":"910","name":"V\u0129nh Thu\u1eadn","name_en":"Vinh Thuan","full_name":"Huy\u1ec7n V\u0129nh Thu\u1eadn","full_name_en":"Vinh Thuan District","unit_name":"Huy\u1ec7n","unit_name_en":"District"},{"id":"649","province_id":"58","code":"911","name":"Ph\u00fa Qu\u1ed1c","name_en":"Phu Quoc","full_name":"Th\u00e0nh ph\u1ed1 Ph\u00fa Qu\u1ed1c","full_name_en":"Phu Quoc City","unit_name":"Th\u00e0nh ph\u1ed1","unit_name_en":"City"},{"id":"650","province_id":"58","code":"912","name":"Ki\u00ean H\u1ea3i","name_en":"Kien Hai","full_name":"Huy\u1ec7n Ki\u00ean H\u1ea3i","full_name_en":"Kien Hai District","unit_name":"Huy\u1ec7n","unit_name_en":"District"},{"id":"651","province_id":"58","code":"913","name":"U Minh Th\u01b0\u1ee3ng","name_en":"U Minh Thuong","full_name":"Huy\u1ec7n U Minh Th\u01b0\u1ee3ng","full_name_en":"U Minh Thuong District","unit_name":"Huy\u1ec7n","unit_name_en":"District"},{"id":"652","province_id":"58","code":"914","name":"Giang Th\u00e0nh","name_en":"Giang Thanh","full_name":"Huy\u1ec7n Giang Th\u00e0nh","full_name_en":"Giang Thanh District","unit_name":"Huy\u1ec7n","unit_name_en":"District"},{"id":"653","province_id":"59","code":"916","name":"Ninh Ki\u1ec1u","name_en":"Ninh Kieu","full_name":"Qu\u1eadn Ninh Ki\u1ec1u","full_name_en":"Ninh Kieu District","unit_name":"Qu\u1eadn","unit_name_en":"District"},{"id":"654","province_id":"59","code":"917","name":"\u00d4 M\u00f4n","name_en":"O Mon","full_name":"Qu\u1eadn \u00d4 M\u00f4n","full_name_en":"O Mon District","unit_name":"Qu\u1eadn","unit_name_en":"District"},{"id":"655","province_id":"59","code":"918","name":"B\u00ecnh Thu\u1ef7","name_en":"Binh Thuy","full_name":"Qu\u1eadn B\u00ecnh Thu\u1ef7","full_name_en":"Binh Thuy District","unit_name":"Qu\u1eadn","unit_name_en":"District"},{"id":"656","province_id":"59","code":"919","name":"C\u00e1i R\u0103ng","name_en":"Cai Rang","full_name":"Qu\u1eadn C\u00e1i R\u0103ng","full_name_en":"Cai Rang District","unit_name":"Qu\u1eadn","unit_name_en":"District"},{"id":"657","province_id":"59","code":"923","name":"Th\u1ed1t N\u1ed1t","name_en":"Thot Not","full_name":"Qu\u1eadn Th\u1ed1t N\u1ed1t","full_name_en":"Thot Not District","unit_name":"Qu\u1eadn","unit_name_en":"District"},{"id":"658","province_id":"59","code":"924","name":"V\u0129nh Th\u1ea1nh","name_en":"Vinh Thanh","full_name":"Huy\u1ec7n V\u0129nh Th\u1ea1nh","full_name_en":"Vinh Thanh District","unit_name":"Huy\u1ec7n","unit_name_en":"District"},{"id":"659","province_id":"59","code":"925","name":"C\u1edd \u0110\u1ecf","name_en":"Co Do","full_name":"Huy\u1ec7n C\u1edd \u0110\u1ecf","full_name_en":"Co Do District","unit_name":"Huy\u1ec7n","unit_name_en":"District"},{"id":"660","province_id":"59","code":"926","name":"Phong \u0110i\u1ec1n","name_en":"Phong Dien","full_name":"Huy\u1ec7n Phong \u0110i\u1ec1n","full_name_en":"Phong Dien District","unit_name":"Huy\u1ec7n","unit_name_en":"District"},{"id":"661","province_id":"59","code":"927","name":"Th\u1edbi Lai","name_en":"Thoi Lai","full_name":"Huy\u1ec7n Th\u1edbi Lai","full_name_en":"Thoi Lai District","unit_name":"Huy\u1ec7n","unit_name_en":"District"},{"id":"662","province_id":"60","code":"930","name":"V\u1ecb Thanh","name_en":"Vi Thanh","full_name":"Th\u00e0nh ph\u1ed1 V\u1ecb Thanh","full_name_en":"Vi Thanh City","unit_name":"Th\u00e0nh ph\u1ed1","unit_name_en":"City"},{"id":"663","province_id":"60","code":"931","name":"Ng\u00e3 B\u1ea3y","name_en":"Nga Bay","full_name":"Th\u00e0nh ph\u1ed1 Ng\u00e3 B\u1ea3y","full_name_en":"Nga Bay City","unit_name":"Th\u00e0nh ph\u1ed1","unit_name_en":"City"},{"id":"664","province_id":"60","code":"932","name":"Ch\u00e2u Th\u00e0nh A","name_en":"Chau Thanh A","full_name":"Huy\u1ec7n Ch\u00e2u Th\u00e0nh A","full_name_en":"Chau Thanh A District","unit_name":"Huy\u1ec7n","unit_name_en":"District"},{"id":"665","province_id":"60","code":"933","name":"Ch\u00e2u Th\u00e0nh","name_en":"Chau Thanh","full_name":"Huy\u1ec7n Ch\u00e2u Th\u00e0nh","full_name_en":"Chau Thanh District","unit_name":"Huy\u1ec7n","unit_name_en":"District"},{"id":"666","province_id":"60","code":"934","name":"Ph\u1ee5ng Hi\u1ec7p","name_en":"Phung Hiep","full_name":"Huy\u1ec7n Ph\u1ee5ng Hi\u1ec7p","full_name_en":"Phung Hiep District","unit_name":"Huy\u1ec7n","unit_name_en":"District"},{"id":"667","province_id":"60","code":"935","name":"V\u1ecb Thu\u1ef7","name_en":"Vi Thuy","full_name":"Huy\u1ec7n V\u1ecb Thu\u1ef7","full_name_en":"Vi Thuy District","unit_name":"Huy\u1ec7n","unit_name_en":"District"},{"id":"668","province_id":"60","code":"936","name":"Long M\u1ef9","name_en":"Long My","full_name":"Huy\u1ec7n Long M\u1ef9","full_name_en":"Long My District","unit_name":"Huy\u1ec7n","unit_name_en":"District"},{"id":"669","province_id":"60","code":"937","name":"Long M\u1ef9","name_en":"Long My","full_name":"Th\u1ecb x\u00e3 Long M\u1ef9","full_name_en":"Long My Town","unit_name":"Th\u1ecb x\u00e3","unit_name_en":"Town"},{"id":"670","province_id":"61","code":"941","name":"S\u00f3c Tr\u0103ng","name_en":"Soc Trang","full_name":"Th\u00e0nh ph\u1ed1 S\u00f3c Tr\u0103ng","full_name_en":"Soc Trang City","unit_name":"Th\u00e0nh ph\u1ed1","unit_name_en":"City"},{"id":"671","province_id":"61","code":"942","name":"Ch\u00e2u Th\u00e0nh","name_en":"Chau Thanh","full_name":"Huy\u1ec7n Ch\u00e2u Th\u00e0nh","full_name_en":"Chau Thanh District","unit_name":"Huy\u1ec7n","unit_name_en":"District"},{"id":"672","province_id":"61","code":"943","name":"K\u1ebf S\u00e1ch","name_en":"Ke Sach","full_name":"Huy\u1ec7n K\u1ebf S\u00e1ch","full_name_en":"Ke Sach District","unit_name":"Huy\u1ec7n","unit_name_en":"District"},{"id":"673","province_id":"61","code":"944","name":"M\u1ef9 T\u00fa","name_en":"My Tu","full_name":"Huy\u1ec7n M\u1ef9 T\u00fa","full_name_en":"My Tu District","unit_name":"Huy\u1ec7n","unit_name_en":"District"},{"id":"674","province_id":"61","code":"945","name":"C\u00f9 Lao Dung","name_en":"Cu Lao Dung","full_name":"Huy\u1ec7n C\u00f9 Lao Dung","full_name_en":"Cu Lao Dung District","unit_name":"Huy\u1ec7n","unit_name_en":"District"},{"id":"675","province_id":"61","code":"946","name":"Long Ph\u00fa","name_en":"Long Phu","full_name":"Huy\u1ec7n Long Ph\u00fa","full_name_en":"Long Phu District","unit_name":"Huy\u1ec7n","unit_name_en":"District"},{"id":"676","province_id":"61","code":"947","name":"M\u1ef9 Xuy\u00ean","name_en":"My Xuyen","full_name":"Huy\u1ec7n M\u1ef9 Xuy\u00ean","full_name_en":"My Xuyen District","unit_name":"Huy\u1ec7n","unit_name_en":"District"},{"id":"677","province_id":"61","code":"948","name":"Ng\u00e3 N\u0103m","name_en":"Nga Nam","full_name":"Th\u1ecb x\u00e3 Ng\u00e3 N\u0103m","full_name_en":"Nga Nam Town","unit_name":"Th\u1ecb x\u00e3","unit_name_en":"Town"},{"id":"678","province_id":"61","code":"949","name":"Th\u1ea1nh Tr\u1ecb","name_en":"Thanh Tri","full_name":"Huy\u1ec7n Th\u1ea1nh Tr\u1ecb","full_name_en":"Thanh Tri District","unit_name":"Huy\u1ec7n","unit_name_en":"District"},{"id":"679","province_id":"61","code":"950","name":"V\u0129nh Ch\u00e2u","name_en":"Vinh Chau","full_name":"Th\u1ecb x\u00e3 V\u0129nh Ch\u00e2u","full_name_en":"Vinh Chau Town","unit_name":"Th\u1ecb x\u00e3","unit_name_en":"Town"},{"id":"680","province_id":"61","code":"951","name":"Tr\u1ea7n \u0110\u1ec1","name_en":"Tran De","full_name":"Huy\u1ec7n Tr\u1ea7n \u0110\u1ec1","full_name_en":"Tran De District","unit_name":"Huy\u1ec7n","unit_name_en":"District"},{"id":"681","province_id":"62","code":"954","name":"B\u1ea1c Li\u00eau","name_en":"Bac Lieu","full_name":"Th\u00e0nh ph\u1ed1 B\u1ea1c Li\u00eau","full_name_en":"Bac Lieu City","unit_name":"Th\u00e0nh ph\u1ed1","unit_name_en":"City"},{"id":"682","province_id":"62","code":"956","name":"H\u1ed3ng D\u00e2n","name_en":"Hong Dan","full_name":"Huy\u1ec7n H\u1ed3ng D\u00e2n","full_name_en":"Hong Dan District","unit_name":"Huy\u1ec7n","unit_name_en":"District"},{"id":"683","province_id":"62","code":"957","name":"Ph\u01b0\u1edbc Long","name_en":"Phuoc Long","full_name":"Huy\u1ec7n Ph\u01b0\u1edbc Long","full_name_en":"Phuoc Long District","unit_name":"Huy\u1ec7n","unit_name_en":"District"},{"id":"684","province_id":"62","code":"958","name":"V\u0129nh L\u1ee3i","name_en":"Vinh Loi","full_name":"Huy\u1ec7n V\u0129nh L\u1ee3i","full_name_en":"Vinh Loi District","unit_name":"Huy\u1ec7n","unit_name_en":"District"},{"id":"685","province_id":"62","code":"959","name":"Gi\u00e1 Rai","name_en":"Gia Rai","full_name":"Th\u1ecb x\u00e3 Gi\u00e1 Rai","full_name_en":"Gia Rai Town","unit_name":"Th\u1ecb x\u00e3","unit_name_en":"Town"},{"id":"686","province_id":"62","code":"960","name":"\u0110\u00f4ng H\u1ea3i","name_en":"Dong Hai","full_name":"Huy\u1ec7n \u0110\u00f4ng H\u1ea3i","full_name_en":"Dong Hai District","unit_name":"Huy\u1ec7n","unit_name_en":"District"},{"id":"687","province_id":"62","code":"961","name":"Ho\u00e0 B\u00ecnh","name_en":"Hoa Binh","full_name":"Huy\u1ec7n Ho\u00e0 B\u00ecnh","full_name_en":"Hoa Binh District","unit_name":"Huy\u1ec7n","unit_name_en":"District"},{"id":"688","province_id":"63","code":"964","name":"C\u00e0 Mau","name_en":"Ca Mau","full_name":"Th\u00e0nh ph\u1ed1 C\u00e0 Mau","full_name_en":"Ca Mau City","unit_name":"Th\u00e0nh ph\u1ed1","unit_name_en":"City"},{"id":"689","province_id":"63","code":"966","name":"U Minh","name_en":"U Minh","full_name":"Huy\u1ec7n U Minh","full_name_en":"U Minh District","unit_name":"Huy\u1ec7n","unit_name_en":"District"},{"id":"690","province_id":"63","code":"967","name":"Th\u1edbi B\u00ecnh","name_en":"Thoi Binh","full_name":"Huy\u1ec7n Th\u1edbi B\u00ecnh","full_name_en":"Thoi Binh District","unit_name":"Huy\u1ec7n","unit_name_en":"District"},{"id":"691","province_id":"63","code":"968","name":"Tr\u1ea7n V\u0103n Th\u1eddi","name_en":"Tran Van Thoi","full_name":"Huy\u1ec7n Tr\u1ea7n V\u0103n Th\u1eddi","full_name_en":"Tran Van Thoi District","unit_name":"Huy\u1ec7n","unit_name_en":"District"},{"id":"692","province_id":"63","code":"969","name":"C\u00e1i N\u01b0\u1edbc","name_en":"Cai Nuoc","full_name":"Huy\u1ec7n C\u00e1i N\u01b0\u1edbc","full_name_en":"Cai Nuoc District","unit_name":"Huy\u1ec7n","unit_name_en":"District"},{"id":"693","province_id":"63","code":"970","name":"\u0110\u1ea7m D\u01a1i","name_en":"Dam Doi","full_name":"Huy\u1ec7n \u0110\u1ea7m D\u01a1i","full_name_en":"Dam Doi District","unit_name":"Huy\u1ec7n","unit_name_en":"District"},{"id":"694","province_id":"63","code":"971","name":"N\u0103m C\u0103n","name_en":"Nam Can","full_name":"Huy\u1ec7n N\u0103m C\u0103n","full_name_en":"Nam Can District","unit_name":"Huy\u1ec7n","unit_name_en":"District"},{"id":"695","province_id":"63","code":"972","name":"Ph\u00fa T\u00e2n","name_en":"Phu Tan","full_name":"Huy\u1ec7n Ph\u00fa T\u00e2n","full_name_en":"Phu Tan District","unit_name":"Huy\u1ec7n","unit_name_en":"District"},{"id":"696","province_id":"63","code":"973","name":"Ng\u1ecdc Hi\u1ec3n","name_en":"Ngoc Hien","full_name":"Huy\u1ec7n Ng\u1ecdc Hi\u1ec3n","full_name_en":"Ngoc Hien District","unit_name":"Huy\u1ec7n","unit_name_en":"District"}]